{"updated":"2026-07-23T21:43Z","m":{"RJAA":{"raw":"METAR RJAA 232130Z 06006KT 7000 FEW003 BKN005 25/24 Q1011 BECMG 09006KT BKN020","cat":"IFR","temp":25,"wdir":60,"wspd":6,"visib":4.35,"obs":1784842200,"hist":[{"obs":1784840400,"raw":"METAR RJAA 232100Z 08006KT 5000 BR FEW003 BKN005 25/24 Q1010 BECMG BKN020","cat":"IFR"},{"obs":1784838600,"raw":"METAR RJAA 232030Z AUTO 07006KT 5000 BR OVC002 25/24 Q1010 TEMPO 4000 BR","cat":"LIFR"},{"obs":1784836800,"raw":"METAR RJAA 232000Z AUTO 05007KT 4100 BR OVC002 25/24 Q1010 TEMPO 3000 BR","cat":"LIFR"},{"obs":1784835000,"raw":"METAR RJAA 231930Z AUTO 06006KT 6000 OVC003 25/24 Q1010 TEMPO 3000 BR BECMG 02006KT","cat":"LIFR"},{"obs":1784833200,"raw":"METAR RJAA 231900Z AUTO 04005KT 010V080 5000 BR OVC003 25/24 Q1010 TEMPO 3000 BR","cat":"LIFR"}]},"RJCC":{"raw":"METAR RJCC 232130Z 19006KT 3200 BR FEW001 SCT002 BKN003 20/19 Q1012","cat":"LIFR","temp":20,"wdir":190,"wspd":6,"visib":1.99,"obs":1784842200,"hist":[{"obs":1784840400,"raw":"METAR RJCC 232100Z 18005KT 0500 R19R/1300VP2000N R19L/1200VP2000U FG VV001 20/20 Q1012","cat":"LIFR"},{"obs":1784838600,"raw":"METAR RJCC 232030Z 22004KT 0500 R19R/1000VP2000D R19L/1300VP2000D FG VV001 20/20 Q1012","cat":"LIFR"},{"obs":1784836800,"raw":"METAR RJCC 232000Z 20004KT 0800 R19R/1500VP2000N R19L/1000VP2000N FG VV001 20/19 Q1012","cat":"LIFR"},{"obs":1784835000,"raw":"METAR RJCC 231930Z 23004KT 0800 R19R/2000N R19L/2000D FG VV001 19/19 Q1012","cat":"LIFR"},{"obs":1784833200,"raw":"METAR RJCC 231900Z 22004KT 0900 R19R/P2000N R19L/P2000N FG VV001 20/19 Q1011","cat":"LIFR"}]},"ROAH":{"raw":"METAR ROAH 232130Z 11008KT 9999 VCSH FEW014 SCT026 30/27 Q1009","cat":"VFR","temp":30,"wdir":110,"wspd":8,"visib":"6+","obs":1784842200,"hist":[{"obs":1784840400,"raw":"METAR ROAH 232100Z 10007KT 9999 -SHRA FEW014 FEW025TCU SCT034 29/27 Q1009","cat":"VFR"},{"obs":1784838600,"raw":"METAR ROAH 232030Z AUTO 11008KT 9999 -RA FEW017 SCT022 BKN041 //////TCU 29/27 Q1009","cat":"VFR"},{"obs":1784836800,"raw":"METAR ROAH 232000Z AUTO 10008KT 9999 FEW016 BKN025 //////TCU 29/27 Q1009","cat":"MVFR"},{"obs":1784835000,"raw":"METAR ROAH 231930Z AUTO 10007KT 9999 SCT031 //////TCU 29/27 Q1009","cat":"VFR"},{"obs":1784833200,"raw":"METAR ROAH 231900Z AUTO 10008KT 9999 FEW039 29/27 Q1009","cat":"VFR"}]},"RJBB":{"raw":"METAR RJBB 232130Z 33001KT 9999 FEW030 29/25 Q1010 NOSIG","cat":"VFR","temp":29,"wdir":330,"wspd":1,"visib":"6+","obs":1784842200,"hist":[{"obs":1784840400,"raw":"METAR RJBB 232100Z 00000KT 9999 FEW030 28/26 Q1010 NOSIG","cat":"VFR"},{"obs":1784838600,"raw":"METAR RJBB 232030Z AUTO 30001KT 9999 NCD 28/26 Q1010 NOSIG","cat":"VFR"},{"obs":1784836800,"raw":"METAR RJBB 232000Z AUTO 29001KT 9999 NCD 28/26 Q1010 NOSIG","cat":"VFR"},{"obs":1784835000,"raw":"METAR RJBB 231930Z AUTO 31003KT 9999 NCD 28/27 Q1010 NOSIG","cat":"VFR"},{"obs":1784833200,"raw":"METAR RJBB 231900Z AUTO 30003KT 7000 NCD 28/27 Q1009 BECMG 05005KT","cat":"MVFR"}]},"RJFF":{"raw":"METAR RJFF 232130Z VRB01KT 9999 FEW020 27/23 Q1011 NOSIG","cat":"VFR","temp":27,"wdir":"VRB","wspd":1,"visib":"6+","obs":1784842200,"hist":[{"obs":1784840400,"raw":"METAR RJFF 232100Z 07002KT 9999 FEW020 26/23 Q1011 NOSIG","cat":"VFR"},{"obs":1784838600,"raw":"METAR RJFF 232030Z AUTO VRB02KT 9999 NCD 26/23 Q1010 NOSIG","cat":"VFR"},{"obs":1784836800,"raw":"METAR RJFF 232000Z AUTO VRB02KT 9999 NCD 26/23 Q1010 NOSIG","cat":"VFR"},{"obs":1784835000,"raw":"METAR RJFF 231930Z AUTO VRB02KT 9999 NCD 26/23 Q1010 BECMG 14006KT","cat":"VFR"},{"obs":1784833200,"raw":"METAR RJFF 231900Z AUTO 13003KT 9999 NCD 26/23 Q1010 NOSIG","cat":"VFR"}]},"RJTT":{"raw":"METAR RJTT 232130Z 07007KT 9999 BKN010 BKN060 27/25 Q1010 NOSIG","cat":"MVFR","temp":27,"wdir":70,"wspd":7,"visib":"6+","obs":1784842200,"hist":[{"obs":1784840400,"raw":"METAR RJTT 232100Z 08006KT 9999 BKN010 27/26 Q1010 NOSIG","cat":"MVFR"},{"obs":1784838600,"raw":"METAR RJTT 232030Z 08007KT 9999 BKN010 BKN060 27/25 Q1010 NOSIG","cat":"MVFR"},{"obs":1784836800,"raw":"METAR RJTT 232000Z 08008KT 9999 SCT010 SCT050 BKN060 27/25 Q1010 TEMPO BKN012","cat":"VFR"},{"obs":1784835000,"raw":"METAR RJTT 231930Z 07008KT 9999 FEW008 BKN010 BKN050 27/25 Q1010 NOSIG","cat":"MVFR"},{"obs":1784833200,"raw":"METAR RJTT 231900Z 06009KT 9999 SCT009 BKN050 27/25 Q1010 NOSIG","cat":"VFR"}]},"RJGG":{"raw":"METAR RJGG 232130Z 11003KT 080V150 9999 FEW030 29/24 Q1010 NOSIG","cat":"VFR","temp":29,"wdir":110,"wspd":3,"visib":"6+","obs":1784842200,"hist":[{"obs":1784840400,"raw":"METAR RJGG 232100Z 15004KT 9999 FEW030 29/24 Q1010 NOSIG","cat":"VFR"},{"obs":1784838600,"raw":"METAR RJGG 232030Z AUTO 15005KT 9999 NCD 28/24 Q1010 NOSIG","cat":"VFR"},{"obs":1784836800,"raw":"METAR RJGG 232000Z AUTO 12004KT 9999 NCD 28/24 Q1009 NOSIG","cat":"VFR"},{"obs":1784835000,"raw":"METAR RJGG 231930Z AUTO VRB02KT 9999 NCD 28/23 Q1009 NOSIG","cat":"VFR"},{"obs":1784833200,"raw":"METAR RJGG 231900Z AUTO 15003KT 9999 NCD 28/23 Q1009 NOSIG","cat":"VFR"}]},"RJTY":{"raw":"SPECI RJTY 232125Z 33005KT 10SM BKN020 BKN026 27/23 A2991 RMK AO2A SLP127 $","cat":"MVFR","temp":27,"wdir":330,"wspd":5,"visib":"10+","obs":1784841900,"hist":[{"obs":1784840100,"raw":"METAR RJTY 232055Z 33003KT 10SM SCT022 BKN050 26/23 A2990 RMK AO2A SLP124 T02640232 52006 $","cat":"VFR"},{"obs":1784836500,"raw":"METAR RJTY 231955Z 34005KT 10SM OVC047 26/23 A2989 RMK AO2A SLP120 T02610229 $","cat":"VFR"},{"obs":1784832900,"raw":"METAR RJTY 231855Z AUTO 34005KT 10SM FEW047 26/23 A2989 RMK AO2 SLP120 T02610227 $","cat":"VFR"}]},"RJSA":{"raw":"METAR RJSA 232100Z AUTO VRB02KT 0000 R24/0225N FG OVC000 21/21 Q1011","cat":"LIFR","temp":21,"wdir":"VRB","wspd":2,"visib":0,"obs":1784840400,"hist":[{"obs":1784836800,"raw":"METAR RJSA 232000Z AUTO 06003KT 020V090 0000 R24/0175N FG OVC000 21/21 Q1011","cat":"LIFR"},{"obs":1784833200,"raw":"METAR RJSA 231900Z AUTO 01003KT 0000 R24/0300N FG OVC000 21/21 Q1011","cat":"LIFR"}]},"RJAH":{"raw":"METAR RJAH 232100Z 07005KT 9999 FEW004 BKN005 BKN060 24/24 Q1010","cat":"IFR","temp":24,"wdir":70,"wspd":5,"visib":"6+","obs":1784840400,"hist":[{"obs":1784836800,"raw":"METAR RJAH 232000Z 07005KT 9999 SCT004 BKN005 BKN060 24/24 Q1010","cat":"IFR"},{"obs":1784833200,"raw":"METAR RJAH 231900Z 06006KT 9999 FEW004 BKN005 BKN008 24/24 Q1010","cat":"IFR"}]},"RJBD":{"raw":"METAR RJBD 232100Z AUTO 04004KT 9000 NCD 27/23 Q1010","cat":"VFR","temp":27,"wdir":40,"wspd":4,"visib":5.59,"obs":1784840400,"hist":[{"obs":1784836800,"raw":"METAR RJBD 232000Z AUTO VRB01KT 8000 NCD 27/24 Q1010","cat":"MVFR"},{"obs":1784833200,"raw":"METAR RJBD 231900Z AUTO VRB02KT 7000 NCD 27/24 Q1010","cat":"MVFR"}]},"RJCH":{"raw":"METAR RJCH 232100Z AUTO VRB02KT 9999 NSC 22/21 Q1011","cat":"VFR","temp":22,"wdir":"VRB","wspd":2,"visib":"6+","obs":1784840400,"hist":[{"obs":1784836800,"raw":"METAR RJCH 232000Z AUTO 03003KT 9999 NSC 21/20 Q1011","cat":"VFR"},{"obs":1784833200,"raw":"METAR RJCH 231900Z AUTO 07003KT 040V110 9999 NSC 20/19 Q1010","cat":"VFR"}]},"RJCK":{"raw":"METAR RJCK 232100Z AUTO 06005KT 9999 BKN006 OVC021 17/16 Q1014","cat":"IFR","temp":17,"wdir":60,"wspd":5,"visib":"6+","obs":1784840400,"hist":[{"obs":1784836800,"raw":"METAR RJCK 232000Z AUTO 07004KT 9999 FEW006 SCT021 OVC023 17/16 Q1013","cat":"MVFR"},{"obs":1784833200,"raw":"METAR RJCK 231900Z AUTO 10003KT 9999 SCT022 OVC023 17/16 Q1013","cat":"MVFR"}]},"RJEC":{"raw":"METAR RJEC 232100Z AUTO VRB02KT 9999 SCT003 OVC005 17/17 Q1013","cat":"IFR","temp":17,"wdir":"VRB","wspd":2,"visib":"6+","obs":1784840400,"hist":[{"obs":1784836800,"raw":"METAR RJEC 232000Z AUTO 36006KT 9999 OVC002 17/17 Q1012","cat":"LIFR"},{"obs":1784833200,"raw":"METAR RJEC 231900Z AUTO 27002KT 9999 FEW005 SCT060 BKN090 17/17 Q1012","cat":"VFR"}]},"RJFG":{"raw":"METAR RJFG 232100Z AUTO 28005KT 9999 FEW005 26/26 Q1012","cat":"VFR","temp":26,"wdir":280,"wspd":5,"visib":"6+","obs":1784840400,"hist":[{"obs":1784836800,"raw":"METAR RJFG 232000Z AUTO 29007KT 9999 FEW005 26/26 Q1012","cat":"VFR"},{"obs":1784833200,"raw":"METAR RJFG 231900Z AUTO 29007KT 9999 FEW005 SCT008 BKN010 26/25 Q1012","cat":"MVFR"}]},"RJFK":{"raw":"METAR RJFK 232100Z 34002KT 9999 VCFG FEW010 23/23 Q1012","cat":"VFR","temp":23,"wdir":340,"wspd":2,"visib":"6+","obs":1784840400,"hist":[]},"RJFM":{"raw":"METAR RJFM 232100Z AUTO 28006KT 9999 NCD 27/24 Q1010","cat":"VFR","temp":27,"wdir":280,"wspd":6,"visib":"6+","obs":1784840400,"hist":[{"obs":1784836800,"raw":"METAR RJFM 232000Z AUTO 29005KT 9999 NCD 28/24 Q1010","cat":"VFR"},{"obs":1784833200,"raw":"METAR RJFM 231900Z AUTO 27003KT 9999 NCD 28/24 Q1010","cat":"VFR"}]},"RJFO":{"raw":"METAR RJFO 232100Z AUTO VRB02KT 9999 NCD 26/24 Q1010","cat":"VFR","temp":26,"wdir":"VRB","wspd":2,"visib":"6+","obs":1784840400,"hist":[{"obs":1784836800,"raw":"METAR RJFO 232000Z AUTO 31003KT 260V020 9999 NCD 26/24 Q1010","cat":"VFR"},{"obs":1784833200,"raw":"METAR RJFO 231900Z AUTO 29003KT 260V340 9999 NCD 26/24 Q1010","cat":"VFR"}]},"RJFR":{"raw":"METAR RJFR 232100Z 32003KT 9999 FEW008 27/24 Q1011","cat":"VFR","temp":27,"wdir":320,"wspd":3,"visib":"6+","obs":1784840400,"hist":[{"obs":1784836800,"raw":"METAR RJFR 232000Z AUTO VRB01KT 9999 NCD 27/25 Q1010","cat":"VFR"},{"obs":1784833200,"raw":"METAR RJFR 231900Z AUTO VRB01KT 9999 NCD 28/25 Q1010","cat":"VFR"}]},"RJFS":{"raw":"METAR RJFS 232100Z AUTO 33002KT 9999 NCD 25/23 Q1011","cat":"VFR","temp":25,"wdir":330,"wspd":2,"visib":"6+","obs":1784840400,"hist":[{"obs":1784836800,"raw":"METAR RJFS 232000Z AUTO 35003KT 9999 NCD 26/23 Q1010","cat":"VFR"},{"obs":1784833200,"raw":"METAR RJFS 231900Z AUTO 36003KT 9999 NCD 26/24 Q1010","cat":"VFR"}]},"RJFT":{"raw":"METAR RJFT 232100Z AUTO VRB01KT 9999 SCT011 BKN018 25/23 Q1012","cat":"MVFR","temp":25,"wdir":"VRB","wspd":1,"visib":"6+","obs":1784840400,"hist":[{"obs":1784836800,"raw":"METAR RJFT 232000Z AUTO 19001KT 9999 FEW012 SCT014 BKN017 25/23 Q1012","cat":"MVFR"},{"obs":1784833200,"raw":"METAR RJFT 231900Z AUTO VRB01KT 9999 NCD 25/23 Q1011","cat":"VFR"}]},"RJKA":{"raw":"METAR RJKA 232100Z AUTO VRB01KT 9999 NCD 26/25 Q1010","cat":"VFR","temp":26,"wdir":"VRB","wspd":1,"visib":"6+","obs":1784840400,"hist":[{"obs":1784836800,"raw":"METAR RJKA 232000Z AUTO 34001KT 9999 NCD 26/25 Q1010","cat":"VFR"},{"obs":1784833200,"raw":"METAR RJKA 231900Z AUTO 27001KT 9999 NCD 26/25 Q1010","cat":"VFR"}]},"RJNK":{"raw":"METAR RJNK 232100Z 16003KT 130V190 9999 FEW030 25/23 Q1010","cat":"VFR","temp":25,"wdir":160,"wspd":3,"visib":"6+","obs":1784840400,"hist":[{"obs":1784836800,"raw":"METAR RJNK 232000Z 14003KT 9999 FEW030 24/23 Q1010","cat":"VFR"},{"obs":1784833200,"raw":"METAR RJNK 231900Z 13003KT 9999 FEW030 25/23 Q1010","cat":"VFR"}]},"RJNT":{"raw":"METAR RJNT 232100Z AUTO 23003KT 9999 NCD 26/22 Q1010","cat":"VFR","temp":26,"wdir":230,"wspd":3,"visib":"6+","obs":1784840400,"hist":[{"obs":1784836800,"raw":"METAR RJNT 232000Z AUTO 19002KT 9999 NCD 25/22 Q1010","cat":"VFR"},{"obs":1784833200,"raw":"METAR RJNT 231900Z AUTO 19004KT 9999 FEW016 25/22 Q1010","cat":"VFR"}]},"RJNW":{"raw":"METAR RJNW 232100Z AUTO 25004KT 9999 FEW028 24/24 Q1011","cat":"VFR","temp":24,"wdir":250,"wspd":4,"visib":"6+","obs":1784840400,"hist":[{"obs":1784836800,"raw":"METAR RJNW 232000Z AUTO VRB02KT 0400 FG BKN000 23/23 Q1011","cat":"LIFR"},{"obs":1784833200,"raw":"METAR RJNW 231900Z AUTO VRB01KT 1600 BR OVC000 23/23 Q1011","cat":"LIFR"}]},"RJOA":{"raw":"METAR RJOA 232100Z AUTO 30003KT 9999 NCD 26/23 Q1012","cat":"VFR","temp":26,"wdir":300,"wspd":3,"visib":"6+","obs":1784840400,"hist":[{"obs":1784836800,"raw":"METAR RJOA 232000Z AUTO 02002KT 9999 NCD 25/23 Q1012","cat":"VFR"},{"obs":1784833200,"raw":"METAR RJOA 231900Z AUTO 30003KT 9999 NCD 26/23 Q1012","cat":"VFR"}]},"RJOC":{"raw":"METAR RJOC 232100Z AUTO 16009KT 9999 NCD 25/23 Q1010","cat":"VFR","temp":25,"wdir":160,"wspd":9,"visib":"6+","obs":1784840400,"hist":[{"obs":1784836800,"raw":"METAR RJOC 232000Z AUTO 16008KT 9999 NCD 24/23 Q1010","cat":"VFR"},{"obs":1784833200,"raw":"METAR RJOC 231900Z AUTO 15006KT 9999 NCD 24/23 Q1010","cat":"VFR"}]},"RJOH":{"raw":"METAR RJOH 232100Z 18005KT 9999 FEW300 25/23 Q1011","cat":"VFR","temp":25,"wdir":180,"wspd":5,"visib":"6+","obs":1784840400,"hist":[{"obs":1784836800,"raw":"METAR RJOH 232000Z 19004KT 9999 FEW300 25/22 Q1010","cat":"VFR"},{"obs":1784833200,"raw":"METAR RJOH 231900Z 17003KT 110V200 9999 FEW050 25/23 Q1010","cat":"VFR"}]},"RJOK":{"raw":"METAR RJOK 232100Z AUTO 34004KT 9999 NCD 27/25 Q1010","cat":"VFR","temp":27,"wdir":340,"wspd":4,"visib":"6+","obs":1784840400,"hist":[{"obs":1784836800,"raw":"METAR RJOK 232000Z AUTO 35004KT 9999 NCD 27/24 Q1009","cat":"VFR"},{"obs":1784833200,"raw":"METAR RJOK 231900Z AUTO 33006KT 9999 NCD 27/25 Q1009","cat":"VFR"}]},"RJOM":{"raw":"METAR RJOM 232100Z AUTO 11005KT 9999 NCD 28/24 Q1010","cat":"VFR","temp":28,"wdir":110,"wspd":5,"visib":"6+","obs":1784840400,"hist":[{"obs":1784836800,"raw":"METAR RJOM 232000Z AUTO 12006KT 9999 NCD 27/24 Q1010","cat":"VFR"},{"obs":1784833200,"raw":"METAR RJOM 231900Z AUTO 13005KT 9999 NCD 28/24 Q1010","cat":"VFR"}]},"RJOO":{"raw":"METAR RJOO 232100Z AUTO 31006KT 9999 NCD 28/22 Q1010","cat":"VFR","temp":28,"wdir":310,"wspd":6,"visib":"6+","obs":1784840400,"hist":[{"obs":1784836800,"raw":"METAR RJOO 232000Z AUTO 31006KT 9999 NCD 27/22 Q1010","cat":"VFR"},{"obs":1784833200,"raw":"METAR RJOO 231900Z AUTO 30004KT 9999 NCD 28/22 Q1009","cat":"VFR"}]},"RJOR":{"raw":"METAR RJOR 232100Z AUTO 14006KT 9999 FEW060 26/23 Q1011","cat":"VFR","temp":26,"wdir":140,"wspd":6,"visib":"6+","obs":1784840400,"hist":[{"obs":1784836800,"raw":"METAR RJOR 232000Z AUTO 14005KT 9999 OVC060 26/23 Q1010","cat":"VFR"},{"obs":1784833200,"raw":"METAR RJOR 231900Z AUTO 16003KT 9999 FEW060 26/23 Q1010","cat":"VFR"}]},"RJOS":{"raw":"METAR RJOS 232100Z 00000KT 9999 FEW030 28/24 Q1010","cat":"VFR","temp":28,"wdir":0,"wspd":0,"visib":"6+","obs":1784840400,"hist":[{"obs":1784836800,"raw":"METAR RJOS 232000Z VRB02KT 9999 FEW030 28/24 Q1010","cat":"VFR"},{"obs":1784833200,"raw":"METAR RJOS 231900Z 28006KT 9999 FEW030 28/24 Q1009","cat":"VFR"}]},"RJOT":{"raw":"METAR RJOT 232100Z AUTO 14005KT 9999 NCD 26/24 Q1011","cat":"VFR","temp":26,"wdir":140,"wspd":5,"visib":"6+","obs":1784840400,"hist":[{"obs":1784836800,"raw":"METAR RJOT 232000Z AUTO 15006KT 9999 NCD 26/24 Q1011","cat":"VFR"},{"obs":1784833200,"raw":"METAR RJOT 231900Z AUTO 16003KT 140V210 9999 NCD 26/23 Q1011","cat":"VFR"}]},"RJSF":{"raw":"METAR RJSF 232100Z AUTO VRB02KT 9999 FEW009 OVC014 24/22 Q1012","cat":"MVFR","temp":24,"wdir":"VRB","wspd":2,"visib":"6+","obs":1784840400,"hist":[{"obs":1784836800,"raw":"METAR RJSF 232000Z AUTO 17002KT 9999 BKN011 OVC050 23/22 Q1012","cat":"MVFR"},{"obs":1784833200,"raw":"METAR RJSF 231900Z AUTO VRB01KT 9999 BKN009 BKN010 OVC050 23/22 Q1012","cat":"IFR"}]},"RJSN":{"raw":"METAR RJSN 232100Z AUTO 16005KT 9999 ////// 27/25 Q1009","cat":"","temp":27,"wdir":160,"wspd":5,"visib":"6+","obs":1784840400,"hist":[{"obs":1784836800,"raw":"METAR RJSN 232000Z AUTO 15004KT 9999 ////// //////TCU 26/24 Q1009","cat":""},{"obs":1784833200,"raw":"METAR RJSN 231900Z AUTO /////KT //// // ////// ///// Q////","cat":""}]},"RJSS":{"raw":"METAR RJSS 232100Z AUTO 22003KT 9999 FEW006 BKN008 BKN010 24/22 Q1011","cat":"IFR","temp":24,"wdir":220,"wspd":3,"visib":"6+","obs":1784840400,"hist":[{"obs":1784836800,"raw":"METAR RJSS 232000Z AUTO 22003KT 190V250 9999 -RA BKN007 OVC010 24/22 Q1011","cat":"IFR"},{"obs":1784833200,"raw":"METAR RJSS 231900Z AUTO 21004KT 9999 FEW007 OVC012 24/22 Q1010","cat":"MVFR"}]},"ROIG":{"raw":"METAR ROIG 232100Z AUTO 09011KT 9999 FEW011 BKN013 BKN018 29/27 Q1007","cat":"MVFR","temp":29,"wdir":90,"wspd":11,"visib":"6+","obs":1784840400,"hist":[{"obs":1784836800,"raw":"METAR ROIG 232000Z AUTO 08012KT 9999 BKN011 BKN019 BKN180 29/27 Q1007","cat":"MVFR"},{"obs":1784833200,"raw":"METAR ROIG 231900Z AUTO 08010KT 9999 SCT011 BKN013 OVC210 28/26 Q1007","cat":"MVFR"}]},"ROMY":{"raw":"METAR ROMY 232100Z AUTO 10008KT 9999 SCT013 BKN210 OVC220 28/27 Q1008","cat":"VFR","temp":28,"wdir":100,"wspd":8,"visib":"6+","obs":1784840400,"hist":[{"obs":1784836800,"raw":"METAR ROMY 232000Z AUTO 09009KT 9999 FEW010 SCT015 BKN019 28/27 Q1007","cat":"MVFR"},{"obs":1784833200,"raw":"METAR ROMY 231900Z AUTO 09009KT 9999 SCT011 BKN021 BKN210 28/26 Q1008","cat":"MVFR"}]},"RJOI":{"raw":"METAR RJOI 232056Z 31005KT 9999 FEW025 26/23 A2985 RMK AO2A SLP108 T02610228 53004","cat":"VFR","temp":26.1,"wdir":310,"wspd":5,"visib":"6+","obs":1784840160,"hist":[{"obs":1784836560,"raw":"METAR RJOI 231956Z 32004KT 9999 FEW030 26/23 A2984 RMK AO2A SLP103 T02610233","cat":"VFR"},{"obs":1784832960,"raw":"METAR RJOI 231856Z 33005KT 9999 FEW030 27/23 A2984 RMK AO2A SLP103 T02670233","cat":"VFR"}]},"RODN":{"raw":"METAR RODN 232055Z 09012KT 10SM FEW015 FEW022 29/27 A2981 RMK AO2A DZB11E20 SLP095 P0000 60000 T02940268 55000 FZRANO $","cat":"VFR","temp":29.4,"wdir":90,"wspd":12,"visib":"10+","obs":1784840100,"hist":[{"obs":1784836500,"raw":"METAR RODN 231955Z 08008KT 10SM SCT015 SCT020 29/27 A2981 RMK AO2A SLP095 T02910265 FZRANO $","cat":"VFR"},{"obs":1784832900,"raw":"METAR RODN 231855Z 08007KT 10SM FEW080 29/26 A2981 RMK AO2A SLP095 T02910263 FZRANO $","cat":"VFR"}]}}}