{"updated":"2026-07-22T17:53Z","m":{"RJBB":{"raw":"METAR RJBB 221730Z AUTO 23005KT 9999 NSC 28/25 Q1009 BECMG 09004KT","cat":"VFR","temp":28,"wdir":230,"wspd":5,"visib":"6+","obs":1784741400,"hist":[{"obs":1784739600,"raw":"METAR RJBB 221700Z AUTO 24005KT 9999 NSC 28/26 Q1009 BECMG 09004KT","cat":"VFR"},{"obs":1784737800,"raw":"METAR RJBB 221630Z AUTO 24006KT 9999 NCD 28/26 Q1009 NOSIG","cat":"VFR"},{"obs":1784736000,"raw":"METAR RJBB 221600Z AUTO 24007KT 9999 NCD 29/26 Q1009 NOSIG","cat":"VFR"},{"obs":1784734200,"raw":"METAR RJBB 221530Z AUTO 23007KT 9999 NCD 30/25 Q1009 NOSIG","cat":"VFR"},{"obs":1784732400,"raw":"METAR RJBB 221500Z AUTO 22009KT 190V280 9999 NCD 30/25 Q1009 NOSIG","cat":"VFR"}]},"RJFF":{"raw":"METAR RJFF 221730Z AUTO 33004KT 9999 NCD 28/24 Q1009 NOSIG","cat":"VFR","temp":28,"wdir":330,"wspd":4,"visib":"6+","obs":1784741400,"hist":[{"obs":1784739600,"raw":"METAR RJFF 221700Z AUTO VRB02KT 9999 NCD 28/24 Q1009 NOSIG","cat":"VFR"},{"obs":1784737800,"raw":"METAR RJFF 221630Z AUTO 04003KT 350V080 9999 NCD 28/24 Q1009 NOSIG","cat":"VFR"},{"obs":1784736000,"raw":"METAR RJFF 221600Z AUTO VRB02KT 9999 FEW019 28/24 Q1010 NOSIG","cat":"VFR"},{"obs":1784734200,"raw":"METAR RJFF 221530Z AUTO 06003KT 9999 SCT019 29/24 Q1010 NOSIG","cat":"VFR"},{"obs":1784732400,"raw":"METAR RJFF 221500Z AUTO 07003KT 9999 SCT042 BKN050 29/24 Q1010 NOSIG","cat":"VFR"}]},"ROAH":{"raw":"METAR ROAH 221730Z AUTO 10003KT 9999 NCD 29/26 Q1009","cat":"VFR","temp":29,"wdir":100,"wspd":3,"visib":"6+","obs":1784741400,"hist":[{"obs":1784739600,"raw":"METAR ROAH 221700Z AUTO 12003KT 9999 NCD 29/26 Q1009","cat":"VFR"},{"obs":1784737800,"raw":"METAR ROAH 221630Z AUTO 12005KT 9999 NCD 29/26 Q1009","cat":"VFR"},{"obs":1784736000,"raw":"METAR ROAH 221600Z AUTO 11005KT 9999 NCD 29/26 Q1009","cat":"VFR"},{"obs":1784734200,"raw":"METAR ROAH 221530Z AUTO 13004KT 9999 NCD 29/26 Q1010","cat":"VFR"},{"obs":1784732400,"raw":"METAR ROAH 221500Z AUTO 12004KT 9999 NCD 29/26 Q1010","cat":"VFR"}]},"RJGG":{"raw":"METAR RJGG 221730Z AUTO 30016KT 9999 FEW050 30/25 Q1007 NOSIG","cat":"VFR","temp":30,"wdir":300,"wspd":16,"visib":"6+","obs":1784741400,"hist":[{"obs":1784739600,"raw":"METAR RJGG 221700Z AUTO 31015KT 9999 NCD 30/26 Q1007 NOSIG","cat":"VFR"},{"obs":1784737800,"raw":"METAR RJGG 221630Z AUTO 30012KT 9999 NCD 31/25 Q1007 NOSIG","cat":"VFR"},{"obs":1784736000,"raw":"METAR RJGG 221600Z AUTO 31011KT 9999 NCD 31/25 Q1007 NOSIG","cat":"VFR"},{"obs":1784734200,"raw":"METAR RJGG 221530Z AUTO 30012KT 9999 NCD 31/26 Q1007 NOSIG","cat":"VFR"},{"obs":1784732400,"raw":"METAR RJGG 221500Z AUTO 31012KT 9999 NCD 31/25 Q1007 NOSIG","cat":"VFR"}]},"RJAA":{"raw":"METAR RJAA 221730Z AUTO VRB02KT 7000 NCD 27/26 Q1006 NOSIG","cat":"MVFR","temp":27,"wdir":"VRB","wspd":2,"visib":4.35,"obs":1784741400,"hist":[{"obs":1784739600,"raw":"METAR RJAA 221700Z AUTO 25002KT 9000 NSC 27/26 Q1006 NOSIG","cat":"VFR"},{"obs":1784737800,"raw":"METAR RJAA 221630Z AUTO 21002KT 9000 NSC 27/25 Q1006 NOSIG","cat":"VFR"},{"obs":1784736000,"raw":"METAR RJAA 221600Z AUTO 22003KT 9000 NCD 28/25 Q1006 NOSIG","cat":"VFR"},{"obs":1784734200,"raw":"METAR RJAA 221530Z AUTO 19002KT 9000 NSC 28/26 Q1006 NOSIG","cat":"VFR"},{"obs":1784732400,"raw":"METAR RJAA 221500Z AUTO VRB01KT 9999 FEW009 SCT080 29/26 Q1006 NOSIG","cat":"VFR"}]},"RJCC":{"raw":"METAR RJCC 221730Z 35005KT 9999 FEW003 BKN014 20/19 Q1007","cat":"MVFR","temp":20,"wdir":350,"wspd":5,"visib":"6+","obs":1784741400,"hist":[{"obs":1784739600,"raw":"METAR RJCC 221700Z 35006KT 9999 FEW003 BKN015 21/19 Q1007","cat":"MVFR"},{"obs":1784737800,"raw":"METAR RJCC 221630Z 35007KT 9999 FEW003 BKN015 21/20 Q1007","cat":"MVFR"},{"obs":1784736000,"raw":"METAR RJCC 221600Z 36004KT 9999 FEW003 SCT015 BKN025 20/19 Q1007","cat":"MVFR"},{"obs":1784734200,"raw":"METAR RJCC 221530Z 34005KT 9999 FEW008 SCT025 BKN050 21/19 Q1007","cat":"VFR"},{"obs":1784732400,"raw":"METAR RJCC 221500Z 35006KT 9999 FEW008 SCT025 BKN060 21/20 Q1007","cat":"VFR"}]},"RJTT":{"raw":"METAR RJTT 221730Z 19005KT CAVOK 28/27 Q1006 BECMG 33004KT","cat":"VFR","temp":28,"wdir":190,"wspd":5,"visib":"6+","obs":1784741400,"hist":[{"obs":1784739600,"raw":"METAR RJTT 221700Z 20004KT 160V250 CAVOK 29/27 Q1006 NOSIG","cat":"VFR"},{"obs":1784737800,"raw":"METAR RJTT 221630Z 19005KT CAVOK 29/26 Q1006 BECMG TL1700 30004KT","cat":"VFR"},{"obs":1784736000,"raw":"METAR RJTT 221600Z 18007KT CAVOK 29/26 Q1006 BECMG TL1700 30004KT","cat":"VFR"},{"obs":1784734200,"raw":"METAR RJTT 221530Z 17009KT CAVOK 29/27 Q1006 NOSIG","cat":"VFR"},{"obs":1784732400,"raw":"METAR RJTT 221500Z 17010KT 140V200 CAVOK 29/26 Q1006 NOSIG","cat":"VFR"}]},"RJOO":{"raw":"METAR RJOO 221700Z AUTO 31006KT 9999 FEW048 29/24 Q1008","cat":"VFR","temp":29,"wdir":310,"wspd":6,"visib":"6+","obs":1784739600,"hist":[{"obs":1784736000,"raw":"METAR RJOO 221600Z AUTO 32008KT 9999 FEW045 30/24 Q1009","cat":"VFR"},{"obs":1784732400,"raw":"METAR RJOO 221500Z AUTO 31006KT 9999 NCD 30/25 Q1009","cat":"VFR"}]},"RJNK":{"raw":"METAR RJNK 221700Z 17003KT 9999 FEW010 SCT060 26/25 Q1009","cat":"VFR","temp":26,"wdir":170,"wspd":3,"visib":"6+","obs":1784739600,"hist":[{"obs":1784736000,"raw":"METAR RJNK 221600Z 17004KT 9999 FEW030 26/25 Q1009","cat":"VFR"},{"obs":1784732400,"raw":"METAR RJNK 221500Z 22003KT 9999 SCT010 27/25 Q1009","cat":"VFR"}]},"RJOC":{"raw":"METAR RJOC 221700Z AUTO 16004KT 9999 NCD 26/24 Q1009","cat":"VFR","temp":26,"wdir":160,"wspd":4,"visib":"6+","obs":1784739600,"hist":[{"obs":1784736000,"raw":"METAR RJOC 221600Z AUTO 15004KT 9999 NCD 26/25 Q1009","cat":"VFR"},{"obs":1784732400,"raw":"METAR RJOC 221500Z AUTO 17002KT 9999 NCD 27/25 Q1009","cat":"VFR"}]},"RJNT":{"raw":"METAR RJNT 221700Z AUTO 22002KT 9999 NCD 26/23 Q1009","cat":"VFR","temp":26,"wdir":220,"wspd":2,"visib":"6+","obs":1784739600,"hist":[{"obs":1784736000,"raw":"METAR RJNT 221600Z AUTO 22002KT 9999 NCD 27/23 Q1009","cat":"VFR"},{"obs":1784732400,"raw":"METAR RJNT 221500Z AUTO 23002KT 9999 NCD 27/25 Q1009","cat":"VFR"}]},"RJOA":{"raw":"METAR RJOA 221700Z AUTO 03002KT 9999 NCD 26/23 Q1011","cat":"VFR","temp":26,"wdir":30,"wspd":2,"visib":"6+","obs":1784739600,"hist":[{"obs":1784736000,"raw":"METAR RJOA 221600Z AUTO 36002KT 9999 NCD 27/22 Q1011","cat":"VFR"},{"obs":1784732400,"raw":"METAR RJOA 221500Z AUTO 36002KT 9999 NCD 27/23 Q1011","cat":"VFR"}]},"RJNW":{"raw":"METAR RJNW 221700Z AUTO 24004KT 9999 SCT010 BKN019 BKN022 25/24 Q1010","cat":"MVFR","temp":25,"wdir":240,"wspd":4,"visib":"6+","obs":1784739600,"hist":[{"obs":1784736000,"raw":"METAR RJNW 221600Z AUTO 26004KT 9999 -RA FEW010 SCT011 BKN013 25/24 Q1010","cat":"MVFR"},{"obs":1784732400,"raw":"METAR RJNW 221500Z AUTO 26002KT 9999 FEW017 SCT020 24/24 Q1010","cat":"VFR"}]},"RJOH":{"raw":"METAR RJOH 221700Z 19004KT 9999 FEW030 SCT050 26/24 Q1009","cat":"VFR","temp":26,"wdir":190,"wspd":4,"visib":"6+","obs":1784739600,"hist":[{"obs":1784736000,"raw":"METAR RJOH 221600Z 18004KT 9999 FEW030 SCT050 27/24 Q1009","cat":"VFR"},{"obs":1784732400,"raw":"METAR RJOH 221500Z 18004KT 9999 FEW030 SCT050 27/24 Q1009","cat":"VFR"}]},"RJFT":{"raw":"METAR RJFT 221700Z AUTO 21004KT 9999 SCT030 BKN034 BKN037 27/24 Q1011","cat":"VFR","temp":27,"wdir":210,"wspd":4,"visib":"6+","obs":1784739600,"hist":[{"obs":1784736000,"raw":"METAR RJFT 221600Z AUTO 19005KT 9999 FEW027 SCT031 BKN041 27/24 Q1011","cat":"VFR"},{"obs":1784732400,"raw":"METAR RJFT 221500Z AUTO 18005KT 9999 BKN026 BKN037 BKN043 28/24 Q1011","cat":"MVFR"}]},"RJOM":{"raw":"METAR RJOM 221700Z AUTO 12004KT 9999 NCD 28/23 Q1009","cat":"VFR","temp":28,"wdir":120,"wspd":4,"visib":"6+","obs":1784739600,"hist":[{"obs":1784736000,"raw":"METAR RJOM 221600Z AUTO 12006KT 9999 NCD 29/23 Q1009","cat":"VFR"},{"obs":1784732400,"raw":"METAR RJOM 221500Z AUTO 11006KT 9999 NCD 29/23 Q1009","cat":"VFR"}]},"RJOK":{"raw":"METAR RJOK 221700Z AUTO 35003KT 9999 NCD 26/25 Q1009","cat":"VFR","temp":26,"wdir":350,"wspd":3,"visib":"6+","obs":1784739600,"hist":[{"obs":1784736000,"raw":"METAR RJOK 221600Z AUTO 35004KT 9999 NCD 27/26 Q1009","cat":"VFR"},{"obs":1784732400,"raw":"METAR RJOK 221500Z AUTO 36003KT 9999 NCD 27/26 Q1009","cat":"VFR"}]},"RJBD":{"raw":"METAR RJBD 221700Z AUTO VRB01KT 8000 FEW009 27/24 Q1009","cat":"MVFR","temp":27,"wdir":"VRB","wspd":1,"visib":4.97,"obs":1784739600,"hist":[{"obs":1784736000,"raw":"METAR RJBD 221600Z AUTO VRB02KT 9999 BKN013 27/25 Q1009","cat":"MVFR"},{"obs":1784732400,"raw":"METAR RJBD 221500Z AUTO VRB01KT 9000 FEW013 27/25 Q1010","cat":"VFR"}]},"RJKA":{"raw":"METAR RJKA 221700Z AUTO VRB01KT 9999 NCD 27/26 Q1009","cat":"VFR","temp":27,"wdir":"VRB","wspd":1,"visib":"6+","obs":1784739600,"hist":[{"obs":1784736000,"raw":"METAR RJKA 221600Z AUTO VRB02KT 9999 NCD 27/26 Q1010","cat":"VFR"},{"obs":1784732400,"raw":"METAR RJKA 221500Z AUTO VRB02KT 9999 NCD 28/26 Q1010","cat":"VFR"}]},"RJSA":{"raw":"METAR RJSA 221700Z AUTO 01003KT 330V040 0200 R24/0700VP2000D -RA FG OVC001 21/21 Q1007","cat":"LIFR","temp":21,"wdir":10,"wspd":3,"visib":0.12,"obs":1784739600,"hist":[{"obs":1784736000,"raw":"METAR RJSA 221600Z AUTO 33004KT 0100 R24/0450V0750D -RA FG OVC000 22/21 Q1007","cat":"LIFR"},{"obs":1784732400,"raw":"METAR RJSA 221500Z AUTO 23003KT 9999 SCT003 BKN005 OVC007 23/22 Q1007","cat":"IFR"}]},"RJFM":{"raw":"METAR RJFM 221700Z AUTO 26010KT 9999 NCD 29/24 Q1009","cat":"VFR","temp":29,"wdir":260,"wspd":10,"visib":"6+","obs":1784739600,"hist":[{"obs":1784736000,"raw":"METAR RJFM 221600Z AUTO 25011KT 9999 NCD 30/24 Q1009","cat":"VFR"},{"obs":1784732400,"raw":"METAR RJFM 221500Z AUTO 21004KT 9999 NCD 29/26 Q1009","cat":"VFR"}]},"ROMY":{"raw":"METAR ROMY 221700Z AUTO 16001KT 9999 NCD 27/26 Q1009","cat":"VFR","temp":27,"wdir":160,"wspd":1,"visib":"6+","obs":1784739600,"hist":[{"obs":1784736000,"raw":"METAR ROMY 221600Z AUTO 14004KT 9999 NCD 27/26 Q1009","cat":"VFR"},{"obs":1784732400,"raw":"METAR ROMY 221500Z AUTO 15003KT 9999 NCD 27/26 Q1010","cat":"VFR"}]},"RJOT":{"raw":"METAR RJOT 221700Z AUTO 23007KT 9999 SCT060 27/24 Q1010","cat":"VFR","temp":27,"wdir":230,"wspd":7,"visib":"6+","obs":1784739600,"hist":[{"obs":1784736000,"raw":"METAR RJOT 221600Z AUTO 22006KT 9999 BKN060 27/24 Q1010","cat":"VFR"},{"obs":1784732400,"raw":"METAR RJOT 221500Z AUTO 21006KT 9000 NCD 27/23 Q1010","cat":"VFR"}]},"RJFO":{"raw":"METAR RJFO 221700Z AUTO 15003KT 9999 NCD 28/24 Q1009","cat":"VFR","temp":28,"wdir":150,"wspd":3,"visib":"6+","obs":1784739600,"hist":[{"obs":1784736000,"raw":"METAR RJFO 221600Z AUTO 24005KT 9999 FEW041 SCT048 BKN050 28/24 Q1009","cat":"VFR"},{"obs":1784732400,"raw":"METAR RJFO 221500Z AUTO 25003KT 9999 NCD 29/24 Q1009","cat":"VFR"}]},"RJOS":{"raw":"METAR RJOS 221700Z 07004KT 040V100 9999 FEW030 BKN045 29/26 Q1009","cat":"VFR","temp":29,"wdir":70,"wspd":4,"visib":"6+","obs":1784739600,"hist":[{"obs":1784736000,"raw":"METAR RJOS 221600Z 08005KT 9999 FEW030 SCT050 28/26 Q1009","cat":"VFR"},{"obs":1784732400,"raw":"METAR RJOS 221500Z 07005KT 9999 FEW030 29/26 Q1009","cat":"VFR"}]},"RJFR":{"raw":"METAR RJFR 221700Z AUTO 26004KT 9999 NCD 28/24 Q1009","cat":"VFR","temp":28,"wdir":260,"wspd":4,"visib":"6+","obs":1784739600,"hist":[{"obs":1784736000,"raw":"METAR RJFR 221600Z AUTO 25004KT 9999 SCT046 BKN050 29/25 Q1009","cat":"VFR"},{"obs":1784732400,"raw":"METAR RJFR 221500Z AUTO VRB01KT 9999 SCT047 29/25 Q1009","cat":"VFR"}]},"RJOR":{"raw":"METAR RJOR 221700Z AUTO 11002KT 9999 NCD 27/24 Q1009","cat":"VFR","temp":27,"wdir":110,"wspd":2,"visib":"6+","obs":1784739600,"hist":[{"obs":1784736000,"raw":"METAR RJOR 221600Z AUTO 12002KT 9999 NCD 27/25 Q1009","cat":"VFR"},{"obs":1784732400,"raw":"METAR RJOR 221500Z AUTO 21003KT 9999 NCD 28/25 Q1009","cat":"VFR"}]},"RJFS":{"raw":"METAR RJFS 221700Z AUTO 27004KT 9999 FEW050 27/24 Q1010","cat":"VFR","temp":27,"wdir":270,"wspd":4,"visib":"6+","obs":1784739600,"hist":[{"obs":1784736000,"raw":"METAR RJFS 221600Z AUTO 28007KT 9999 NCD 28/24 Q1009","cat":"VFR"},{"obs":1784732400,"raw":"METAR RJFS 221500Z AUTO 28007KT 9999 NCD 28/23 Q1010","cat":"VFR"}]},"RJCH":{"raw":"METAR RJCH 221700Z AUTO 35003KT 9999 FEW027 OVC031 21/20 Q1007","cat":"VFR","temp":21,"wdir":350,"wspd":3,"visib":"6+","obs":1784739600,"hist":[{"obs":1784736000,"raw":"METAR RJCH 221600Z AUTO VRB02KT 9999 FEW026 SCT027 OVC029 21/20 Q1007","cat":"MVFR"},{"obs":1784732400,"raw":"METAR RJCH 221500Z AUTO 00000KT 9999 FEW027 BKN044 OVC047 20/20 Q1006","cat":"VFR"}]},"ROIG":{"raw":"METAR ROIG 221700Z AUTO 29003KT 9999 NCD 26/26 Q1009","cat":"VFR","temp":26,"wdir":290,"wspd":3,"visib":"6+","obs":1784739600,"hist":[{"obs":1784736000,"raw":"METAR ROIG 221600Z AUTO 28003KT 9999 NCD 26/26 Q1009","cat":"VFR"},{"obs":1784732400,"raw":"METAR ROIG 221500Z AUTO 29002KT 9999 FEW017 27/26 Q1010","cat":"VFR"}]},"RJCK":{"raw":"METAR RJCK 221700Z AUTO 02004KT 350V050 0100 R17/0275V0500D FG OVC000 18/18 Q1007","cat":"LIFR","temp":18,"wdir":20,"wspd":4,"visib":0.06,"obs":1784739600,"hist":[{"obs":1784736000,"raw":"METAR RJCK 221600Z AUTO 32003KT 9999 NCD 18/18 Q1007","cat":"VFR"},{"obs":1784732400,"raw":"METAR RJCK 221500Z AUTO 25002KT 9999 NCD 18/18 Q1007","cat":"VFR"}]},"RJAH":{"raw":"METAR RJAH 221700Z 34003KT 8000 FEW030 SCT060 BKN100 27/27 Q1006","cat":"MVFR","temp":27,"wdir":340,"wspd":3,"visib":4.97,"obs":1784739600,"hist":[{"obs":1784736000,"raw":"METAR RJAH 221600Z 32004KT 300V360 9999 FEW030 BKN060 27/27 Q1006","cat":"VFR"},{"obs":1784732400,"raw":"METAR RJAH 221500Z 36003KT 9999 FEW030 SCT060 BKN/// 27/27 Q1006","cat":"VFR"}]},"RJEC":{"raw":"METAR RJEC 221700Z AUTO 25001KT 9999 BKN003 OVC007 19/18 Q1008","cat":"LIFR","temp":19,"wdir":250,"wspd":1,"visib":"6+","obs":1784739600,"hist":[{"obs":1784736000,"raw":"METAR RJEC 221600Z AUTO 33002KT 9999 BKN003 18/17 Q1008","cat":"LIFR"},{"obs":1784732400,"raw":"METAR RJEC 221500Z AUTO 32002KT 9999 FEW013 18/18 Q1008","cat":"VFR"}]},"RJSS":{"raw":"METAR RJSS 221700Z AUTO VRB01KT 9999 NCD 27/23 Q1006","cat":"VFR","temp":27,"wdir":"VRB","wspd":1,"visib":"6+","obs":1784739600,"hist":[{"obs":1784736000,"raw":"METAR RJSS 221600Z AUTO 00000KT 9999 NCD 27/23 Q1005","cat":"VFR"},{"obs":1784732400,"raw":"METAR RJSS 221500Z AUTO 01005KT 9999 NCD 27/24 Q1006","cat":"VFR"}]},"RJSN":{"raw":"METAR RJSN 221700Z AUTO 23009KT 9999 FEW011 SCT025 BKN027 //////CB 27/26 Q1007","cat":"MVFR","temp":27,"wdir":230,"wspd":9,"visib":"6+","obs":1784739600,"hist":[{"obs":1784736000,"raw":"METAR RJSN 221600Z AUTO 23009KT 9999 FEW013 SCT035 BKN040 //////TCU 28/25 Q1007","cat":"VFR"},{"obs":1784732400,"raw":"METAR RJSN 221500Z AUTO 23010KT 9999 FEW014 BKN050 BKN060 //////TCU 28/25 Q1007","cat":"VFR"}]},"RJFG":{"raw":"METAR RJFG 221700Z AUTO 28008KT 9999 FEW005 SCT008 BKN011 27/25 Q1011","cat":"MVFR","temp":27,"wdir":280,"wspd":8,"visib":"6+","obs":1784739600,"hist":[{"obs":1784736000,"raw":"METAR RJFG 221600Z AUTO 28007KT 9999 FEW006 SCT012 BKN017 26/26 Q1011","cat":"MVFR"},{"obs":1784732400,"raw":"METAR RJFG 221500Z AUTO 27004KT 9999 NCD 26/25 Q1012","cat":"VFR"}]},"RJSF":{"raw":"METAR RJSF 221700Z AUTO 36008KT 9999 NCD 25/22 Q1009","cat":"VFR","temp":25,"wdir":360,"wspd":8,"visib":"6+","obs":1784739600,"hist":[{"obs":1784736000,"raw":"METAR RJSF 221600Z AUTO 01008KT 9999 NCD 26/22 Q1009","cat":"VFR"},{"obs":1784732400,"raw":"METAR RJSF 221500Z AUTO 36010KT 9999 NCD 26/23 Q1009","cat":"VFR"}]},"RJOI":{"raw":"METAR RJOI 221656Z 30005KT 9999 FEW030 28/23 A2981 RMK AO2A SLP093 T02780228","cat":"VFR","temp":27.8,"wdir":300,"wspd":5,"visib":"6+","obs":1784739360,"hist":[{"obs":1784735760,"raw":"METAR RJOI 221556Z 32006KT 9999 FEW030 28/23 A2981 RMK AO2A SLP093 T02830228","cat":"VFR"},{"obs":1784732160,"raw":"METAR RJOI 221456Z 31005KT 9999 FEW025 FEW050 29/23 A2982 RMK AO2A SLP096 T02890233 403280267 51007","cat":"VFR"}]},"RJTY":{"raw":"METAR RJTY 221655Z AUTO 00000KT 10SM CLR 28/23 A2978 RMK AO2 SLP082 T02810232 $","cat":"VFR","temp":28.1,"wdir":0,"wspd":0,"visib":"10+","obs":1784739300,"hist":[{"obs":1784735700,"raw":"METAR RJTY 221555Z AUTO 35006KT 10SM SCT065 28/23 A2979 RMK AO2 SLP085 T02830234 $","cat":"VFR"}]},"RODN":{"raw":"METAR RODN 221655Z 00000KT 10SM FEW050 27/26 A2982 RMK AO2A SLP098 T02650256 FZRANO $","cat":"VFR","temp":26.5,"wdir":0,"wspd":0,"visib":"10+","obs":1784739300,"hist":[{"obs":1784735700,"raw":"METAR RODN 221555Z 03003KT 10SM FEW030 27/25 A2983 RMK AO2A SLP102 T02690253 FZRANO $","cat":"VFR"},{"obs":1784733900,"raw":"SPECI RODN 221525Z 00000KT 10SM FEW021 SCT030 BKN080 28/25 A2983 RMK AO2A SLP102 FZRANO $","cat":"VFR"},{"obs":1784733000,"raw":"SPECI RODN 221510Z 20006KT 4SM BR FEW021 BKN030 27/26 A2984 RMK AO2A SLP105 FZRANO $","cat":"MVFR"},{"obs":1784732100,"raw":"METAR RODN 221455Z 00000KT 10SM CLR 27/26 A2984 RMK AO2A SLP105 T02740256 403110266 50002 FZRANO $","cat":"VFR"}]}}}