{"updated":"2026-07-23T18:02Z","m":{"RJOI":{"raw":"METAR RJOI 231756Z 31005KT 10SM FEW030 27/24 A2984 RMK AO2 SLP104 T02720239 10294 20272 58001 $","cat":"VFR","temp":27.2,"wdir":310,"wspd":5,"visib":"10+","obs":1784829360,"hist":[{"obs":1784825760,"raw":"METAR RJOI 231656Z 31004KT 9999 FEW030 27/24 A2984 RMK AO2A SLP103 T02720239","cat":"VFR"},{"obs":1784822160,"raw":"METAR RJOI 231556Z 32004KT 9999 FEW030 28/24 A2984 RMK AO2A SLP106 T02780244","cat":"VFR"}]},"ROAH":{"raw":"METAR ROAH 231730Z AUTO 10008KT 9999 FEW041 29/26 Q1009","cat":"VFR","temp":29,"wdir":100,"wspd":8,"visib":"6+","obs":1784827800,"hist":[{"obs":1784826000,"raw":"METAR ROAH 231700Z AUTO 10008KT 9999 BKN041 29/26 Q1009","cat":"VFR"},{"obs":1784824200,"raw":"METAR ROAH 231630Z AUTO 09007KT 9999 NCD 29/26 Q1010","cat":"VFR"},{"obs":1784822400,"raw":"METAR ROAH 231600Z AUTO 10006KT 9999 NCD 29/26 Q1010","cat":"VFR"},{"obs":1784820600,"raw":"METAR ROAH 231530Z AUTO 11007KT 9999 NCD 29/27 Q1010","cat":"VFR"}]},"RJTT":{"raw":"METAR RJTT 231730Z 07008KT 9999 FEW010 BKN050 28/25 Q1010 NOSIG","cat":"VFR","temp":28,"wdir":70,"wspd":8,"visib":"6+","obs":1784827800,"hist":[{"obs":1784826000,"raw":"METAR RJTT 231700Z 07008KT 9999 FEW020 BKN050 28/26 Q1010 NOSIG","cat":"VFR"},{"obs":1784824200,"raw":"METAR RJTT 231630Z 07008KT 9999 FEW020 BKN050 28/25 Q1010 NOSIG","cat":"VFR"},{"obs":1784822400,"raw":"METAR RJTT 231600Z 07010KT 9999 FEW020 BKN070 28/25 Q1010 NOSIG","cat":"VFR"},{"obs":1784820600,"raw":"METAR RJTT 231530Z 07009KT 9999 FEW020 BKN050 28/25 Q1010 NOSIG","cat":"VFR"}]},"RJFF":{"raw":"METAR RJFF 231730Z AUTO 07003KT 9999 NCD 26/23 Q1010 NOSIG","cat":"VFR","temp":26,"wdir":70,"wspd":3,"visib":"6+","obs":1784827800,"hist":[{"obs":1784826000,"raw":"METAR RJFF 231700Z AUTO 08003KT 9999 NCD 27/24 Q1010 NOSIG","cat":"VFR"},{"obs":1784824200,"raw":"METAR RJFF 231630Z AUTO 13004KT 080V150 9999 NCD 27/24 Q1010 NOSIG","cat":"VFR"},{"obs":1784822400,"raw":"METAR RJFF 231600Z AUTO 11004KT 9999 NCD 28/24 Q1011 NOSIG","cat":"VFR"},{"obs":1784820600,"raw":"METAR RJFF 231530Z AUTO 10004KT 9999 NCD 28/24 Q1011 NOSIG","cat":"VFR"}]},"RJCC":{"raw":"METAR RJCC 231730Z 15003KT 2000 R19R/P2000N R19L/1300VP2000D BR FEW001 BKN002 BKN003 19/19 Q1011","cat":"LIFR","temp":19,"wdir":150,"wspd":3,"visib":1.24,"obs":1784827800,"hist":[{"obs":1784826000,"raw":"METAR RJCC 231700Z VRB02KT 2000 R19R/P2000N R19L/2000N BR FEW001 BKN002 BKN003 19/19 Q1011","cat":"LIFR"},{"obs":1784824200,"raw":"METAR RJCC 231630Z VRB02KT 2400 BR FEW001 BKN002 BKN003 19/19 Q1011","cat":"LIFR"},{"obs":1784822400,"raw":"METAR RJCC 231600Z VRB01KT 2400 BR FEW001 BKN002 BKN003 19/19 Q1011","cat":"LIFR"},{"obs":1784820600,"raw":"METAR RJCC 231530Z 24003KT 2000 BR FEW001 BKN002 BKN003 19/19 Q1011","cat":"LIFR"}]},"RJAA":{"raw":"METAR RJAA 231730Z AUTO 04005KT 360V080 9999 OVC003 25/24 Q1010 NOSIG","cat":"LIFR","temp":25,"wdir":40,"wspd":5,"visib":"6+","obs":1784827800,"hist":[{"obs":1784826000,"raw":"METAR RJAA 231700Z AUTO 03006KT 9999 OVC004 25/24 Q1010 NOSIG","cat":"LIFR"},{"obs":1784824200,"raw":"METAR RJAA 231630Z AUTO 04007KT 9999 OVC005 25/24 Q1010 NOSIG","cat":"IFR"},{"obs":1784822400,"raw":"METAR RJAA 231600Z AUTO 02006KT 9999 BKN005 OVC060 25/24 Q1010 NOSIG","cat":"IFR"},{"obs":1784820600,"raw":"METAR RJAA 231530Z AUTO 03006KT 9999 BKN005 BKN070 BKN080 25/24 Q1010 NOSIG","cat":"IFR"}]},"RJBB":{"raw":"METAR RJBB 231730Z AUTO 20003KT 150V230 9999 NCD 31/22 Q1010 BECMG 07007KT","cat":"VFR","temp":31,"wdir":200,"wspd":3,"visib":"6+","obs":1784827800,"hist":[{"obs":1784826000,"raw":"METAR RJBB 231700Z AUTO 11004KT 080V200 9999 NCD 31/22 Q1010 NOSIG","cat":"VFR"},{"obs":1784824200,"raw":"METAR RJBB 231630Z AUTO 09006KT 9999 NCD 31/22 Q1010 NOSIG","cat":"VFR"},{"obs":1784822400,"raw":"METAR RJBB 231600Z AUTO VRB01KT 9999 NCD 31/23 Q1010 NOSIG","cat":"VFR"},{"obs":1784820600,"raw":"METAR RJBB 231530Z AUTO 11004KT 9999 NCD 30/24 Q1010 NOSIG","cat":"VFR"}]},"RJGG":{"raw":"METAR RJGG 231730Z AUTO 35005KT 9999 NCD 28/20 Q1009 NOSIG","cat":"VFR","temp":28,"wdir":350,"wspd":5,"visib":"6+","obs":1784827800,"hist":[{"obs":1784826000,"raw":"METAR RJGG 231700Z AUTO 36005KT 9999 NCD 28/22 Q1009 NOSIG","cat":"VFR"},{"obs":1784824200,"raw":"METAR RJGG 231630Z AUTO 01005KT 9999 NCD 29/22 Q1009 NOSIG","cat":"VFR"},{"obs":1784822400,"raw":"METAR RJGG 231600Z AUTO VRB02KT 9999 NCD 29/23 Q1009 NOSIG","cat":"VFR"},{"obs":1784820600,"raw":"METAR RJGG 231530Z AUTO 31005KT 9999 NCD 30/23 Q1009 NOSIG","cat":"VFR"}]},"RJSS":{"raw":"METAR RJSS 231700Z AUTO 18004KT 9999 OVC011 24/22 Q1011","cat":"MVFR","temp":24,"wdir":180,"wspd":4,"visib":"6+","obs":1784826000,"hist":[{"obs":1784822400,"raw":"METAR RJSS 231600Z AUTO 13004KT 9999 OVC009 24/22 Q1011","cat":"IFR"}]},"RJBD":{"raw":"METAR RJBD 231700Z AUTO VRB01KT 9000 NCD 28/24 Q1010","cat":"VFR","temp":28,"wdir":"VRB","wspd":1,"visib":5.59,"obs":1784826000,"hist":[{"obs":1784822400,"raw":"METAR RJBD 231600Z AUTO VRB02KT 6000 NCD 28/25 Q1010","cat":"MVFR"}]},"RJSN":{"raw":"METAR RJSN 231700Z AUTO /////KT //// // ////// ///// Q////","cat":"","temp":null,"wdir":null,"wspd":null,"visib":null,"obs":1784826000,"hist":[{"obs":1784822400,"raw":"METAR RJSN 231600Z AUTO /////KT //// // ////// ///// Q////","cat":""}]},"RJSF":{"raw":"METAR RJSF 231700Z AUTO 15002KT 9999 BKN008 OVC017 24/22 Q1012","cat":"IFR","temp":24,"wdir":150,"wspd":2,"visib":"6+","obs":1784826000,"hist":[{"obs":1784822400,"raw":"METAR RJSF 231600Z AUTO 12003KT 9999 SCT010 OVC017 24/22 Q1012","cat":"MVFR"}]},"RJSA":{"raw":"METAR RJSA 231700Z AUTO 01003KT 0100 R24/0400N FG OVC000 21/21 Q1011","cat":"LIFR","temp":21,"wdir":10,"wspd":3,"visib":0.06,"obs":1784826000,"hist":[{"obs":1784822400,"raw":"METAR RJSA 231600Z AUTO VRB02KT 0100 R24/0325V0500N FG OVC000 21/21 Q1011","cat":"LIFR"}]},"RJOT":{"raw":"METAR RJOT 231700Z AUTO 22004KT 9999 NCD 27/24 Q1011","cat":"VFR","temp":27,"wdir":220,"wspd":4,"visib":"6+","obs":1784826000,"hist":[{"obs":1784822400,"raw":"METAR RJOT 231600Z AUTO 22005KT 9999 NCD 28/23 Q1011","cat":"VFR"}]},"RJCH":{"raw":"METAR RJCH 231700Z AUTO 03003KT 9999 FEW005 SCT230 21/19 Q1011","cat":"VFR","temp":21,"wdir":30,"wspd":3,"visib":"6+","obs":1784826000,"hist":[{"obs":1784822400,"raw":"METAR RJCH 231600Z AUTO 05004KT 020V150 9999 NSC 21/19 Q1010","cat":"VFR"}]},"RJOS":{"raw":"METAR RJOS 231700Z 25003KT 9999 FEW030 30/24 Q1010","cat":"VFR","temp":30,"wdir":250,"wspd":3,"visib":"6+","obs":1784826000,"hist":[{"obs":1784822400,"raw":"METAR RJOS 231600Z VRB02KT 9999 FEW030 30/24 Q1010","cat":"VFR"}]},"RJCK":{"raw":"METAR RJCK 231700Z AUTO 11003KT 9999 OVC026 17/16 Q1012","cat":"MVFR","temp":17,"wdir":110,"wspd":3,"visib":"6+","obs":1784826000,"hist":[{"obs":1784822400,"raw":"METAR RJCK 231600Z AUTO 10002KT 9999 SCT026 OVC028 17/16 Q1013","cat":"MVFR"}]},"RJOR":{"raw":"METAR RJOR 231700Z AUTO 14006KT 9999 FEW060 27/24 Q1010","cat":"VFR","temp":27,"wdir":140,"wspd":6,"visib":"6+","obs":1784826000,"hist":[{"obs":1784822400,"raw":"METAR RJOR 231600Z AUTO 14006KT 9999 NCD 27/24 Q1009","cat":"VFR"}]},"RJEC":{"raw":"METAR RJEC 231700Z AUTO 34003KT 9999 FEW031 BKN070 OVC090 17/16 Q1012","cat":"VFR","temp":17,"wdir":340,"wspd":3,"visib":"6+","obs":1784826000,"hist":[{"obs":1784822400,"raw":"METAR RJEC 231600Z AUTO 31001KT 9999 FEW060 BKN070 BKN080 18/17 Q1012","cat":"VFR"}]},"RJOO":{"raw":"METAR RJOO 231700Z AUTO 31005KT 9999 NCD 29/22 Q1010","cat":"VFR","temp":29,"wdir":310,"wspd":5,"visib":"6+","obs":1784826000,"hist":[{"obs":1784822400,"raw":"METAR RJOO 231600Z AUTO 31006KT 9999 NSC 29/22 Q1010","cat":"VFR"}]},"RJOM":{"raw":"METAR RJOM 231700Z AUTO 14005KT 9999 NCD 28/24 Q1010","cat":"VFR","temp":28,"wdir":140,"wspd":5,"visib":"6+","obs":1784826000,"hist":[{"obs":1784822400,"raw":"METAR RJOM 231600Z AUTO 13005KT 9999 NCD 29/24 Q1010","cat":"VFR"}]},"RJOK":{"raw":"METAR RJOK 231700Z AUTO 01003KT 9999 BKN060 OVC070 28/25 Q1009","cat":"VFR","temp":28,"wdir":10,"wspd":3,"visib":"6+","obs":1784826000,"hist":[{"obs":1784822400,"raw":"METAR RJOK 231600Z AUTO 36003KT 9999 NCD 28/25 Q1009","cat":"VFR"}]},"RJFG":{"raw":"METAR RJFG 231700Z AUTO 28008KT 9999 FEW005 SCT007 26/26 Q1012","cat":"VFR","temp":26,"wdir":280,"wspd":8,"visib":"6+","obs":1784826000,"hist":[{"obs":1784822400,"raw":"METAR RJFG 231600Z AUTO 28009KT 9999 FEW007 27/25 Q1012","cat":"VFR"}]},"RJOH":{"raw":"METAR RJOH 231700Z VRB02KT 9999 FEW050 26/24 Q1010","cat":"VFR","temp":26,"wdir":"VRB","wspd":2,"visib":"6+","obs":1784826000,"hist":[{"obs":1784822400,"raw":"METAR RJOH 231600Z 19006KT 9999 FEW050 26/24 Q1010","cat":"VFR"}]},"RJFM":{"raw":"METAR RJFM 231700Z AUTO 29003KT 9999 BKN046 30/25 Q1010","cat":"VFR","temp":30,"wdir":290,"wspd":3,"visib":"6+","obs":1784826000,"hist":[{"obs":1784822400,"raw":"METAR RJFM 231600Z AUTO 30004KT 9999 NCD 30/25 Q1010","cat":"VFR"}]},"RJOC":{"raw":"METAR RJOC 231700Z AUTO 17004KT 9999 FEW013 26/24 Q1010","cat":"VFR","temp":26,"wdir":170,"wspd":4,"visib":"6+","obs":1784826000,"hist":[{"obs":1784822400,"raw":"METAR RJOC 231600Z AUTO 19003KT 160V230 9999 NCD 25/24 Q1010","cat":"VFR"}]},"RJFO":{"raw":"METAR RJFO 231700Z AUTO 27002KT 9999 NCD 28/24 Q1010","cat":"VFR","temp":28,"wdir":270,"wspd":2,"visib":"6+","obs":1784826000,"hist":[{"obs":1784822400,"raw":"METAR RJFO 231600Z AUTO 25001KT 9999 NSC 28/24 Q1010","cat":"VFR"}]},"RJOA":{"raw":"METAR RJOA 231700Z AUTO VRB01KT 9999 NCD 27/23 Q1012","cat":"VFR","temp":27,"wdir":"VRB","wspd":1,"visib":"6+","obs":1784826000,"hist":[{"obs":1784822400,"raw":"METAR RJOA 231600Z AUTO VRB01KT 9999 FEW044 27/23 Q1012","cat":"VFR"}]},"RJFR":{"raw":"METAR RJFR 231700Z AUTO VRB02KT 9999 NCD 28/24 Q1010","cat":"VFR","temp":28,"wdir":"VRB","wspd":2,"visib":"6+","obs":1784826000,"hist":[{"obs":1784822400,"raw":"METAR RJFR 231600Z AUTO 25006KT 9999 NCD 28/24 Q1010","cat":"VFR"}]},"RJNW":{"raw":"METAR RJNW 231700Z AUTO VRB01KT 6000 SCT008 BKN010 23/22 Q1011","cat":"MVFR","temp":23,"wdir":"VRB","wspd":1,"visib":3.73,"obs":1784826000,"hist":[{"obs":1784822400,"raw":"METAR RJNW 231600Z AUTO 28002KT 9999 NCD 24/23 Q1011","cat":"VFR"}]},"RJNT":{"raw":"METAR RJNT 231700Z AUTO 23003KT 9999 NCD 26/23 Q1010","cat":"VFR","temp":26,"wdir":230,"wspd":3,"visib":"6+","obs":1784826000,"hist":[{"obs":1784822400,"raw":"METAR RJNT 231600Z AUTO 21003KT 9999 NCD 26/24 Q1010","cat":"VFR"}]},"RJFT":{"raw":"METAR RJFT 231700Z AUTO 06002KT 9999 NCD 25/23 Q1012","cat":"VFR","temp":25,"wdir":60,"wspd":2,"visib":"6+","obs":1784826000,"hist":[{"obs":1784822400,"raw":"METAR RJFT 231600Z AUTO VRB02KT 9999 NCD 26/23 Q1012","cat":"VFR"}]},"RJNK":{"raw":"METAR RJNK 231700Z 15004KT 9999 FEW030 25/24 Q1010","cat":"VFR","temp":25,"wdir":150,"wspd":4,"visib":"6+","obs":1784826000,"hist":[{"obs":1784822400,"raw":"METAR RJNK 231600Z 16004KT 9999 FEW030 26/24 Q1010","cat":"VFR"}]},"RJKA":{"raw":"METAR RJKA 231700Z AUTO 00000KT 9999 NCD 27/25 Q1011","cat":"VFR","temp":27,"wdir":0,"wspd":0,"visib":"6+","obs":1784826000,"hist":[{"obs":1784822400,"raw":"METAR RJKA 231600Z AUTO VRB01KT 9999 NCD 27/25 Q1011","cat":"VFR"}]},"RJFS":{"raw":"METAR RJFS 231700Z AUTO 29002KT 9999 NCD 27/23 Q1010","cat":"VFR","temp":27,"wdir":290,"wspd":2,"visib":"6+","obs":1784826000,"hist":[{"obs":1784822400,"raw":"METAR RJFS 231600Z AUTO 32003KT 9999 NCD 28/23 Q1011","cat":"VFR"}]},"ROMY":{"raw":"METAR ROMY 231700Z AUTO 09007KT 9999 FEW013 BKN190 OVC200 28/26 Q1008","cat":"VFR","temp":28,"wdir":90,"wspd":7,"visib":"6+","obs":1784826000,"hist":[{"obs":1784822400,"raw":"METAR ROMY 231600Z AUTO 08007KT 9999 FEW013 SCT190 OVC200 28/26 Q1009","cat":"VFR"}]},"ROIG":{"raw":"METAR ROIG 231700Z AUTO 08009KT 9999 BKN014 BKN190 28/26 Q1008","cat":"MVFR","temp":28,"wdir":80,"wspd":9,"visib":"6+","obs":1784826000,"hist":[{"obs":1784822400,"raw":"METAR ROIG 231600Z AUTO 08010KT 9999 BKN011 OVC190 28/26 Q1008","cat":"MVFR"}]},"RJAH":{"raw":"METAR RJAH 231700Z 06007KT 9999 FEW005 SCT006 BKN070 24/24 Q1010","cat":"VFR","temp":24,"wdir":60,"wspd":7,"visib":"6+","obs":1784826000,"hist":[{"obs":1784822400,"raw":"METAR RJAH 231600Z 05003KT 020V080 9999 FEW005 OVC006 25/25 Q1010","cat":"IFR"}]},"RODN":{"raw":"METAR RODN 231655Z 10006KT 10SM FEW100 29/26 A2983 RMK AO2A SLP102 T02900262 FZRANO $","cat":"VFR","temp":29,"wdir":100,"wspd":6,"visib":"10+","obs":1784825700,"hist":[{"obs":1784822100,"raw":"METAR RODN 231555Z 11004KT 10SM FEW100 29/26 A2985 RMK AO2A SLP108 T02880256 FZRANO $","cat":"VFR"}]},"RJTY":{"raw":"METAR RJTY 231655Z 00000KT 10SM BKN044 29/23 A2989 RMK AO2A SLP119 T02850225 $","cat":"VFR","temp":28.5,"wdir":0,"wspd":0,"visib":"10+","obs":1784825700,"hist":[{"obs":1784822100,"raw":"METAR RJTY 231555Z 04003KT 10SM OVC045 29/22 A2988 RMK AO2A SLP116 T02930217 $","cat":"VFR"}]}}}