{"updated":"2026-07-22T13:12Z","m":{"RJNW":{"raw":"METAR RJNW 221300Z AUTO 27004KT 230V300 9999 NCD 25/24 Q1010","cat":"VFR","temp":25,"wdir":270,"wspd":4,"visib":"6+","obs":1784725200,"hist":[{"obs":1784721600,"raw":"METAR RJNW 221200Z AUTO 25005KT 9999 SCT008 BKN010 25/24 Q1010","cat":"MVFR"},{"obs":1784718000,"raw":"METAR RJNW 221100Z AUTO 22003KT 190V270 9999 BKN007 OVC010 26/24 Q1010","cat":"IFR"}]},"RJNT":{"raw":"METAR RJNT 221300Z AUTO 24004KT 9999 NCD 28/25 Q1009","cat":"VFR","temp":28,"wdir":240,"wspd":4,"visib":"6+","obs":1784725200,"hist":[{"obs":1784721600,"raw":"METAR RJNT 221200Z 24003KT 9999 FEW030 29/25 Q1009","cat":"VFR"},{"obs":1784718000,"raw":"METAR RJNT 221100Z 26004KT 230V310 9999 FEW030 29/25 Q1009","cat":"VFR"}]},"RJBB":{"raw":"METAR RJBB 221300Z 23011KT CAVOK 30/25 Q1008 NOSIG","cat":"VFR","temp":30,"wdir":230,"wspd":11,"visib":"6+","obs":1784725200,"hist":[{"obs":1784723400,"raw":"METAR RJBB 221230Z 23009KT CAVOK 30/26 Q1008 NOSIG","cat":"VFR"},{"obs":1784721600,"raw":"METAR RJBB 221200Z 22008KT CAVOK 30/26 Q1008 NOSIG","cat":"VFR"},{"obs":1784719800,"raw":"METAR RJBB 221130Z 21009KT CAVOK 31/26 Q1008 NOSIG","cat":"VFR"},{"obs":1784718000,"raw":"METAR RJBB 221100Z 22007KT CAVOK 31/26 Q1007 NOSIG","cat":"VFR"},{"obs":1784716200,"raw":"METAR RJBB 221030Z 23008KT CAVOK 31/26 Q1007 NOSIG","cat":"VFR"}]},"RJNK":{"raw":"METAR RJNK 221300Z 20004KT 9999 FEW030 28/26 Q1009","cat":"VFR","temp":28,"wdir":200,"wspd":4,"visib":"6+","obs":1784725200,"hist":[{"obs":1784721600,"raw":"METAR RJNK 221200Z 28004KT 9999 FEW030 28/26 Q1009","cat":"VFR"},{"obs":1784718000,"raw":"METAR RJNK 221100Z 28003KT 9999 FEW030 29/24 Q1009","cat":"VFR"}]},"RJOH":{"raw":"METAR RJOH 221300Z 24009KT 9999 FEW030 SCT050 29/24 Q1009","cat":"VFR","temp":29,"wdir":240,"wspd":9,"visib":"6+","obs":1784725200,"hist":[{"obs":1784721600,"raw":"METAR RJOH 221200Z 26009KT 9999 FEW030 BKN050 30/24 Q1009","cat":"VFR"},{"obs":1784718000,"raw":"METAR RJOH 221100Z 26008KT 9999 FEW030 BKN050 30/24 Q1009","cat":"VFR"}]},"ROAH":{"raw":"METAR ROAH 221300Z 12005KT 9999 FEW020 29/26 Q1010","cat":"VFR","temp":29,"wdir":120,"wspd":5,"visib":"6+","obs":1784725200,"hist":[{"obs":1784723400,"raw":"METAR ROAH 221230Z 12005KT 9999 FEW020 29/26 Q1010","cat":"VFR"},{"obs":1784721600,"raw":"METAR ROAH 221200Z 11004KT 9999 FEW020 29/26 Q1010","cat":"VFR"},{"obs":1784719800,"raw":"METAR ROAH 221130Z VRB01KT 9999 VCSH FEW020 29/26 Q1010","cat":"VFR"},{"obs":1784718000,"raw":"METAR ROAH 221100Z VRB02KT 9999 VCSH FEW024 29/26 Q1010","cat":"VFR"},{"obs":1784716200,"raw":"METAR ROAH 221030Z 02004KT 9999 -SHRA FEW024 29/26 Q1009","cat":"VFR"}]},"RJEC":{"raw":"METAR RJEC 221300Z AUTO VRB01KT 9999 FEW032 20/19 Q1007","cat":"VFR","temp":20,"wdir":"VRB","wspd":1,"visib":"6+","obs":1784725200,"hist":[{"obs":1784721600,"raw":"METAR RJEC 221200Z AUTO VRB02KT 9999 FEW034 21/19 Q1007","cat":"VFR"},{"obs":1784718000,"raw":"METAR RJEC 221100Z 30007KT 9999 FEW015 SCT030 22/20 Q1006","cat":"VFR"}]},"RJOC":{"raw":"METAR RJOC 221300Z AUTO 19003KT 150V220 9999 NCD 28/25 Q1009","cat":"VFR","temp":28,"wdir":190,"wspd":3,"visib":"6+","obs":1784725200,"hist":[{"obs":1784721600,"raw":"METAR RJOC 221200Z AUTO 21004KT 9999 BKN050 28/25 Q1009","cat":"VFR"},{"obs":1784718000,"raw":"METAR RJOC 221100Z 26008KT 9999 FEW015 SCT050 29/26 Q1009","cat":"VFR"}]},"RJOA":{"raw":"METAR RJOA 221300Z 36008KT CAVOK 28/23 Q1011","cat":"VFR","temp":28,"wdir":360,"wspd":8,"visib":"6+","obs":1784725200,"hist":[{"obs":1784721600,"raw":"METAR RJOA 221200Z VRB02KT CAVOK 29/24 Q1011","cat":"VFR"},{"obs":1784718000,"raw":"METAR RJOA 221100Z VRB01KT CAVOK 28/23 Q1010","cat":"VFR"}]},"RJFF":{"raw":"METAR RJFF 221300Z 05005KT 020V080 9999 FEW040 SCT045 29/24 Q1010 BECMG 15004KT","cat":"VFR","temp":29,"wdir":50,"wspd":5,"visib":"6+","obs":1784725200,"hist":[{"obs":1784723400,"raw":"METAR RJFF 221230Z 05005KT 020V080 9999 FEW040 29/24 Q1010 BECMG 15004KT","cat":"VFR"},{"obs":1784721600,"raw":"METAR RJFF 221200Z 33004KT 290V060 9999 FEW040 SCT045 30/24 Q1010 NOSIG","cat":"VFR"},{"obs":1784719800,"raw":"METAR RJFF 221130Z 28003KT 210V330 9999 FEW040 SCT050 30/24 Q1009 NOSIG","cat":"VFR"},{"obs":1784718000,"raw":"METAR RJFF 221100Z 31005KT 260V330 9999 FEW040 30/24 Q1009 BECMG 11004KT","cat":"VFR"},{"obs":1784716200,"raw":"METAR RJFF 221030Z 31005KT 250V340 9999 FEW035 30/24 Q1009 NOSIG","cat":"VFR"}]},"RJAA":{"raw":"METAR RJAA 221300Z VRB02KT 9999 FEW030 BKN070 30/26 Q1006 NOSIG","cat":"VFR","temp":30,"wdir":"VRB","wspd":2,"visib":"6+","obs":1784725200,"hist":[{"obs":1784723400,"raw":"METAR RJAA 221230Z 22003KT 9999 FEW030 30/27 Q1006 NOSIG","cat":"VFR"},{"obs":1784721600,"raw":"METAR RJAA 221200Z 15002KT 9999 FEW030CB 29/27 Q1006 NOSIG","cat":"VFR"},{"obs":1784719800,"raw":"METAR RJAA 221130Z 19003KT 160V240 9999 FEW030CB 30/27 Q1006 NOSIG","cat":"VFR"},{"obs":1784718000,"raw":"METAR RJAA 221100Z 14003KT 9999 FEW030 29/26 Q1005 NOSIG","cat":"VFR"},{"obs":1784716200,"raw":"METAR RJAA 221030Z 18004KT 9999 FEW030 30/27 Q1005 NOSIG","cat":"VFR"}]},"RJFG":{"raw":"METAR RJFG 221300Z AUTO 24004KT 9999 NCD 26/25 Q1012","cat":"VFR","temp":26,"wdir":240,"wspd":4,"visib":"6+","obs":1784725200,"hist":[{"obs":1784721600,"raw":"METAR RJFG 221200Z AUTO 22003KT 190V260 9999 NCD 26/25 Q1012","cat":"VFR"},{"obs":1784718000,"raw":"METAR RJFG 221100Z AUTO 25004KT 9999 NCD 27/25 Q1011","cat":"VFR"}]},"RJKA":{"raw":"METAR RJKA 221300Z AUTO VRB01KT 9999 NCD 28/27 Q1010","cat":"VFR","temp":28,"wdir":"VRB","wspd":1,"visib":"6+","obs":1784725200,"hist":[{"obs":1784721600,"raw":"METAR RJKA 221200Z AUTO 21003KT 160V280 9999 NCD 28/27 Q1010","cat":"VFR"},{"obs":1784718000,"raw":"METAR RJKA 221100Z AUTO 21003KT 9999 NSC 28/27 Q1010","cat":"VFR"}]},"RJFM":{"raw":"METAR RJFM 221300Z AUTO 27007KT 9999 BKN050 30/27 Q1009","cat":"VFR","temp":30,"wdir":270,"wspd":7,"visib":"6+","obs":1784725200,"hist":[{"obs":1784721600,"raw":"METAR RJFM 221200Z 28003KT 7000 FEW030 30/26 Q1009","cat":"MVFR"},{"obs":1784718000,"raw":"METAR RJFM 221100Z 18005KT 7000 FEW030 29/27 Q1009","cat":"MVFR"}]},"RJFO":{"raw":"METAR RJFO 221300Z 30005KT 260V360 9999 FEW040 BKN050 30/24 Q1009","cat":"VFR","temp":30,"wdir":300,"wspd":5,"visib":"6+","obs":1784725200,"hist":[{"obs":1784721600,"raw":"METAR RJFO 221200Z 28009KT 9999 FEW040 BKN050 30/24 Q1009","cat":"VFR"},{"obs":1784718000,"raw":"METAR RJFO 221100Z 29006KT 250V310 9999 FEW050 30/25 Q1008","cat":"VFR"}]},"RJGG":{"raw":"METAR RJGG 221300Z 32012KT CAVOK 32/26 Q1007 NOSIG","cat":"VFR","temp":32,"wdir":320,"wspd":12,"visib":"6+","obs":1784725200,"hist":[{"obs":1784723400,"raw":"METAR RJGG 221230Z 31005KT CAVOK 32/26 Q1007 NOSIG","cat":"VFR"},{"obs":1784721600,"raw":"METAR RJGG 221200Z 31008KT CAVOK 33/26 Q1007 NOSIG","cat":"VFR"},{"obs":1784719800,"raw":"METAR RJGG 221130Z 29004KT CAVOK 32/28 Q1007 NOSIG","cat":"VFR"},{"obs":1784718000,"raw":"METAR RJGG 221100Z 24005KT 9999 FEW025 32/28 Q1006 BECMG 29010KT","cat":"VFR"},{"obs":1784716200,"raw":"METAR RJGG 221030Z 21006KT 9999 FEW025 32/29 Q1006 NOSIG","cat":"VFR"}]},"RJTT":{"raw":"METAR RJTT 221300Z 19012KT CAVOK 30/27 Q1006 NOSIG","cat":"VFR","temp":30,"wdir":190,"wspd":12,"visib":"6+","obs":1784725200,"hist":[{"obs":1784723400,"raw":"METAR RJTT 221230Z 19013KT 9999 FEW030 30/26 Q1006 NOSIG","cat":"VFR"},{"obs":1784721600,"raw":"METAR RJTT 221200Z 19012KT 9999 FEW030 30/27 Q1006 NOSIG","cat":"VFR"},{"obs":1784719800,"raw":"METAR RJTT 221130Z 18012KT 9999 FEW030 30/27 Q1006 NOSIG","cat":"VFR"},{"obs":1784718000,"raw":"METAR RJTT 221100Z 18014KT CAVOK 30/27 Q1005 NOSIG","cat":"VFR"},{"obs":1784716200,"raw":"METAR RJTT 221030Z 19015KT 9999 FEW030 30/27 Q1005 NOSIG","cat":"VFR"}]},"RJFR":{"raw":"METAR RJFR 221300Z 26005KT 9999 FEW025 BKN060 29/24 Q1009","cat":"VFR","temp":29,"wdir":260,"wspd":5,"visib":"6+","obs":1784725200,"hist":[{"obs":1784721600,"raw":"METAR RJFR 221200Z 31003KT 280V350 9999 FEW025 29/24 Q1009","cat":"VFR"},{"obs":1784718000,"raw":"METAR RJFR 221100Z 32007KT 9999 FEW020 SCT050 30/25 Q1009","cat":"VFR"}]},"RJSS":{"raw":"METAR RJSS 221300Z AUTO 25004KT 9999 NSC 29/23 Q1006","cat":"VFR","temp":29,"wdir":250,"wspd":4,"visib":"6+","obs":1784725200,"hist":[{"obs":1784721600,"raw":"METAR RJSS 221200Z VRB02KT 9999 FEW030 SCT120 30/23 Q1005","cat":"VFR"},{"obs":1784718000,"raw":"METAR RJSS 221100Z 15003KT 9999 FEW030 SCT100 30/24 Q1005","cat":"VFR"}]},"RJFT":{"raw":"METAR RJFT 221300Z AUTO 20005KT 160V220 9999 SCT030 OVC050 29/24 Q1011","cat":"VFR","temp":29,"wdir":200,"wspd":5,"visib":"6+","obs":1784725200,"hist":[{"obs":1784721600,"raw":"METAR RJFT 221200Z 19006KT 9999 FEW035 BKN050 29/24 Q1011","cat":"VFR"},{"obs":1784718000,"raw":"METAR RJFT 221100Z 20005KT 170V230 9999 FEW035 BKN050 30/23 Q1010","cat":"VFR"}]},"RJFS":{"raw":"METAR RJFS 221300Z 27005KT 9999 FEW040 BKN070 30/25 Q1010","cat":"VFR","temp":30,"wdir":270,"wspd":5,"visib":"6+","obs":1784725200,"hist":[{"obs":1784721600,"raw":"METAR RJFS 221200Z 33003KT 300V360 9999 FEW040 SCT060 BKN070 30/24 Q1009","cat":"VFR"},{"obs":1784718000,"raw":"METAR RJFS 221100Z 33004KT 9999 FEW040 30/24 Q1009","cat":"VFR"}]},"RJBD":{"raw":"METAR RJBD 221300Z AUTO VRB01KT 9999 FEW010 BKN016 28/25 Q1010","cat":"MVFR","temp":28,"wdir":"VRB","wspd":1,"visib":"6+","obs":1784725200,"hist":[{"obs":1784721600,"raw":"METAR RJBD 221200Z AUTO VRB01KT 9999 SCT013 28/25 Q1010","cat":"VFR"},{"obs":1784718000,"raw":"METAR RJBD 221100Z AUTO 30003KT 250V330 9000 SCT010 29/25 Q1009","cat":"VFR"}]},"ROMY":{"raw":"METAR ROMY 221300Z AUTO 12003KT 9999 NCD 28/26 Q1010","cat":"VFR","temp":28,"wdir":120,"wspd":3,"visib":"6+","obs":1784725200,"hist":[{"obs":1784721600,"raw":"METAR ROMY 221200Z AUTO VRB02KT 9999 NCD 28/26 Q1010","cat":"VFR"},{"obs":1784718000,"raw":"METAR ROMY 221100Z 11003KT 090V150 9999 -SHRA SCT018 28/26 Q1009","cat":"VFR"}]},"RJSN":{"raw":"METAR RJSN 221300Z AUTO 22008KT 9999 SCT015 //////TCU 28/25 Q1008","cat":"VFR","temp":28,"wdir":220,"wspd":8,"visib":"6+","obs":1784725200,"hist":[{"obs":1784721600,"raw":"METAR RJSN 221200Z 23009KT 9999 FEW015 BKN/// 29/25 Q1008","cat":"VFR"},{"obs":1784718000,"raw":"METAR RJSN 221100Z 25008KT 9999 FEW015 SCT100 BKN/// 29/25 Q1007","cat":"VFR"}]},"ROIG":{"raw":"METAR ROIG 221300Z AUTO 29001KT 9999 NCD 27/26 Q1010","cat":"VFR","temp":27,"wdir":290,"wspd":1,"visib":"6+","obs":1784725200,"hist":[{"obs":1784721600,"raw":"METAR ROIG 221200Z AUTO 28002KT 9999 NCD 27/26 Q1009","cat":"VFR"},{"obs":1784718000,"raw":"METAR ROIG 221100Z VRB02KT 9999 VCSH FEW022 28/26 Q1009","cat":"VFR"}]},"RJBE":{"raw":"METAR RJBE 221300Z 23010KT CAVOK 29/27 Q1008","cat":"VFR","temp":29,"wdir":230,"wspd":10,"visib":"6+","obs":1784725200,"hist":[{"obs":1784721600,"raw":"METAR RJBE 221200Z 24010KT CAVOK 30/27 Q1008","cat":"VFR"},{"obs":1784718000,"raw":"METAR RJBE 221100Z 24008KT CAVOK 31/25 Q1007","cat":"VFR"}]},"RJSF":{"raw":"METAR RJSF 221300Z AUTO 02008KT 9999 NSC 26/23 Q1009","cat":"VFR","temp":26,"wdir":20,"wspd":8,"visib":"6+","obs":1784725200,"hist":[{"obs":1784721600,"raw":"METAR RJSF 221200Z AUTO 33007KT 9999 NSC 27/23 Q1009","cat":"VFR"},{"obs":1784718000,"raw":"METAR RJSF 221100Z 35008KT 9999 FEW030 BKN100 28/23 Q1009","cat":"VFR"}]},"RJSA":{"raw":"METAR RJSA 221300Z AUTO 27007KT 5000 BR OVC001 23/23 Q1007","cat":"LIFR","temp":23,"wdir":270,"wspd":7,"visib":3.11,"obs":1784725200,"hist":[{"obs":1784721600,"raw":"METAR RJSA 221200Z 26004KT 6000 FEW002 SCT005 BKN015 23/23 Q1006","cat":"MVFR"},{"obs":1784718000,"raw":"METAR RJSA 221100Z 31006KT 290V360 3000 BCFG BR SCT001 BKN002 23/23 Q1006","cat":"LIFR"}]},"RJCC":{"raw":"METAR RJCC 221300Z 34005KT 9999 FEW010 SCT025 BKN060 22/20 Q1006","cat":"VFR","temp":22,"wdir":340,"wspd":5,"visib":"6+","obs":1784725200,"hist":[{"obs":1784723400,"raw":"METAR RJCC 221230Z 36004KT 9999 FEW010 SCT025 BKN080 22/20 Q1006","cat":"VFR"},{"obs":1784721600,"raw":"METAR RJCC 221200Z 01006KT 9999 FEW010 BKN080 22/20 Q1006","cat":"VFR"},{"obs":1784719800,"raw":"METAR RJCC 221130Z 36005KT 9999 FEW010 BKN070 BKN080 22/20 Q1006","cat":"VFR"},{"obs":1784718000,"raw":"METAR RJCC 221100Z 01004KT 9999 FEW010 BKN060 23/20 Q1005","cat":"VFR"},{"obs":1784716200,"raw":"METAR RJCC 221030Z 03003KT 9999 FEW010 BKN050 23/20 Q1005","cat":"VFR"}]},"RJOT":{"raw":"METAR RJOT 221300Z AUTO 17005KT 9999 NCD 28/23 Q1010","cat":"VFR","temp":28,"wdir":170,"wspd":5,"visib":"6+","obs":1784725200,"hist":[{"obs":1784721600,"raw":"METAR RJOT 221200Z 17003KT 130V230 9000 FEW030 28/24 Q1009","cat":"VFR"},{"obs":1784718000,"raw":"METAR RJOT 221100Z 14006KT 9000 FEW030 29/25 Q1009","cat":"VFR"}]},"RJOS":{"raw":"METAR RJOS 221300Z 26003KT 9999 FEW030 32/25 Q1008","cat":"VFR","temp":32,"wdir":260,"wspd":3,"visib":"6+","obs":1784725200,"hist":[{"obs":1784721600,"raw":"METAR RJOS 221200Z 18002KT 9999 FEW030 32/25 Q1008","cat":"VFR"},{"obs":1784718000,"raw":"METAR RJOS 221100Z VRB02KT 9999 FEW030 32/24 Q1008","cat":"VFR"}]},"RJOR":{"raw":"METAR RJOR 221300Z AUTO 33002KT 9999 SCT049 SCT050 BKN060 28/25 Q1009","cat":"VFR","temp":28,"wdir":330,"wspd":2,"visib":"6+","obs":1784725200,"hist":[{"obs":1784721600,"raw":"METAR RJOR 221200Z 34005KT 9999 FEW020 BKN050 29/25 Q1010","cat":"VFR"},{"obs":1784718000,"raw":"METAR RJOR 221100Z VRB02KT 9999 FEW020 BKN050 29/26 Q1009","cat":"VFR"}]},"RJCH":{"raw":"METAR RJCH 221300Z AUTO 09005KT 9999 SCT027 BKN030 BKN037 21/20 Q1006","cat":"MVFR","temp":21,"wdir":90,"wspd":5,"visib":"6+","obs":1784725200,"hist":[{"obs":1784721600,"raw":"METAR RJCH 221200Z AUTO 10005KT 9999 SCT022 BKN026 BKN027 21/20 Q1006","cat":"MVFR"},{"obs":1784718000,"raw":"METAR RJCH 221100Z 08005KT 8000 -SHRA FEW004 SCT008 BKN025 20/20 Q1006","cat":"MVFR"}]},"RJAH":{"raw":"METAR RJAH 221300Z 01006KT 8000 FEW020 BKN/// 29/28 Q1006 RETS","cat":"MVFR","temp":29,"wdir":10,"wspd":6,"visib":4.97,"obs":1784725200,"hist":[{"obs":1784721600,"raw":"METAR RJAH 221200Z 36003KT 9999 -TSRA FEW020 BKN030 SCT035CB BKN/// 30/28 Q1006","cat":"MVFR"},{"obs":1784718000,"raw":"METAR RJAH 221100Z 16004KT 9999 TS FEW030 FEW035CB BKN/// 31/27 Q1005","cat":"VFR"}]},"RJOO":{"raw":"METAR RJOO 221300Z AUTO 34006KT 9999 NCD 31/25 Q1008","cat":"VFR","temp":31,"wdir":340,"wspd":6,"visib":"6+","obs":1784725200,"hist":[{"obs":1784721600,"raw":"METAR RJOO 221200Z AUTO 33007KT 9999 NCD 33/24 Q1008","cat":"VFR"},{"obs":1784718000,"raw":"METAR RJOO 221100Z 31007KT CAVOK 34/24 Q1007","cat":"VFR"}]},"RJCK":{"raw":"METAR RJCK 221300Z AUTO 32006KT 9999 BKN017 OVC026 20/20 Q1007","cat":"MVFR","temp":20,"wdir":320,"wspd":6,"visib":"6+","obs":1784725200,"hist":[{"obs":1784721600,"raw":"METAR RJCK 221200Z AUTO 32004KT 9999 FEW020 SCT028 BKN029 20/20 Q1007","cat":"MVFR"},{"obs":1784718000,"raw":"METAR RJCK 221100Z 32003KT 9999 FEW003 BKN008 BKN012 20/20 Q1006","cat":"IFR"}]},"RJOM":{"raw":"METAR RJOM 221300Z AUTO 19003KT 9999 NCD 28/24 Q1009","cat":"VFR","temp":28,"wdir":190,"wspd":3,"visib":"6+","obs":1784725200,"hist":[{"obs":1784721600,"raw":"METAR RJOM 221200Z 23004KT CAVOK 28/25 Q1009","cat":"VFR"},{"obs":1784718000,"raw":"METAR RJOM 221100Z 24005KT 9999 FEW040 29/24 Q1008","cat":"VFR"}]},"RJOK":{"raw":"METAR RJOK 221300Z AUTO 06002KT 9999 NCD 28/26 Q1009","cat":"VFR","temp":28,"wdir":60,"wspd":2,"visib":"6+","obs":1784725200,"hist":[{"obs":1784721600,"raw":"METAR RJOK 221200Z AUTO 10002KT 9999 FEW027 28/26 Q1009","cat":"VFR"},{"obs":1784718000,"raw":"METAR RJOK 221100Z 16003KT 120V210 9999 FEW020 29/27 Q1009","cat":"VFR"}]},"RJOI":{"raw":"METAR RJOI 221256Z 00000KT 10SM FEW025 FEW050 29/26 A2981 RMK AO2 SLP093 T02940256 $","cat":"VFR","temp":29.4,"wdir":0,"wspd":0,"visib":"10+","obs":1784724960,"hist":[{"obs":1784721360,"raw":"METAR RJOI 221156Z 12005KT 9999 FEW025 FEW050 29/26 A2980 RMK AO2A SLP090 T02890261 10328 20289 53015","cat":"VFR"},{"obs":1784717760,"raw":"METAR RJOI 221056Z 14006KT 10SM FEW025 29/26 A2978 RMK AO2 SLP083 T02890256 $","cat":"VFR"}]},"RJFK":{"raw":"METAR RJFK 221200Z 27004KT 240V320 9999 FEW025 SCT030 BKN050 28/24 Q1012","cat":"VFR","temp":28,"wdir":270,"wspd":4,"visib":"6+","obs":1784721600,"hist":[{"obs":1784718000,"raw":"METAR RJFK 221100Z 25005KT 220V280 9999 FEW030 BKN050 28/24 Q1011","cat":"VFR"}]},"RJFU":{"raw":"METAR RJFU 221200Z 22010KT 9999 FEW030 BKN/// 29/23 Q1010","cat":"VFR","temp":29,"wdir":220,"wspd":10,"visib":"6+","obs":1784721600,"hist":[{"obs":1784718000,"raw":"METAR RJFU 221100Z 24009KT 9999 FEW030 BKN/// 30/24 Q1009","cat":"VFR"}]},"RODN":{"raw":"METAR RODN 221155Z AUTO 00000KT 10SM CLR 28/26 A2983 RMK AO2 SLP102 60021 70025 T02750255 10300 20273 52011 FZRANO $","cat":"VFR","temp":27.5,"wdir":0,"wspd":0,"visib":"10+","obs":1784721300,"hist":[{"obs":1784717700,"raw":"METAR RODN 221055Z 00000KT 10SM FEW022 SCT034 28/26 A2982 RMK AO2A RAB0955E0957DZB0957E14DZB37E47RAB47E51 SLP098 P0000 T02830263 FZRANO $","cat":"VFR"},{"obs":1784716620,"raw":"SPECI RODN 221037Z 12003KT 10SM -DZ FEW022 SCT033 29/26 A2982 RMK AO2A RAB0955E0957DZB0957E14DZB37 SLP098 FZRANO $","cat":"VFR"}]},"RJTY":{"raw":"SPECI RJTY 221109Z 16008KT 10SM TS CLR 31/26 A2974 RMK AO2A TSB1055E1058TSB09 SLP069 $","cat":"VFR","temp":31,"wdir":160,"wspd":8,"visib":"10+","obs":1784718540,"hist":[{"obs":1784717700,"raw":"METAR RJTY 221055Z COR 17009KT 10SM TS FEW030 31/26 A2974 RMK AO2A TSE0955TSB29E42TSB43 SLP069 T03140257 $ COR 1056","cat":"VFR"},{"obs":1784716140,"raw":"SPECI RJTY 221029Z 16010KT 10SM TS CLR 32/25 A2974 RMK AO2A TSB29 SLP069 $","cat":"VFR"}]},"RJCM":{"raw":"METAR RJCM 221100Z 36004KT 9999 FEW003 SCT006 BKN009 20/19 Q1007","cat":"IFR","temp":20,"wdir":360,"wspd":4,"visib":"6+","obs":1784718000,"hist":[]},"RJDT":{"raw":"METAR RJDT 221100Z 27003KT 220V290 9999 FEW015 28/24 Q1009","cat":"VFR","temp":28,"wdir":270,"wspd":3,"visib":"6+","obs":1784718000,"hist":[]},"RJCO":{"raw":"METAR RJCO 221100Z 31005KT 9999 FEW012 22/21 Q1006","cat":"VFR","temp":22,"wdir":310,"wspd":5,"visib":"6+","obs":1784718000,"hist":[]},"RJCB":{"raw":"METAR RJCB 221100Z 12003KT 3100 SHRA BR FEW002 SCT005 BKN020 20/20 Q1007","cat":"IFR","temp":20,"wdir":120,"wspd":3,"visib":1.93,"obs":1784718000,"hist":[]}}}