{"updated":"2026-07-21T14:16Z","m":{"ROMY":{"raw":"METAR ROMY 211400Z AUTO 20006KT 9999 FEW009 SCT019 28/27 Q1010","cat":"VFR","temp":28,"wdir":200,"wspd":6,"visib":"6+","obs":1784642400},"RJAH":{"raw":"METAR RJAH 211400Z VRB02KT 9999 FEW030 27/26 Q1008","cat":"VFR","temp":27,"wdir":"VRB","wspd":2,"visib":"6+","obs":1784642400},"RJBB":{"raw":"METAR RJBB 211400Z AUTO 22009KT 9999 NCD 29/26 Q1009 NOSIG","cat":"VFR","temp":29,"wdir":220,"wspd":9,"visib":"6+","obs":1784642400},"RJBD":{"raw":"METAR RJBD 211400Z AUTO VRB02KT 9999 SCT011 27/25 Q1010","cat":"VFR","temp":27,"wdir":"VRB","wspd":2,"visib":"6+","obs":1784642400},"RJTT":{"raw":"METAR RJTT 211400Z 17008KT 9999 FEW010 28/27 Q1008 NOSIG","cat":"VFR","temp":28,"wdir":170,"wspd":8,"visib":"6+","obs":1784642400},"ROAH":{"raw":"METAR ROAH 211400Z AUTO 24005KT 9999 NCD 29/27 Q1011","cat":"VFR","temp":29,"wdir":240,"wspd":5,"visib":"6+","obs":1784642400},"ROIG":{"raw":"METAR ROIG 211400Z AUTO 26002KT 9999 NCD 27/27 Q1010","cat":"VFR","temp":27,"wdir":260,"wspd":2,"visib":"6+","obs":1784642400},"RJAA":{"raw":"METAR RJAA 211400Z AUTO VRB01KT 9999 NCD 28/25 Q1008 NOSIG","cat":"VFR","temp":28,"wdir":"VRB","wspd":1,"visib":"6+","obs":1784642400},"RJCC":{"raw":"METAR RJCC 211400Z 35007KT 9999 FEW015 BKN/// 22/20 Q1007","cat":"VFR","temp":22,"wdir":350,"wspd":7,"visib":"6+","obs":1784642400},"RJCH":{"raw":"METAR RJCH 211400Z AUTO 24002KT 9999 NSC 21/20 Q1008","cat":"VFR","temp":21,"wdir":240,"wspd":2,"visib":"6+","obs":1784642400},"RJCK":{"raw":"METAR RJCK 211400Z AUTO 19005KT 0600 R35/0800VP2000U FG OVC001 18/18 Q1006","cat":"LIFR","temp":18,"wdir":190,"wspd":5,"visib":0.37,"obs":1784642400},"RJEC":{"raw":"METAR RJEC 211400Z AUTO 01003KT 9999 NCD 21/20 Q1008","cat":"VFR","temp":21,"wdir":10,"wspd":3,"visib":"6+","obs":1784642400},"RJFF":{"raw":"METAR RJFF 211400Z AUTO 04004KT 9999 NCD 29/25 Q1009 NOSIG","cat":"VFR","temp":29,"wdir":40,"wspd":4,"visib":"6+","obs":1784642400},"RJFG":{"raw":"METAR RJFG 211400Z AUTO 25003KT 9999 NCD 26/25 Q1012","cat":"VFR","temp":26,"wdir":250,"wspd":3,"visib":"6+","obs":1784642400},"RJFM":{"raw":"METAR RJFM 211400Z AUTO 26004KT 9999 NCD 29/25 Q1009","cat":"VFR","temp":29,"wdir":260,"wspd":4,"visib":"6+","obs":1784642400},"RJFO":{"raw":"METAR RJFO 211400Z AUTO VRB01KT 9999 NCD 26/25 Q1009","cat":"VFR","temp":26,"wdir":"VRB","wspd":1,"visib":"6+","obs":1784642400},"RJFR":{"raw":"METAR RJFR 211400Z 27005KT 9999 FEW035 30/25 Q1009","cat":"VFR","temp":30,"wdir":270,"wspd":5,"visib":"6+","obs":1784642400},"RJFS":{"raw":"METAR RJFS 211400Z 28006KT 9999 FEW040 28/24 Q1009","cat":"VFR","temp":28,"wdir":280,"wspd":6,"visib":"6+","obs":1784642400},"RJFT":{"raw":"METAR RJFT 211400Z AUTO 20003KT 9999 SCT034 BKN039 BKN040 28/23 Q1011","cat":"VFR","temp":28,"wdir":200,"wspd":3,"visib":"6+","obs":1784642400},"RJGG":{"raw":"METAR RJGG 211400Z AUTO 13007KT 9999 NCD 30/26 Q1008 NOSIG","cat":"VFR","temp":30,"wdir":130,"wspd":7,"visib":"6+","obs":1784642400},"RJKA":{"raw":"METAR RJKA 211400Z AUTO 26001KT 9999 NCD 28/26 Q1010","cat":"VFR","temp":28,"wdir":260,"wspd":1,"visib":"6+","obs":1784642400},"RJNK":{"raw":"METAR RJNK 211400Z 16004KT 9999 FEW/// 28/27 Q1008","cat":"","temp":28,"wdir":160,"wspd":4,"visib":"6+","obs":1784642400},"RJNT":{"raw":"METAR RJNT 211400Z AUTO 23004KT 9999 NCD 28/26 Q1009","cat":"VFR","temp":28,"wdir":230,"wspd":4,"visib":"6+","obs":1784642400},"RJNW":{"raw":"METAR RJNW 211400Z AUTO 10002KT 0900 R25/0800VP2000U FG OVC001 25/25 Q1010","cat":"LIFR","temp":25,"wdir":100,"wspd":2,"visib":0.56,"obs":1784642400},"RJOA":{"raw":"METAR RJOA 211400Z AUTO 30003KT 9999 NCD 27/23 Q1011","cat":"VFR","temp":27,"wdir":300,"wspd":3,"visib":"6+","obs":1784642400},"RJOC":{"raw":"METAR RJOC 211400Z AUTO 17003KT 9999 NCD 28/25 Q1009","cat":"VFR","temp":28,"wdir":170,"wspd":3,"visib":"6+","obs":1784642400},"RJOH":{"raw":"METAR RJOH 211400Z 18003KT 9999 FEW030 28/26 Q1009","cat":"VFR","temp":28,"wdir":180,"wspd":3,"visib":"6+","obs":1784642400},"RJOK":{"raw":"METAR RJOK 211400Z AUTO 05003KT 9999 BKN011 28/26 Q1010","cat":"MVFR","temp":28,"wdir":50,"wspd":3,"visib":"6+","obs":1784642400},"RJOM":{"raw":"METAR RJOM 211400Z AUTO 31005KT 9999 NCD 26/25 Q1009","cat":"VFR","temp":26,"wdir":310,"wspd":5,"visib":"6+","obs":1784642400},"RJOO":{"raw":"METAR RJOO 211400Z AUTO 24004KT 180V280 9999 NCD 31/24 Q1008","cat":"VFR","temp":31,"wdir":240,"wspd":4,"visib":"6+","obs":1784642400},"RJOR":{"raw":"METAR RJOR 211400Z AUTO 15005KT 9999 FEW038 29/27 Q1008","cat":"VFR","temp":29,"wdir":150,"wspd":5,"visib":"6+","obs":1784642400},"RJOS":{"raw":"METAR RJOS 211400Z 09007KT 9999 FEW030 28/27 Q1009","cat":"VFR","temp":28,"wdir":90,"wspd":7,"visib":"6+","obs":1784642400},"RJOT":{"raw":"METAR RJOT 211400Z AUTO 14006KT 9999 NCD 27/26 Q1010","cat":"VFR","temp":27,"wdir":140,"wspd":6,"visib":"6+","obs":1784642400},"RJSA":{"raw":"METAR RJSA 211400Z AUTO 25004KT 9999 BKN003 OVC007 23/22 Q1009","cat":"LIFR","temp":23,"wdir":250,"wspd":4,"visib":"6+","obs":1784642400},"RJSF":{"raw":"METAR RJSF 211400Z AUTO 36005KT 9999 NCD 25/22 Q1011","cat":"VFR","temp":25,"wdir":360,"wspd":5,"visib":"6+","obs":1784642400},"RJSN":{"raw":"METAR RJSN 211400Z AUTO 13002KT 9999 FEW048 27/25 Q1009","cat":"VFR","temp":27,"wdir":130,"wspd":2,"visib":"6+","obs":1784642400},"RJSS":{"raw":"METAR RJSS 211400Z AUTO 01003KT 320V060 9999 NCD 27/25 Q1008","cat":"VFR","temp":27,"wdir":10,"wspd":3,"visib":"6+","obs":1784642400},"RJOI":{"raw":"METAR RJOI 211356Z 30004KT 9999 FEW015 FEW030 28/24 A2981 RMK AO2A SLP094 LAST T02830239","cat":"VFR","temp":28.3,"wdir":300,"wspd":4,"visib":"6+","obs":1784642160},"RJBE":{"raw":"METAR RJBE 211300Z 26007KT CAVOK 28/27 Q1009","cat":"VFR","temp":28,"wdir":260,"wspd":7,"visib":"6+","obs":1784638800},"RJTY":{"raw":"METAR RJTY 211255Z 00000KT 10SM SCT160 30/26 A2984 RMK AO2A SLP103 T03020257 $","cat":"VFR","temp":30.2,"wdir":0,"wspd":0,"visib":"10+","obs":1784638500},"RODN":{"raw":"METAR RODN 211255Z AUTO 22004KT 10SM CLR 28/27 A2985 RMK AO2 LTG DSNT S SLP108 T02820267 FZRANO $","cat":"VFR","temp":28.2,"wdir":220,"wspd":4,"visib":"10+","obs":1784638500}}}