{"updated":"2026-07-21T18:57Z","m":{"RJGG":{"raw":"METAR RJGG 211830Z AUTO 12008KT 9999 NCD 29/27 Q1008 NOSIG","cat":"VFR","temp":29,"wdir":120,"wspd":8,"visib":"6+","obs":1784658600},"RJCC":{"raw":"METAR RJCC 211830Z 35007KT 9999 FEW015 SCT160 BKN/// 21/20 Q1006","cat":"VFR","temp":21,"wdir":350,"wspd":7,"visib":"6+","obs":1784658600},"RJBB":{"raw":"METAR RJBB 211830Z AUTO 23006KT 9999 NCD 28/26 Q1009 NOSIG","cat":"VFR","temp":28,"wdir":230,"wspd":6,"visib":"6+","obs":1784658600},"RJFF":{"raw":"METAR RJFF 211830Z AUTO VRB02KT 9999 SCT019 SCT023 27/25 Q1010 NOSIG","cat":"VFR","temp":27,"wdir":"VRB","wspd":2,"visib":"6+","obs":1784658600},"RJAA":{"raw":"METAR RJAA 211830Z AUTO VRB01KT 9000 NSC 26/25 Q1007 NOSIG","cat":"VFR","temp":26,"wdir":"VRB","wspd":1,"visib":5.59,"obs":1784658600},"RJTT":{"raw":"METAR RJTT 211830Z 20008KT 9000 NSC 28/26 Q1007 NOSIG","cat":"VFR","temp":28,"wdir":200,"wspd":8,"visib":5.59,"obs":1784658600},"ROAH":{"raw":"METAR ROAH 211830Z AUTO 27003KT 9999 FEW004 28/27 Q1009","cat":"VFR","temp":28,"wdir":270,"wspd":3,"visib":"6+","obs":1784658600},"RJFM":{"raw":"METAR RJFM 211800Z AUTO 26009KT 9999 FEW043 29/24 Q1009","cat":"VFR","temp":29,"wdir":260,"wspd":9,"visib":"6+","obs":1784656800},"RJFO":{"raw":"METAR RJFO 211800Z AUTO 04002KT 9000 BKN039 26/25 Q1009","cat":"VFR","temp":26,"wdir":40,"wspd":2,"visib":5.59,"obs":1784656800},"RJFR":{"raw":"METAR RJFR 211800Z AUTO 31005KT 9999 FEW044 SCT048 BKN050 29/25 Q1010","cat":"VFR","temp":29,"wdir":310,"wspd":5,"visib":"6+","obs":1784656800},"RJFS":{"raw":"METAR RJFS 211800Z AUTO VRB02KT 9999 SCT050 27/25 Q1010","cat":"VFR","temp":27,"wdir":"VRB","wspd":2,"visib":"6+","obs":1784656800},"RJFT":{"raw":"METAR RJFT 211800Z AUTO 18003KT 9999 BKN043 OVC050 27/25 Q1011","cat":"VFR","temp":27,"wdir":180,"wspd":3,"visib":"6+","obs":1784656800},"RJKA":{"raw":"METAR RJKA 211800Z AUTO 31004KT 9999 FEW017 27/26 Q1009","cat":"VFR","temp":27,"wdir":310,"wspd":4,"visib":"6+","obs":1784656800},"RJNK":{"raw":"METAR RJNK 211800Z VRB01KT 9999 FEW/// 27/26 Q1009","cat":"","temp":27,"wdir":"VRB","wspd":1,"visib":"6+","obs":1784656800},"RJNT":{"raw":"METAR RJNT 211800Z AUTO 22003KT 180V240 9000 SCT006 26/25 Q1009","cat":"VFR","temp":26,"wdir":220,"wspd":3,"visib":5.59,"obs":1784656800},"RJNW":{"raw":"METAR RJNW 211800Z AUTO VRB01KT 9000 NCD 24/23 Q1010","cat":"VFR","temp":24,"wdir":"VRB","wspd":1,"visib":5.59,"obs":1784656800},"RJOA":{"raw":"METAR RJOA 211800Z AUTO 30004KT 8000 NCD 26/24 Q1011","cat":"MVFR","temp":26,"wdir":300,"wspd":4,"visib":4.97,"obs":1784656800},"RJOC":{"raw":"METAR RJOC 211800Z AUTO 23004KT 9999 FEW037 BKN041 28/25 Q1009","cat":"VFR","temp":28,"wdir":230,"wspd":4,"visib":"6+","obs":1784656800},"RJOH":{"raw":"METAR RJOH 211800Z 21005KT 9999 FEW015 SCT030 BKN045 27/25 Q1009","cat":"VFR","temp":27,"wdir":210,"wspd":5,"visib":"6+","obs":1784656800},"RJOK":{"raw":"METAR RJOK 211800Z AUTO 36004KT 9999 FEW040 27/25 Q1009","cat":"VFR","temp":27,"wdir":360,"wspd":4,"visib":"6+","obs":1784656800},"RJOM":{"raw":"METAR RJOM 211800Z AUTO 03003KT 9999 NCD 27/25 Q1009","cat":"VFR","temp":27,"wdir":30,"wspd":3,"visib":"6+","obs":1784656800},"RJOO":{"raw":"METAR RJOO 211800Z AUTO 26004KT 220V310 9999 NCD 29/25 Q1009","cat":"VFR","temp":29,"wdir":260,"wspd":4,"visib":"6+","obs":1784656800},"RJOR":{"raw":"METAR RJOR 211800Z AUTO VRB02KT 9999 FEW031 SCT046 28/26 Q1009","cat":"VFR","temp":28,"wdir":"VRB","wspd":2,"visib":"6+","obs":1784656800},"RJOS":{"raw":"METAR RJOS 211800Z 09004KT 7000 FEW003 SCT008 28/27 Q1009","cat":"MVFR","temp":28,"wdir":90,"wspd":4,"visib":4.35,"obs":1784656800},"RJOT":{"raw":"METAR RJOT 211800Z AUTO 21005KT 9999 SCT037 27/25 Q1010","cat":"VFR","temp":27,"wdir":210,"wspd":5,"visib":"6+","obs":1784656800},"RJSA":{"raw":"METAR RJSA 211800Z AUTO 23004KT 9999 FEW002 SCT039 BKN080 22/22 Q1008","cat":"VFR","temp":22,"wdir":230,"wspd":4,"visib":"6+","obs":1784656800},"RJSF":{"raw":"METAR RJSF 211800Z AUTO 14003KT 9999 NCD 24/22 Q1009","cat":"VFR","temp":24,"wdir":140,"wspd":3,"visib":"6+","obs":1784656800},"RJSN":{"raw":"METAR RJSN 211800Z AUTO 04003KT 9999 NCD 26/25 Q1008","cat":"VFR","temp":26,"wdir":40,"wspd":3,"visib":"6+","obs":1784656800},"RJSS":{"raw":"METAR RJSS 211800Z AUTO 34004KT 9999 NCD 26/24 Q1007","cat":"VFR","temp":26,"wdir":340,"wspd":4,"visib":"6+","obs":1784656800},"ROMY":{"raw":"METAR ROMY 211800Z AUTO 20005KT 9999 NCD 27/27 Q1009","cat":"VFR","temp":27,"wdir":200,"wspd":5,"visib":"6+","obs":1784656800},"RJAH":{"raw":"METAR RJAH 211800Z VRB02KT 9999 FEW030 25/25 Q1007","cat":"VFR","temp":25,"wdir":"VRB","wspd":2,"visib":"6+","obs":1784656800},"RJBD":{"raw":"METAR RJBD 211800Z AUTO VRB02KT 9999 FEW011 27/25 Q1010","cat":"VFR","temp":27,"wdir":"VRB","wspd":2,"visib":"6+","obs":1784656800},"RJCH":{"raw":"METAR RJCH 211800Z AUTO VRB02KT 9999 -RA NSC 21/21 Q1007","cat":"VFR","temp":21,"wdir":"VRB","wspd":2,"visib":"6+","obs":1784656800},"RJCK":{"raw":"METAR RJCK 211800Z AUTO 32002KT 0200 R35/0450N FG OVC001 19/19 Q1006","cat":"LIFR","temp":19,"wdir":320,"wspd":2,"visib":0.12,"obs":1784656800},"RJEC":{"raw":"METAR RJEC 211800Z AUTO 25003KT 9999 FEW007 19/19 Q1007","cat":"VFR","temp":19,"wdir":250,"wspd":3,"visib":"6+","obs":1784656800},"RJFG":{"raw":"METAR RJFG 211800Z AUTO 31004KT 9999 FEW003 26/26 Q1011","cat":"VFR","temp":26,"wdir":310,"wspd":4,"visib":"6+","obs":1784656800},"ROIG":{"raw":"METAR ROIG 211800Z AUTO 23008KT 9999 FEW009 28/27 Q1009","cat":"VFR","temp":28,"wdir":230,"wspd":8,"visib":"6+","obs":1784656800},"RJOI":{"raw":"METAR RJOI 211756Z 31004KT 9999 FEW030 27/24 A2982 RMK AO2A SLP098 T02720239 10294 20272 53004","cat":"VFR","temp":27.2,"wdir":310,"wspd":4,"visib":"6+","obs":1784656560},"RODN":{"raw":"METAR RODN 211755Z AUTO 27004KT 10SM CLR 28/27 A2982 RMK AO2 LTG DSNT N AND S SLP098 60000 T02780269 10284 20277 57011 FZRANO $","cat":"VFR","temp":27.8,"wdir":270,"wspd":4,"visib":"10+","obs":1784656500},"RJTY":{"raw":"METAR RJTY 211755Z AUTO 33003KT 10SM CLR 29/24 A2981 RMK AO2 SLP092 T02870244 10306 20286 56007 $","cat":"VFR","temp":28.7,"wdir":330,"wspd":3,"visib":"10+","obs":1784656500}}}