{"updated":"2026-07-24T07:41Z","m":{"ROAH":{"raw":"METAR ROAH 240730Z 12009KT 9999 SHRA BR FEW015 SCT020 BKN030 30/28 Q1010","cat":"MVFR","temp":30,"wdir":120,"wspd":9,"visib":"6+","obs":1784878200,"hist":[{"obs":1784876400,"raw":"METAR ROAH 240700Z 14013KT 9999 SHRA BR FEW015 BKN025 BKN/// 31/27 Q1010","cat":"MVFR"},{"obs":1784874600,"raw":"METAR ROAH 240630Z 14011KT 9999 -SHRA FEW025 SCT045 33/26 Q1010","cat":"VFR"},{"obs":1784872800,"raw":"METAR ROAH 240600Z 13011KT 9999 -SHRA FEW025 SCT040 33/28 Q1010","cat":"VFR"},{"obs":1784871000,"raw":"METAR ROAH 240530Z 14010KT 9999 -SHRA FEW025 SCT043 33/27 Q1010","cat":"VFR"},{"obs":1784869200,"raw":"METAR ROAH 240500Z 13012KT 9999 VCSH FEW025 SCT043 33/27 Q1010","cat":"VFR"}]},"RJGG":{"raw":"METAR RJGG 240730Z 17008KT 9999 FEW020 33/27 Q1008 BECMG FM0830 27005KT","cat":"VFR","temp":33,"wdir":170,"wspd":8,"visib":"6+","obs":1784878200,"hist":[{"obs":1784876400,"raw":"METAR RJGG 240700Z 18009KT 9999 FEW020 33/27 Q1008 NOSIG","cat":"VFR"},{"obs":1784874600,"raw":"METAR RJGG 240630Z 19007KT 9999 FEW020 SCT/// 33/27 Q1008 NOSIG","cat":"VFR"},{"obs":1784872800,"raw":"METAR RJGG 240600Z 19008KT 9999 FEW020 BKN/// 34/27 Q1008 NOSIG","cat":"VFR"},{"obs":1784871000,"raw":"METAR RJGG 240530Z 20007KT 9999 FEW020 BKN/// 33/27 Q1008 NOSIG","cat":"VFR"},{"obs":1784869200,"raw":"METAR RJGG 240500Z 18006KT 9999 FEW020 BKN/// 33/25 Q1008 NOSIG","cat":"VFR"}]},"RJCC":{"raw":"METAR RJCC 240730Z 19012KT 9999 FEW005 SCT009 BKN011 21/18 Q1013","cat":"MVFR","temp":21,"wdir":190,"wspd":12,"visib":"6+","obs":1784878200,"hist":[{"obs":1784876400,"raw":"METAR RJCC 240700Z 19011KT 9999 FEW005 SCT009 BKN012 21/19 Q1013","cat":"MVFR"},{"obs":1784874600,"raw":"METAR RJCC 240630Z 18012KT 9999 FEW005 SCT009 BKN012 22/19 Q1013","cat":"MVFR"},{"obs":1784872800,"raw":"METAR RJCC 240600Z 19012KT 9999 FEW005 SCT009 BKN010 22/19 Q1012","cat":"MVFR"},{"obs":1784871000,"raw":"METAR RJCC 240530Z 19011KT 9999 FEW005 BKN009 BKN010 22/19 Q1012","cat":"IFR"},{"obs":1784869200,"raw":"METAR RJCC 240500Z 20011KT 9999 FEW005 BKN009 BKN010 22/20 Q1012","cat":"IFR"}]},"RJFF":{"raw":"METAR RJFF 240730Z 33010KT 290V010 9999 FEW035 33/24 Q1011 NOSIG","cat":"VFR","temp":33,"wdir":330,"wspd":10,"visib":"6+","obs":1784878200,"hist":[{"obs":1784876400,"raw":"METAR RJFF 240700Z 33011KT 9999 FEW030 33/23 Q1011 NOSIG","cat":"VFR"},{"obs":1784874600,"raw":"METAR RJFF 240630Z 31011KT 9999 FEW030 33/23 Q1011 NOSIG","cat":"VFR"},{"obs":1784872800,"raw":"METAR RJFF 240600Z 32010KT 9999 FEW035 33/23 Q1011 NOSIG","cat":"VFR"},{"obs":1784871000,"raw":"METAR RJFF 240530Z 33010KT 9999 FEW025 33/22 Q1011 NOSIG","cat":"VFR"},{"obs":1784869200,"raw":"METAR RJFF 240500Z 33010KT 270V350 9999 FEW025 33/23 Q1011 NOSIG","cat":"VFR"}]},"RJTT":{"raw":"METAR RJTT 240730Z 20016KT 9999 TS FEW020 FEW030CB SCT100 33/25 Q1008 TEMPO FM0800 2000 +TSRA BR","cat":"VFR","temp":33,"wdir":200,"wspd":16,"visib":"6+","obs":1784878200,"hist":[{"obs":1784876400,"raw":"METAR RJTT 240700Z 20013KT 9999 FEW020 FEW030CB 34/26 Q1009 TEMPO 2000 +TSRA BR","cat":"VFR"},{"obs":1784874600,"raw":"METAR RJTT 240630Z 19013KT 9999 FEW020 33/25 Q1008 TEMPO -TSRA","cat":"VFR"},{"obs":1784872800,"raw":"METAR RJTT 240600Z 18012KT 140V220 9999 FEW030 34/24 Q1008 TEMPO FM0630 -TSRA","cat":"VFR"},{"obs":1784871000,"raw":"METAR RJTT 240530Z 16010KT 110V200 9999 FEW030 33/26 Q1009 TEMPO FM0630 -TSRA","cat":"VFR"},{"obs":1784869200,"raw":"METAR RJTT 240500Z 16009KT 130V190 9999 FEW020 34/26 Q1009 TEMPO FM0630 -TSRA","cat":"VFR"}]},"RJAA":{"raw":"METAR RJAA 240730Z 13010KT 9999 FEW013 BKN015 29/25 Q1009 TEMPO FM0830 -TSRA","cat":"MVFR","temp":29,"wdir":130,"wspd":10,"visib":"6+","obs":1784878200,"hist":[{"obs":1784876400,"raw":"METAR RJAA 240700Z 14011KT 9999 SCT014 29/26 Q1009 TEMPO FM0830 -TSRA","cat":"VFR"},{"obs":1784874600,"raw":"METAR RJAA 240630Z 14010KT 9999 FEW013 BKN017 29/26 Q1009 NOSIG","cat":"MVFR"},{"obs":1784872800,"raw":"METAR RJAA 240600Z 13008KT 080V150 9999 FEW013 BKN020 29/26 Q1009 NOSIG","cat":"MVFR"},{"obs":1784871000,"raw":"METAR RJAA 240530Z 13010KT 9999 FEW013 BKN020 30/25 Q1009 NOSIG","cat":"MVFR"},{"obs":1784869200,"raw":"METAR RJAA 240500Z 11010KT 9999 -SHRA FEW010 BKN030 29/25 Q1010 NOSIG","cat":"MVFR"}]},"RJBB":{"raw":"METAR RJBB 240730Z 25007KT 9999 FEW035 34/26 Q1009 NOSIG","cat":"VFR","temp":34,"wdir":250,"wspd":7,"visib":"6+","obs":1784878200,"hist":[{"obs":1784876400,"raw":"METAR RJBB 240700Z 24007KT 9999 FEW035 34/26 Q1009 NOSIG","cat":"VFR"},{"obs":1784874600,"raw":"METAR RJBB 240630Z 25006KT 9999 FEW035 34/26 Q1009 NOSIG","cat":"VFR"},{"obs":1784872800,"raw":"METAR RJBB 240600Z 26007KT 9999 FEW035 34/27 Q1009 NOSIG","cat":"VFR"},{"obs":1784871000,"raw":"METAR RJBB 240530Z 26007KT 9999 FEW035 33/27 Q1009 NOSIG","cat":"VFR"},{"obs":1784869200,"raw":"METAR RJBB 240500Z 27007KT 9999 FEW035 32/27 Q1010 NOSIG","cat":"VFR"}]},"RJSF":{"raw":"METAR RJSF 240700Z 12003KT 090V160 9999 -SHRA FEW006 SCT015 BKN025 FEW025CB 24/23 Q1012","cat":"MVFR","temp":24,"wdir":120,"wspd":3,"visib":"6+","obs":1784876400,"hist":[{"obs":1784872800,"raw":"METAR RJSF 240600Z 12005KT 090V160 9999 FEW008 SCT015 BKN025 FEW025CB 24/23 Q1012","cat":"MVFR"},{"obs":1784869200,"raw":"METAR RJSF 240500Z 13004KT 070V200 9999 -SHRA FEW005 SCT015 BKN025 FEW025CB 24/23 Q1012","cat":"MVFR"}]},"RJOR":{"raw":"METAR RJOR 240700Z 30012KT 9999 FEW015 SCT020 31/26 Q1011","cat":"VFR","temp":31,"wdir":300,"wspd":12,"visib":"6+","obs":1784876400,"hist":[{"obs":1784872800,"raw":"METAR RJOR 240600Z 30011KT 9999 FEW030 32/26 Q1011","cat":"VFR"},{"obs":1784869200,"raw":"METAR RJOR 240500Z 31010KT 9999 FEW035 32/25 Q1011","cat":"VFR"}]},"RJOS":{"raw":"METAR RJOS 240700Z 04008KT 020V080 9999 FEW030 36/22 Q1009","cat":"VFR","temp":36,"wdir":40,"wspd":8,"visib":"6+","obs":1784876400,"hist":[{"obs":1784872800,"raw":"METAR RJOS 240600Z 04009KT 9999 FEW030 36/22 Q1009","cat":"VFR"},{"obs":1784869200,"raw":"METAR RJOS 240500Z 04009KT 9999 FEW030 37/23 Q1009","cat":"VFR"}]},"RJAF":{"raw":"METAR RJAF 240700Z 35010KT 330V040 9999 FEW060 34/20 Q1012","cat":"VFR","temp":34,"wdir":350,"wspd":10,"visib":"6+","obs":1784876400,"hist":[{"obs":1784872800,"raw":"METAR RJAF 240600Z 35008KT 320V040 9999 FEW060 34/19 Q1011","cat":"VFR"},{"obs":1784869200,"raw":"METAR RJAF 240500Z 35006KT 300V040 9999 FEW050 33/19 Q1012","cat":"VFR"}]},"ROIG":{"raw":"METAR ROIG 240700Z 10011KT 9999 FEW014 FEW025TCU SCT050 32/27 Q1008","cat":"VFR","temp":32,"wdir":100,"wspd":11,"visib":"6+","obs":1784876400,"hist":[{"obs":1784872800,"raw":"METAR ROIG 240600Z 11011KT 9999 FEW014 32/27 Q1008","cat":"VFR"},{"obs":1784869200,"raw":"METAR ROIG 240500Z 12011KT 9999 FEW013 SCT/// 32/27 Q1008","cat":"VFR"}]},"RJAH":{"raw":"METAR RJAH 240700Z 07007KT 040V100 9999 FEW010 BKN012 26/24 Q1010","cat":"MVFR","temp":26,"wdir":70,"wspd":7,"visib":"6+","obs":1784876400,"hist":[{"obs":1784872800,"raw":"METAR RJAH 240600Z 09007KT 070V130 9999 FEW012 BKN015 BKN020 27/24 Q1010","cat":"MVFR"},{"obs":1784869200,"raw":"METAR RJAH 240500Z 09008KT 060V120 9999 FEW015 BKN020 BKN040 28/25 Q1010","cat":"MVFR"}]},"RJBD":{"raw":"METAR RJBD 240700Z 18007KT 150V230 9999 FEW030 32/23 Q1010","cat":"VFR","temp":32,"wdir":180,"wspd":7,"visib":"6+","obs":1784876400,"hist":[{"obs":1784872800,"raw":"METAR RJBD 240600Z 19008KT 150V230 9999 FEW030 33/24 Q1010","cat":"VFR"},{"obs":1784869200,"raw":"METAR RJBD 240500Z 18008KT 150V210 9999 FEW030 31/25 Q1010","cat":"VFR"}]},"RJBE":{"raw":"METAR RJBE 240700Z 25010KT 9999 FEW040 34/25 Q1009","cat":"VFR","temp":34,"wdir":250,"wspd":10,"visib":"6+","obs":1784876400,"hist":[{"obs":1784872800,"raw":"METAR RJBE 240600Z 24009KT 210V280 9999 FEW040 34/26 Q1009","cat":"VFR"},{"obs":1784869200,"raw":"METAR RJBE 240500Z 23010KT 9999 FEW040 34/26 Q1009","cat":"VFR"}]},"RJCB":{"raw":"METAR RJCB 240700Z 14008KT 9999 FEW005 BKN010 18/16 Q1014","cat":"MVFR","temp":18,"wdir":140,"wspd":8,"visib":"6+","obs":1784876400,"hist":[{"obs":1784872800,"raw":"METAR RJCB 240600Z 14008KT 9999 FEW008 BKN012 19/16 Q1014","cat":"MVFR"},{"obs":1784869200,"raw":"METAR RJCB 240500Z 13009KT 9999 FEW008 BKN012 19/16 Q1014","cat":"MVFR"}]},"RJCH":{"raw":"METAR RJCH 240700Z 10013KT 9999 FEW004 SCT010 BKN/// 23/20 Q1012","cat":"VFR","temp":23,"wdir":100,"wspd":13,"visib":"6+","obs":1784876400,"hist":[{"obs":1784872800,"raw":"METAR RJCH 240600Z 11015KT 9999 FEW006 SCT030 BKN/// 24/20 Q1011","cat":"VFR"},{"obs":1784869200,"raw":"METAR RJCH 240500Z 10011KT 070V140 9999 FEW007 BKN/// 25/21 Q1011","cat":"VFR"}]},"RJCK":{"raw":"METAR RJCK 240700Z 16008KT 2500 R17/P2000N -SHRA BR FEW001 SCT002 BKN003 15/15 Q1015","cat":"LIFR","temp":15,"wdir":160,"wspd":8,"visib":1.55,"obs":1784876400,"hist":[{"obs":1784872800,"raw":"METAR RJCK 240600Z 18008KT 3000 -DZ BR FEW002 BKN003 BKN004 15/15 Q1015","cat":"LIFR"},{"obs":1784869200,"raw":"METAR RJCK 240500Z 18008KT 2500 -DZ BR FEW002 BKN003 BKN004 16/15 Q1015","cat":"LIFR"}]},"RJCM":{"raw":"METAR RJCM 240700Z 07008KT 9999 FEW010 BKN020 BKN040 17/14 Q1015","cat":"MVFR","temp":17,"wdir":70,"wspd":8,"visib":"6+","obs":1784876400,"hist":[{"obs":1784872800,"raw":"METAR RJCM 240600Z 06008KT 030V090 9999 FEW010 SCT015 BKN020 18/15 Q1015","cat":"MVFR"},{"obs":1784869200,"raw":"METAR RJCM 240500Z 07006KT 020V090 9999 FEW010 BKN015 18/14 Q1015","cat":"MVFR"}]},"RJCO":{"raw":"METAR RJCO 240700Z 13004KT 090V170 9999 FEW020 SCT030 BKN230 27/21 Q1011","cat":"VFR","temp":27,"wdir":130,"wspd":4,"visib":"6+","obs":1784876400,"hist":[{"obs":1784872800,"raw":"METAR RJCO 240600Z 11006KT 9999 FEW020 SCT030 BKN250 27/21 Q1011","cat":"VFR"},{"obs":1784869200,"raw":"METAR RJCO 240500Z 09006KT 060V160 9999 FEW020 SCT030 BKN250 27/20 Q1011","cat":"VFR"}]},"RJDT":{"raw":"METAR RJDT 240700Z 27006KT 190V340 9999 FEW030 32/25 Q1011","cat":"VFR","temp":32,"wdir":270,"wspd":6,"visib":"6+","obs":1784876400,"hist":[{"obs":1784872800,"raw":"METAR RJDT 240600Z 30005KT 210V020 9999 FEW030 SCT035 32/25 Q1012","cat":"VFR"},{"obs":1784869200,"raw":"METAR RJDT 240500Z 14005KT 9999 SCT030 32/25 Q1012","cat":"VFR"}]},"RJEC":{"raw":"METAR RJEC 240700Z 03006KT 340V060 9999 FEW025 SCT040 BKN/// 25/18 Q1012","cat":"VFR","temp":25,"wdir":30,"wspd":6,"visib":"6+","obs":1784876400,"hist":[{"obs":1784872800,"raw":"METAR RJEC 240600Z VRB03KT 9999 FEW020 SCT030 BKN050 24/19 Q1012","cat":"VFR"},{"obs":1784869200,"raw":"METAR RJEC 240500Z 02005KT 350V060 9999 FEW020 SCT030 BKN050 24/19 Q1012","cat":"VFR"}]},"RJFE":{"raw":"METAR RJFE 240700Z 06006KT 030V090 9999 FEW015 SCT020 BKN025 29/26 Q1012","cat":"MVFR","temp":29,"wdir":60,"wspd":6,"visib":"6+","obs":1784876400,"hist":[{"obs":1784872800,"raw":"METAR RJFE 240600Z 18007KT 9999 -SHRA FEW010 SCT015 BKN025 29/27 Q1012","cat":"MVFR"},{"obs":1784869200,"raw":"METAR RJFE 240500Z 16006KT 130V210 9999 FEW010 SCT015 30/26 Q1012","cat":"VFR"}]},"ROMY":{"raw":"METAR ROMY 240700Z 14011KT 9999 SCT023 31/26 Q1009","cat":"VFR","temp":31,"wdir":140,"wspd":11,"visib":"6+","obs":1784876400,"hist":[{"obs":1784872800,"raw":"METAR ROMY 240600Z 12014KT 9999 SCT024 32/26 Q1009","cat":"VFR"},{"obs":1784869200,"raw":"METAR ROMY 240500Z 13014KT 9999 SCT021 32/26 Q1009","cat":"VFR"}]},"RJFG":{"raw":"METAR RJFG 240700Z 28010KT 9999 FEW015 30/25 Q1012","cat":"VFR","temp":30,"wdir":280,"wspd":10,"visib":"6+","obs":1784876400,"hist":[{"obs":1784872800,"raw":"METAR RJFG 240600Z 29011KT 9999 FEW012 30/26 Q1013","cat":"VFR"},{"obs":1784869200,"raw":"METAR RJFG 240500Z 29011KT 9999 FEW015 SCT/// 31/26 Q1013","cat":"VFR"}]},"RJFK":{"raw":"METAR RJFK 240700Z 26008KT 230V300 9999 FEW020 SCT040 34/24 Q1012","cat":"VFR","temp":34,"wdir":260,"wspd":8,"visib":"6+","obs":1784876400,"hist":[{"obs":1784872800,"raw":"METAR RJFK 240600Z 22008KT 120V260 9999 FEW020 SCT040 34/25 Q1012","cat":"VFR"},{"obs":1784869200,"raw":"METAR RJFK 240500Z VRB06KT 9999 FEW020 SCT040 34/24 Q1013","cat":"VFR"}]},"RJTO":{"raw":"METAR RJTO 240700Z 21011KT 9999 FEW015 SCT020 33/26 Q1009","cat":"VFR","temp":33,"wdir":210,"wspd":11,"visib":"6+","obs":1784876400,"hist":[{"obs":1784872800,"raw":"METAR RJTO 240600Z 35006KT 290V030 9999 FEW010 BKN015 31/27 Q1009","cat":"MVFR"},{"obs":1784869200,"raw":"METAR RJTO 240500Z 32006KT 280V010 9999 FEW010 BKN015 30/26 Q1010","cat":"MVFR"}]},"RJFM":{"raw":"METAR RJFM 240700Z 14013KT 9999 FEW030 32/26 Q1010","cat":"VFR","temp":32,"wdir":140,"wspd":13,"visib":"6+","obs":1784876400,"hist":[{"obs":1784872800,"raw":"METAR RJFM 240600Z 14014KT 9999 FEW030 SCT/// 33/27 Q1010","cat":"VFR"},{"obs":1784869200,"raw":"METAR RJFM 240500Z 15014KT 9999 FEW030 33/26 Q1010","cat":"VFR"}]},"RJFO":{"raw":"METAR RJFO 240700Z 31005KT 280V350 9999 FEW030 BKN/// 33/22 Q1011","cat":"VFR","temp":33,"wdir":310,"wspd":5,"visib":"6+","obs":1784876400,"hist":[{"obs":1784872800,"raw":"METAR RJFO 240600Z 32006KT 280V360 9999 FEW030 BKN/// 33/22 Q1011","cat":"VFR"},{"obs":1784869200,"raw":"METAR RJFO 240500Z 35009G19KT 260V070 9999 FEW030 36/22 Q1010","cat":"VFR"}]},"RJTF":{"raw":"METAR RJTF 240700Z 19011KT 150V240 9999 FEW020 FEW030CB SCT035 BKN050 33/25 Q1009","cat":"VFR","temp":33,"wdir":190,"wspd":11,"visib":"6+","obs":1784876400,"hist":[{"obs":1784872800,"raw":"METAR RJTF 240600Z 19008KT 140V240 9999 FEW020 FEW030TCU BKN035 BKN045 34/26 Q1008","cat":"VFR"},{"obs":1784869200,"raw":"METAR RJTF 240500Z 15010KT 120V190 9999 FEW020 SCT035 BKN045 33/25 Q1009","cat":"VFR"}]},"RJFR":{"raw":"METAR RJFR 240700Z 32011KT 9999 FEW030 SCT/// 33/23 Q1011","cat":"VFR","temp":33,"wdir":320,"wspd":11,"visib":"6+","obs":1784876400,"hist":[{"obs":1784872800,"raw":"METAR RJFR 240600Z 32013KT 9999 FEW030 33/23 Q1011","cat":"VFR"},{"obs":1784869200,"raw":"METAR RJFR 240500Z 33013KT 9999 FEW030 34/23 Q1011","cat":"VFR"}]},"RJFS":{"raw":"METAR RJFS 240700Z 19010KT 9999 FEW035 34/27 Q1010","cat":"VFR","temp":34,"wdir":190,"wspd":10,"visib":"6+","obs":1784876400,"hist":[{"obs":1784872800,"raw":"METAR RJFS 240600Z 19009KT 9999 FEW035 34/26 Q1011","cat":"VFR"},{"obs":1784869200,"raw":"METAR RJFS 240500Z 19008KT 9999 FEW035 SCT/// 34/25 Q1011","cat":"VFR"}]},"RJSS":{"raw":"METAR RJSS 240700Z 12006KT 8000 -SHRA SCT006 BKN020 BKN040 24/23 Q1011","cat":"MVFR","temp":24,"wdir":120,"wspd":6,"visib":4.97,"obs":1784876400,"hist":[{"obs":1784872800,"raw":"METAR RJSS 240600Z 14009KT 9999 FEW007 BKN025 BKN050 24/23 Q1010","cat":"MVFR"},{"obs":1784869200,"raw":"METAR RJSS 240500Z 14008KT 6000 -SHRA SCT007 BKN010 BKN015 24/23 Q1011","cat":"MVFR"}]},"RJFT":{"raw":"METAR RJFT 240700Z 23005KT 180V260 9999 FEW045 33/22 Q1012","cat":"VFR","temp":33,"wdir":230,"wspd":5,"visib":"6+","obs":1784876400,"hist":[{"obs":1784872800,"raw":"METAR RJFT 240600Z 24006KT 190V290 9999 FEW045 34/23 Q1012","cat":"VFR"},{"obs":1784869200,"raw":"METAR RJFT 240500Z 22007KT 170V270 9999 SCT040 33/24 Q1012","cat":"VFR"}]},"RJFU":{"raw":"METAR RJFU 240700Z 31008KT 9999 FEW035 34/25 Q1011","cat":"VFR","temp":34,"wdir":310,"wspd":8,"visib":"6+","obs":1784876400,"hist":[{"obs":1784872800,"raw":"METAR RJFU 240600Z 31008KT 9999 FEW035 34/25 Q1011","cat":"VFR"},{"obs":1784869200,"raw":"METAR RJFU 240500Z 29005KT 9999 FEW030 34/25 Q1011","cat":"VFR"}]},"RJSN":{"raw":"METAR RJSN 240700Z 20008KT 180V240 6000 -SHRA FEW007 SCT040 BKN050 26/25 Q1010","cat":"MVFR","temp":26,"wdir":200,"wspd":8,"visib":3.73,"obs":1784876400,"hist":[{"obs":1784872800,"raw":"METAR RJSN 240600Z 26010KT 9999 VCSH FEW005 SCT007 BKN009 27/25 Q1010","cat":"IFR"},{"obs":1784869200,"raw":"METAR RJSN 240500Z 24010KT 9999 VCSH FEW010 SCT060 BKN140 29/25 Q1009","cat":"VFR"}]},"RJKA":{"raw":"METAR RJKA 240700Z 13004KT 100V160 9999 FEW015 SCT045 BKN/// 31/26 Q1011","cat":"VFR","temp":31,"wdir":130,"wspd":4,"visib":"6+","obs":1784876400,"hist":[{"obs":1784872800,"raw":"METAR RJKA 240600Z 12004KT 080V170 9999 FEW020 BKN/// 32/26 Q1011","cat":"VFR"},{"obs":1784869200,"raw":"METAR RJKA 240500Z 13004KT 9999 FEW020 BKN/// 31/27 Q1011","cat":"VFR"}]},"RJNK":{"raw":"METAR RJNK 240700Z 28008KT 240V330 9999 FEW030 31/25 Q1011","cat":"VFR","temp":31,"wdir":280,"wspd":8,"visib":"6+","obs":1784876400,"hist":[{"obs":1784872800,"raw":"METAR RJNK 240600Z 28011KT 9999 FEW030 31/25 Q1010","cat":"VFR"},{"obs":1784869200,"raw":"METAR RJNK 240500Z 29012KT 260V320 9999 FEW030 32/25 Q1010","cat":"VFR"}]},"RJSC":{"raw":"METAR RJSC 240700Z 36008KT 9999 FEW010 SCT020 BKN040 25/23 Q1011","cat":"VFR","temp":25,"wdir":360,"wspd":8,"visib":"6+","obs":1784876400,"hist":[{"obs":1784872800,"raw":"METAR RJSC 240600Z VRB01KT 9999 -SHRA FEW008 SCT025 BKN045 26/23 Q1010","cat":"VFR"},{"obs":1784869200,"raw":"METAR RJSC 240500Z 21005KT 9999 -SHRA FEW008 SCT030 BKN045 26/23 Q1010","cat":"VFR"}]},"RJNT":{"raw":"METAR RJNT 240700Z 28009KT 260V320 9999 FEW030 34/24 Q1010","cat":"VFR","temp":34,"wdir":280,"wspd":9,"visib":"6+","obs":1784876400,"hist":[{"obs":1784872800,"raw":"METAR RJNT 240600Z 28008KT 240V320 9999 FEW020 35/24 Q1009","cat":"VFR"},{"obs":1784869200,"raw":"METAR RJNT 240500Z 28007KT 230V350 9999 FEW020 35/23 Q1009","cat":"VFR"}]},"RJNW":{"raw":"METAR RJNW 240700Z 27009KT 240V320 9999 FEW015 SCT020 30/25 Q1012","cat":"VFR","temp":30,"wdir":270,"wspd":9,"visib":"6+","obs":1784876400,"hist":[{"obs":1784872800,"raw":"METAR RJNW 240600Z 26011KT 240V300 9999 FEW015 SCT020 30/24 Q1011","cat":"VFR"},{"obs":1784869200,"raw":"METAR RJNW 240500Z 26010KT 9999 FEW015 SCT020 BKN025 30/24 Q1011","cat":"MVFR"}]},"RJOA":{"raw":"METAR RJOA 240700Z 18005KT 120V220 9999 FEW030 33/23 Q1012","cat":"VFR","temp":33,"wdir":180,"wspd":5,"visib":"6+","obs":1784876400,"hist":[{"obs":1784872800,"raw":"METAR RJOA 240600Z VRB05KT 9999 FEW030 33/22 Q1012","cat":"VFR"},{"obs":1784869200,"raw":"METAR RJOA 240500Z 20007KT 150V240 9999 FEW030 33/23 Q1012","cat":"VFR"}]},"RJSA":{"raw":"METAR RJSA 240700Z 03008KT 360V070 9999 FEW015 BKN020 BKN050 26/22 Q1011","cat":"MVFR","temp":26,"wdir":30,"wspd":8,"visib":"6+","obs":1784876400,"hist":[{"obs":1784872800,"raw":"METAR RJSA 240600Z 35005KT 310V020 9999 FEW010 BKN015 BKN050 25/22 Q1011","cat":"MVFR"},{"obs":1784869200,"raw":"METAR RJSA 240500Z 01005KT 330V070 9999 FEW005 BKN010 BKN015 25/22 Q1011","cat":"MVFR"}]},"RJOC":{"raw":"METAR RJOC 240700Z 26015KT 9999 FEW015 31/25 Q1011","cat":"VFR","temp":31,"wdir":260,"wspd":15,"visib":"6+","obs":1784876400,"hist":[{"obs":1784872800,"raw":"METAR RJOC 240600Z 27017KT 9999 FEW015 32/25 Q1011","cat":"VFR"},{"obs":1784869200,"raw":"METAR RJOC 240500Z 26017KT 9999 FEW020 32/25 Q1011","cat":"VFR"}]},"RJOH":{"raw":"METAR RJOH 240700Z 28014KT 9999 FEW030 33/24 Q1011","cat":"VFR","temp":33,"wdir":280,"wspd":14,"visib":"6+","obs":1784876400,"hist":[{"obs":1784872800,"raw":"METAR RJOH 240600Z 28015KT 9999 FEW030 34/23 Q1011","cat":"VFR"},{"obs":1784869200,"raw":"METAR RJOH 240500Z 26016KT 9999 FEW030 35/21 Q1011","cat":"VFR"}]},"RJOY":{"raw":"METAR RJOY 240700Z 27009KT 230V290 9999 FEW030 37/24 Q1008","cat":"VFR","temp":37,"wdir":270,"wspd":9,"visib":"6+","obs":1784876400,"hist":[{"obs":1784872800,"raw":"METAR RJOY 240600Z 26008KT 220V310 9999 FEW030 37/24 Q1008","cat":"VFR"},{"obs":1784869200,"raw":"METAR RJOY 240500Z 27011KT 230V300 9999 FEW030 37/24 Q1009","cat":"VFR"}]},"RJOK":{"raw":"METAR RJOK 240700Z 17005KT 130V230 9999 FEW025CB 32/27 Q1010","cat":"VFR","temp":32,"wdir":170,"wspd":5,"visib":"6+","obs":1784876400,"hist":[{"obs":1784872800,"raw":"METAR RJOK 240600Z 18007KT 9999 FEW025CB 32/26 Q1010","cat":"VFR"},{"obs":1784869200,"raw":"METAR RJOK 240500Z 18007KT 9999 FEW030 32/26 Q1010","cat":"VFR"}]},"RJOW":{"raw":"METAR RJOW 240700Z 30008KT 9999 FEW020 31/26 Q1012","cat":"VFR","temp":31,"wdir":300,"wspd":8,"visib":"6+","obs":1784876400,"hist":[{"obs":1784872800,"raw":"METAR RJOW 240600Z 30010KT 9999 FEW020 31/25 Q1012","cat":"VFR"},{"obs":1784869200,"raw":"METAR RJOW 240500Z 30010KT 9999 FEW020 31/25 Q1012","cat":"VFR"}]},"RJOM":{"raw":"METAR RJOM 240700Z 21006KT 9999 FEW030 32/25 Q1010","cat":"VFR","temp":32,"wdir":210,"wspd":6,"visib":"6+","obs":1784876400,"hist":[{"obs":1784872800,"raw":"METAR RJOM 240600Z 20008KT 9999 FEW030 32/27 Q1011","cat":"VFR"},{"obs":1784869200,"raw":"METAR RJOM 240500Z 25005KT 210V280 9999 FEW030 31/27 Q1011","cat":"VFR"}]},"RJOO":{"raw":"METAR RJOO 240700Z 23005KT 180V280 9999 FEW035 37/23 Q1008","cat":"VFR","temp":37,"wdir":230,"wspd":5,"visib":"6+","obs":1784876400,"hist":[{"obs":1784872800,"raw":"METAR RJOO 240600Z 21007KT 130V280 9999 FEW035 37/23 Q1008","cat":"VFR"},{"obs":1784869200,"raw":"METAR RJOO 240500Z 22008KT 170V260 9999 FEW035 37/24 Q1008","cat":"VFR"}]},"RJOT":{"raw":"METAR RJOT 240700Z 28009KT 250V320 9999 FEW030 36/22 Q1011","cat":"VFR","temp":36,"wdir":280,"wspd":9,"visib":"6+","obs":1784876400,"hist":[{"obs":1784872800,"raw":"METAR RJOT 240600Z 28009KT 250V310 9999 FEW030 35/22 Q1011","cat":"VFR"},{"obs":1784869200,"raw":"METAR RJOT 240500Z 28008KT 230V330 9999 FEW035 35/24 Q1011","cat":"VFR"}]},"RJOI":{"raw":"METAR RJOI 240656Z 17012KT 9999 FEW030 FEW250 33/25 A2983 RMK AO2A SLP101 MDT CU DSNT N T03330250","cat":"VFR","temp":33.3,"wdir":170,"wspd":12,"visib":"6+","obs":1784876160,"hist":[{"obs":1784872560,"raw":"METAR RJOI 240556Z 17012KT 9999 FEW030 33/25 A2984 RMK AO2A SLP104 T03330250 10339 20294 56010","cat":"VFR"},{"obs":1784868960,"raw":"METAR RJOI 240456Z 16009KT 9999 FEW030 32/26 A2985 RMK AO2A SLP107 MDT CU DSNT N T03220256","cat":"VFR"}]},"RJTY":{"raw":"METAR RJTY 240655Z 17013KT 10SM FEW025 BKN050 31/25 A2985 RMK AO2A LTG DSNT NE-E SLP107 T03140245 $","cat":"VFR","temp":31.4,"wdir":170,"wspd":13,"visib":"10+","obs":1784876100,"hist":[{"obs":1784872500,"raw":"METAR RJTY 240555Z 16011KT 10SM FEW025 SCT035 33/25 A2984 RMK AO2A SLP103 T03300247 10336 20289 57014 $","cat":"VFR"},{"obs":1784868900,"raw":"METAR RJTY 240455Z 16008KT 10SM FEW025 BKN035 33/25 A2986 RMK AO2A SLP110 T03280248 $","cat":"VFR"}]},"RODN":{"raw":"METAR RODN 240655Z 11009KT 10SM SCT023 33/27 A2984 RMK AO2A SLP105 T03310266 FZRANO $","cat":"VFR","temp":33.1,"wdir":110,"wspd":9,"visib":"10+","obs":1784876100,"hist":[{"obs":1784872500,"raw":"METAR RODN 240555Z 12010KT 10SM SCT019 SCT025 BKN032 BKN041 32/28 A2984 RMK AO2A SLP105 T03220276 10333 20307 55002 FZRANO $","cat":"VFR"},{"obs":1784871600,"raw":"SPECI RODN 240540Z 10011KT 10SM SCT023 SCT029 33/27 A2984 RMK AO2A WSHFT 38 SLP105 FZRANO $","cat":"VFR"},{"obs":1784868900,"raw":"METAR RODN 240455Z 10013KT 10SM SCT021 33/27 A2984 RMK AO2A SLP105 T03280270 FZRANO $","cat":"VFR"}]}}}