{"updated":"2026-07-22T21:54Z","m":{"RJGG":{"raw":"METAR RJGG 222130Z 29010KT 9999 FEW030 30/25 Q1008 NOSIG","cat":"VFR","temp":30,"wdir":290,"wspd":10,"visib":"6+","obs":1784755800,"hist":[{"obs":1784754000,"raw":"METAR RJGG 222100Z 28009KT 9999 FEW030 30/25 Q1008 NOSIG","cat":"VFR"},{"obs":1784752200,"raw":"METAR RJGG 222030Z AUTO 31012KT 9999 NCD 30/25 Q1008 NOSIG","cat":"VFR"},{"obs":1784750400,"raw":"METAR RJGG 222000Z AUTO 31013KT 9999 FEW047 30/25 Q1008 NOSIG","cat":"VFR"},{"obs":1784748600,"raw":"METAR RJGG 221930Z AUTO 30009KT 9999 FEW043 30/25 Q1008 NOSIG","cat":"VFR"},{"obs":1784746800,"raw":"METAR RJGG 221900Z AUTO 29010KT 9999 FEW050 30/25 Q1008 NOSIG","cat":"VFR"}]},"ROAH":{"raw":"METAR ROAH 222130Z 09005KT 9999 VCSH FEW020 29/27 Q1009","cat":"VFR","temp":29,"wdir":90,"wspd":5,"visib":"6+","obs":1784755800,"hist":[{"obs":1784754000,"raw":"METAR ROAH 222100Z 09004KT 9999 FEW020 SCT070 28/26 Q1009","cat":"VFR"},{"obs":1784752200,"raw":"METAR ROAH 222030Z AUTO 11004KT 9999 NCD 28/26 Q1009","cat":"VFR"},{"obs":1784750400,"raw":"METAR ROAH 222000Z AUTO 10003KT 9999 NCD 28/26 Q1009","cat":"VFR"},{"obs":1784748600,"raw":"METAR ROAH 221930Z AUTO 11004KT 9999 NCD 28/26 Q1009","cat":"VFR"},{"obs":1784746800,"raw":"METAR ROAH 221900Z AUTO 10003KT 9999 NCD 29/26 Q1009","cat":"VFR"}]},"RJCC":{"raw":"METAR RJCC 222130Z 01008KT 9999 FEW002 BKN005 BKN015 21/20 Q1008","cat":"IFR","temp":21,"wdir":10,"wspd":8,"visib":"6+","obs":1784755800,"hist":[{"obs":1784754000,"raw":"METAR RJCC 222100Z 36008KT 9999 FEW003 SCT005 BKN015 21/20 Q1008","cat":"MVFR"},{"obs":1784752200,"raw":"METAR RJCC 222030Z 36006KT 9999 FEW003 SCT006 BKN015 21/19 Q1008","cat":"MVFR"},{"obs":1784750400,"raw":"METAR RJCC 222000Z 34006KT 9999 FEW003 SCT006 BKN013 21/19 Q1008","cat":"MVFR"},{"obs":1784748600,"raw":"METAR RJCC 221930Z 35005KT 9999 FEW003 BKN006 BKN013 21/19 Q1008","cat":"IFR"},{"obs":1784746800,"raw":"METAR RJCC 221900Z 35007KT 9999 FEW003 BKN014 21/19 Q1008","cat":"MVFR"}]},"RJTT":{"raw":"METAR RJTT 222130Z 05007KT CAVOK 29/27 Q1007 NOSIG","cat":"VFR","temp":29,"wdir":50,"wspd":7,"visib":"6+","obs":1784755800,"hist":[{"obs":1784754000,"raw":"METAR RJTT 222100Z 06005KT CAVOK 29/27 Q1006 NOSIG","cat":"VFR"},{"obs":1784752200,"raw":"METAR RJTT 222030Z 07002KT 9000 NSC 28/27 Q1006 NOSIG","cat":"VFR"},{"obs":1784750400,"raw":"METAR RJTT 222000Z VRB02KT 9000 FEW030 28/27 Q1006 NOSIG","cat":"VFR"},{"obs":1784748600,"raw":"METAR RJTT 221930Z 11001KT 9000 FEW030 27/26 Q1006 NOSIG","cat":"VFR"},{"obs":1784746800,"raw":"METAR RJTT 221900Z 14003KT 9000 FEW020 28/27 Q1006 NOSIG","cat":"VFR"}]},"RJBB":{"raw":"METAR RJBB 222130Z 22003KT 160V260 CAVOK 30/26 Q1009 NOSIG","cat":"VFR","temp":30,"wdir":220,"wspd":3,"visib":"6+","obs":1784755800,"hist":[{"obs":1784754000,"raw":"METAR RJBB 222100Z 22003KT CAVOK 29/25 Q1009 NOSIG","cat":"VFR"},{"obs":1784752200,"raw":"METAR RJBB 222030Z AUTO 21004KT 9999 NCD 28/25 Q1009 NOSIG","cat":"VFR"},{"obs":1784750400,"raw":"METAR RJBB 222000Z AUTO 25003KT 9999 NCD 28/26 Q1009 BECMG 07005KT","cat":"VFR"},{"obs":1784748600,"raw":"METAR RJBB 221930Z AUTO 26004KT 9999 NCD 28/26 Q1009 NOSIG","cat":"VFR"},{"obs":1784746800,"raw":"METAR RJBB 221900Z AUTO 20002KT 9999 NCD 28/26 Q1009 NOSIG","cat":"VFR"}]},"RJFF":{"raw":"METAR RJFF 222130Z 14004KT 9999 FEW020 28/24 Q1009 NOSIG","cat":"VFR","temp":28,"wdir":140,"wspd":4,"visib":"6+","obs":1784755800,"hist":[{"obs":1784754000,"raw":"METAR RJFF 222100Z 15005KT 110V230 9999 FEW020 27/23 Q1009 NOSIG","cat":"VFR"},{"obs":1784752200,"raw":"METAR RJFF 222030Z AUTO 15005KT 9999 NCD 27/24 Q1009 NOSIG","cat":"VFR"},{"obs":1784750400,"raw":"METAR RJFF 222000Z AUTO 16007KT 9999 NCD 27/24 Q1009 NOSIG","cat":"VFR"},{"obs":1784748600,"raw":"METAR RJFF 221930Z AUTO 15006KT 9999 NCD 27/24 Q1009 NOSIG","cat":"VFR"},{"obs":1784746800,"raw":"METAR RJFF 221900Z AUTO 10004KT 9999 NCD 27/24 Q1009 NOSIG","cat":"VFR"}]},"RJAA":{"raw":"METAR RJAA 222130Z 03004KT 6000 FEW020 SCT080 29/26 Q1007 NOSIG","cat":"MVFR","temp":29,"wdir":30,"wspd":4,"visib":3.73,"obs":1784755800,"hist":[{"obs":1784754000,"raw":"METAR RJAA 222100Z 03004KT 6000 FEW020 BKN080 29/26 Q1007 NOSIG","cat":"MVFR"},{"obs":1784752200,"raw":"METAR RJAA 222030Z AUTO 33003KT 300V020 9000 FEW010 28/26 Q1006 NOSIG","cat":"VFR"},{"obs":1784750400,"raw":"METAR RJAA 222000Z AUTO 33003KT 7000 NCD 27/26 Q1006 NOSIG","cat":"MVFR"},{"obs":1784748600,"raw":"METAR RJAA 221930Z AUTO 31003KT 7000 NCD 28/26 Q1006 NOSIG","cat":"MVFR"},{"obs":1784746800,"raw":"METAR RJAA 221900Z AUTO 32003KT 8000 NSC 28/26 Q1006 NOSIG","cat":"MVFR"}]},"RJOK":{"raw":"METAR RJOK 222100Z AUTO 35003KT 9999 NCD 26/25 Q1009","cat":"VFR","temp":26,"wdir":350,"wspd":3,"visib":"6+","obs":1784754000,"hist":[{"obs":1784750400,"raw":"METAR RJOK 222000Z AUTO 36003KT 9999 NCD 25/25 Q1008","cat":"VFR"},{"obs":1784746800,"raw":"METAR RJOK 221900Z AUTO 36005KT 9999 NCD 26/25 Q1008","cat":"VFR"}]},"RJAH":{"raw":"METAR RJAH 222100Z 07003KT 4000 BR FEW030 27/27 Q1007","cat":"IFR","temp":27,"wdir":70,"wspd":3,"visib":2.49,"obs":1784754000,"hist":[{"obs":1784750400,"raw":"METAR RJAH 222000Z VRB01KT 4000 BR FEW030 26/26 Q1006","cat":"IFR"},{"obs":1784746800,"raw":"METAR RJAH 221900Z VRB01KT 8000 FEW030 SCT070 27/27 Q1006","cat":"MVFR"}]},"ROMY":{"raw":"METAR ROMY 222100Z AUTO 11004KT 9999 NCD 26/25 Q1008","cat":"VFR","temp":26,"wdir":110,"wspd":4,"visib":"6+","obs":1784754000,"hist":[{"obs":1784750400,"raw":"METAR ROMY 222000Z AUTO 11003KT 9999 NCD 26/25 Q1008","cat":"VFR"},{"obs":1784746800,"raw":"METAR ROMY 221900Z AUTO 11001KT 9999 NCD 27/26 Q1008","cat":"VFR"}]},"ROIG":{"raw":"METAR ROIG 222100Z AUTO VRB01KT 9999 FEW012 25/25 Q1008","cat":"VFR","temp":25,"wdir":"VRB","wspd":1,"visib":"6+","obs":1784754000,"hist":[{"obs":1784750400,"raw":"METAR ROIG 222000Z AUTO 00000KT 9999 NCD 25/25 Q1008","cat":"VFR"},{"obs":1784746800,"raw":"METAR ROIG 221900Z AUTO 27001KT 9999 NCD 26/25 Q1008","cat":"VFR"}]},"RJBD":{"raw":"METAR RJBD 222100Z AUTO VRB01KT 9999 NCD 27/24 Q1009","cat":"VFR","temp":27,"wdir":"VRB","wspd":1,"visib":"6+","obs":1784754000,"hist":[{"obs":1784750400,"raw":"METAR RJBD 222000Z AUTO 00000KT 7000 NCD 26/24 Q1009","cat":"MVFR"},{"obs":1784746800,"raw":"METAR RJBD 221900Z AUTO 14001KT 9999 NCD 27/24 Q1009","cat":"VFR"}]},"RJCH":{"raw":"METAR RJCH 222100Z AUTO VRB01KT 9999 OVC030 21/20 Q1008","cat":"MVFR","temp":21,"wdir":"VRB","wspd":1,"visib":"6+","obs":1784754000,"hist":[{"obs":1784750400,"raw":"METAR RJCH 222000Z AUTO 03002KT 9999 OVC029 21/20 Q1008","cat":"MVFR"},{"obs":1784746800,"raw":"METAR RJCH 221900Z AUTO 09001KT 9999 SCT027 OVC029 21/20 Q1007","cat":"MVFR"}]},"RJCK":{"raw":"METAR RJCK 222100Z AUTO 02003KT 0100 R17/0125V0200N FG OVC000 19/19 Q1008","cat":"LIFR","temp":19,"wdir":20,"wspd":3,"visib":0.06,"obs":1784754000,"hist":[{"obs":1784750400,"raw":"METAR RJCK 222000Z AUTO 32003KT 9999 NCD 18/18 Q1008","cat":"VFR"},{"obs":1784746800,"raw":"METAR RJCK 221900Z AUTO 29004KT 6000 R17/0500VP2000U SCT000 BKN003 BKN010 18/18 Q1008","cat":"LIFR"}]},"RJEC":{"raw":"METAR RJEC 222100Z AUTO VRB02KT 8000 R34/1600VP2000N OVC002 18/18 Q1009","cat":"LIFR","temp":18,"wdir":"VRB","wspd":2,"visib":4.97,"obs":1784754000,"hist":[{"obs":1784750400,"raw":"METAR RJEC 222000Z AUTO VRB02KT 6000 FEW001 OVC004 18/18 Q1009","cat":"LIFR"},{"obs":1784746800,"raw":"METAR RJEC 221900Z AUTO 32002KT 9999 SCT002 OVC011 18/18 Q1009","cat":"MVFR"}]},"RJFG":{"raw":"METAR RJFG 222100Z AUTO 29004KT 9999 FEW003 SCT007 BKN008 26/26 Q1011","cat":"IFR","temp":26,"wdir":290,"wspd":4,"visib":"6+","obs":1784754000,"hist":[{"obs":1784750400,"raw":"METAR RJFG 222000Z AUTO 28005KT 9999 BKN003 BKN006 BKN021 26/25 Q1011","cat":"LIFR"},{"obs":1784746800,"raw":"METAR RJFG 221900Z AUTO 28008KT 9999 BKN006 BKN009 BKN010 26/25 Q1011","cat":"IFR"}]},"RJFK":{"raw":"METAR RJFK 222100Z 32004KT 9999 BCFG FEW010 25/24 Q1011","cat":"VFR","temp":25,"wdir":320,"wspd":4,"visib":"6+","obs":1784754000,"hist":[]},"RJSS":{"raw":"METAR RJSS 222100Z AUTO 08004KT 9999 NCD 27/24 Q1007","cat":"VFR","temp":27,"wdir":80,"wspd":4,"visib":"6+","obs":1784754000,"hist":[{"obs":1784750400,"raw":"METAR RJSS 222000Z AUTO VRB02KT 9999 FEW060 25/23 Q1006","cat":"VFR"},{"obs":1784746800,"raw":"METAR RJSS 221900Z AUTO 25003KT 220V290 9999 FEW060 25/23 Q1006","cat":"VFR"}]},"RJFM":{"raw":"METAR RJFM 222100Z AUTO 29006KT 9999 NCD 29/24 Q1009","cat":"VFR","temp":29,"wdir":290,"wspd":6,"visib":"6+","obs":1784754000,"hist":[{"obs":1784750400,"raw":"METAR RJFM 222000Z AUTO 30006KT 9999 SCT048 SCT050 29/24 Q1009","cat":"VFR"},{"obs":1784746800,"raw":"METAR RJFM 221900Z AUTO 29007KT 9999 NCD 29/24 Q1009","cat":"VFR"}]},"RJFO":{"raw":"METAR RJFO 222100Z AUTO 27002KT 9999 NSC 27/24 Q1009","cat":"VFR","temp":27,"wdir":270,"wspd":2,"visib":"6+","obs":1784754000,"hist":[{"obs":1784750400,"raw":"METAR RJFO 222000Z AUTO 25002KT 9999 BKN060 27/24 Q1009","cat":"VFR"},{"obs":1784746800,"raw":"METAR RJFO 221900Z AUTO 24003KT 9999 NCD 26/24 Q1009","cat":"VFR"}]},"RJFR":{"raw":"METAR RJFR 222100Z VRB02KT 9999 FEW015 28/24 Q1009","cat":"VFR","temp":28,"wdir":"VRB","wspd":2,"visib":"6+","obs":1784754000,"hist":[{"obs":1784750400,"raw":"METAR RJFR 222000Z AUTO 23004KT 9999 NCD 28/24 Q1009","cat":"VFR"},{"obs":1784746800,"raw":"METAR RJFR 221900Z AUTO 25003KT 9999 NCD 28/24 Q1009","cat":"VFR"}]},"RJSN":{"raw":"METAR RJSN 222100Z AUTO 02006KT 9999 FEW011 SCT014 BKN017 //////CB 27/25 Q1008","cat":"MVFR","temp":27,"wdir":20,"wspd":6,"visib":"6+","obs":1784754000,"hist":[{"obs":1784750400,"raw":"METAR RJSN 222000Z AUTO 01009KT 9999 FEW010 SCT016 BKN039 //////CB 27/25 Q1008","cat":"VFR"},{"obs":1784746800,"raw":"METAR RJSN 221900Z AUTO 34009KT 270V360 9999 BKN007 BKN009 OVC042 //////CB 27/25 Q1007","cat":"IFR"}]},"RJFS":{"raw":"METAR RJFS 222100Z AUTO 07004KT 9999 NCD 27/25 Q1009","cat":"VFR","temp":27,"wdir":70,"wspd":4,"visib":"6+","obs":1784754000,"hist":[{"obs":1784750400,"raw":"METAR RJFS 222000Z AUTO 02003KT 9999 NCD 27/24 Q1009","cat":"VFR"},{"obs":1784746800,"raw":"METAR RJFS 221900Z AUTO 04002KT 9999 NCD 27/24 Q1009","cat":"VFR"}]},"RJFT":{"raw":"METAR RJFT 222100Z AUTO 12003KT 9999 NCD 26/23 Q1011","cat":"VFR","temp":26,"wdir":120,"wspd":3,"visib":"6+","obs":1784754000,"hist":[{"obs":1784750400,"raw":"METAR RJFT 222000Z AUTO 16002KT 9999 NCD 25/23 Q1011","cat":"VFR"},{"obs":1784746800,"raw":"METAR RJFT 221900Z AUTO VRB02KT 9999 NCD 27/23 Q1011","cat":"VFR"}]},"RJSF":{"raw":"METAR RJSF 222100Z AUTO 35006KT 5000 -RA BR FEW021 BKN090 BKN100 25/23 Q1009","cat":"MVFR","temp":25,"wdir":350,"wspd":6,"visib":3.11,"obs":1784754000,"hist":[{"obs":1784750400,"raw":"METAR RJSF 222000Z AUTO 35008KT 9999 NSC 25/22 Q1009","cat":"VFR"},{"obs":1784746800,"raw":"METAR RJSF 221900Z AUTO 35006KT 9999 NSC 25/22 Q1009","cat":"VFR"}]},"RJKA":{"raw":"METAR RJKA 222100Z AUTO 34002KT 9999 NCD 26/26 Q1010","cat":"VFR","temp":26,"wdir":340,"wspd":2,"visib":"6+","obs":1784754000,"hist":[{"obs":1784750400,"raw":"METAR RJKA 222000Z AUTO VRB02KT 9999 NCD 26/26 Q1009","cat":"VFR"},{"obs":1784746800,"raw":"METAR RJKA 221900Z AUTO VRB01KT 9999 NCD 27/26 Q1009","cat":"VFR"}]},"RJSA":{"raw":"METAR RJSA 222100Z AUTO 06004KT 0100 R24/0225V0300N FG OVC001 21/21 Q1008","cat":"LIFR","temp":21,"wdir":60,"wspd":4,"visib":0.06,"obs":1784754000,"hist":[{"obs":1784750400,"raw":"METAR RJSA 222000Z AUTO 05002KT 9999 R24/1600VP2000U FEW001 SCT003 BKN005 21/21 Q1008","cat":"IFR"},{"obs":1784746800,"raw":"METAR RJSA 221900Z AUTO 04003KT 0600 R24/0800VP2000U FG FEW001 SCT003 BKN005 21/21 Q1008","cat":"LIFR"}]},"RJNK":{"raw":"METAR RJNK 222100Z 19003KT 160V220 9999 FEW060 26/24 Q1009","cat":"VFR","temp":26,"wdir":190,"wspd":3,"visib":"6+","obs":1784754000,"hist":[{"obs":1784750400,"raw":"METAR RJNK 222000Z 17004KT 9999 FEW030 25/24 Q1009","cat":"VFR"},{"obs":1784746800,"raw":"METAR RJNK 221900Z 13003KT 9999 SCT060 26/24 Q1009","cat":"VFR"}]},"RJNT":{"raw":"METAR RJNT 222100Z AUTO 25002KT 9999 NCD 25/22 Q1009","cat":"VFR","temp":25,"wdir":250,"wspd":2,"visib":"6+","obs":1784754000,"hist":[{"obs":1784750400,"raw":"METAR RJNT 222000Z AUTO 23002KT 9999 FEW060 25/22 Q1009","cat":"VFR"},{"obs":1784746800,"raw":"METAR RJNT 221900Z AUTO VRB02KT 9999 NCD 25/23 Q1009","cat":"VFR"}]},"RJOT":{"raw":"METAR RJOT 222100Z AUTO 17003KT 9999 NCD 26/23 Q1010","cat":"VFR","temp":26,"wdir":170,"wspd":3,"visib":"6+","obs":1784754000,"hist":[{"obs":1784750400,"raw":"METAR RJOT 222000Z AUTO 21005KT 9999 FEW029 26/23 Q1010","cat":"VFR"},{"obs":1784746800,"raw":"METAR RJOT 221900Z AUTO 22007KT 9999 SCT023 SCT027 BKN030 27/22 Q1010","cat":"MVFR"}]},"RJNW":{"raw":"METAR RJNW 222100Z AUTO 25006KT 9999 FEW012 SCT029 BKN043 26/24 Q1010","cat":"VFR","temp":26,"wdir":250,"wspd":6,"visib":"6+","obs":1784754000,"hist":[{"obs":1784750400,"raw":"METAR RJNW 222000Z AUTO 24006KT 9999 SCT009 BKN014 BKN022 25/24 Q1010","cat":"MVFR"},{"obs":1784746800,"raw":"METAR RJNW 221900Z AUTO 25006KT 9999 -RA FEW007 BKN014 OVC020 25/24 Q1010","cat":"MVFR"}]},"RJOS":{"raw":"METAR RJOS 222100Z 24002KT 9999 FEW008 28/26 Q1009","cat":"VFR","temp":28,"wdir":240,"wspd":2,"visib":"6+","obs":1784754000,"hist":[{"obs":1784750400,"raw":"METAR RJOS 222000Z 00000KT 9999 FEW008 28/26 Q1009","cat":"VFR"},{"obs":1784746800,"raw":"METAR RJOS 221900Z VRB01KT 9999 FEW008 SCT050 28/26 Q1009","cat":"VFR"}]},"RJOA":{"raw":"METAR RJOA 222100Z AUTO VRB01KT 9999 NCD 26/23 Q1011","cat":"VFR","temp":26,"wdir":"VRB","wspd":1,"visib":"6+","obs":1784754000,"hist":[{"obs":1784750400,"raw":"METAR RJOA 222000Z AUTO 07002KT 9999 NCD 25/23 Q1011","cat":"VFR"},{"obs":1784746800,"raw":"METAR RJOA 221900Z AUTO 11002KT 9999 NCD 25/23 Q1011","cat":"VFR"}]},"RJOC":{"raw":"METAR RJOC 222100Z AUTO 15003KT 9999 NCD 25/23 Q1009","cat":"VFR","temp":25,"wdir":150,"wspd":3,"visib":"6+","obs":1784754000,"hist":[{"obs":1784750400,"raw":"METAR RJOC 222000Z AUTO 18004KT 9999 NCD 25/23 Q1009","cat":"VFR"},{"obs":1784746800,"raw":"METAR RJOC 221900Z AUTO 18005KT 9999 NCD 25/23 Q1009","cat":"VFR"}]},"RJOR":{"raw":"METAR RJOR 222100Z AUTO 14006KT 9999 NCD 26/23 Q1009","cat":"VFR","temp":26,"wdir":140,"wspd":6,"visib":"6+","obs":1784754000,"hist":[{"obs":1784750400,"raw":"METAR RJOR 222000Z AUTO 14006KT 9999 NCD 25/23 Q1009","cat":"VFR"},{"obs":1784746800,"raw":"METAR RJOR 221900Z AUTO 14007KT 9999 NCD 26/24 Q1009","cat":"VFR"}]},"RJOH":{"raw":"METAR RJOH 222100Z 19005KT 9999 FEW020 25/23 Q1009","cat":"VFR","temp":25,"wdir":190,"wspd":5,"visib":"6+","obs":1784754000,"hist":[{"obs":1784750400,"raw":"METAR RJOH 222000Z 21005KT 9999 FEW050 SCT300 25/23 Q1009","cat":"VFR"},{"obs":1784746800,"raw":"METAR RJOH 221900Z 18006KT 9999 FEW030 SCT050 25/23 Q1009","cat":"VFR"}]},"RJOO":{"raw":"METAR RJOO 222100Z AUTO 30004KT 9999 BKN044 29/24 Q1009","cat":"VFR","temp":29,"wdir":300,"wspd":4,"visib":"6+","obs":1784754000,"hist":[{"obs":1784750400,"raw":"METAR RJOO 222000Z AUTO 31006KT 9999 BKN038 BKN042 29/24 Q1009","cat":"VFR"},{"obs":1784746800,"raw":"METAR RJOO 221900Z AUTO 34003KT 310V050 9999 FEW041 29/24 Q1009","cat":"VFR"}]},"RJOM":{"raw":"METAR RJOM 222100Z AUTO 12005KT 9999 NCD 28/23 Q1009","cat":"VFR","temp":28,"wdir":120,"wspd":5,"visib":"6+","obs":1784754000,"hist":[{"obs":1784750400,"raw":"METAR RJOM 222000Z AUTO 12006KT 9999 NCD 27/22 Q1009","cat":"VFR"},{"obs":1784746800,"raw":"METAR RJOM 221900Z AUTO 12005KT 9999 NCD 28/22 Q1009","cat":"VFR"}]},"RJOI":{"raw":"METAR RJOI 222056Z 31005KT 9999 FEW015 FEW040 26/23 A2982 RMK AO2A SLP099 T02610228 53004","cat":"VFR","temp":26.1,"wdir":310,"wspd":5,"visib":"6+","obs":1784753760,"hist":[{"obs":1784750160,"raw":"METAR RJOI 221956Z 31005KT 10SM FEW020 SCT050 26/23 A2982 RMK AO2 SLP097 T02610228 $","cat":"VFR"},{"obs":1784746560,"raw":"METAR RJOI 221856Z 31006KT 9999 FEW030 SCT050 27/23 A2981 RMK AO2A SLP094 T02670228","cat":"VFR"}]},"RODN":{"raw":"METAR RODN 222055Z 00000KT 10SM BKN070 27/26 A2980 RMK AO2A SLP092 T02650256 55000 FZRANO $","cat":"VFR","temp":26.5,"wdir":0,"wspd":0,"visib":"10+","obs":1784753700,"hist":[{"obs":1784746500,"raw":"METAR RODN 221855Z 00000KT 10SM FEW070 26/26 A2980 RMK AO2A SLP092 T02630256 FZRANO $","cat":"VFR"}]},"RJTY":{"raw":"METAR RJTY 221855Z AUTO 00000KT 10SM CLR 27/24 A2978 RMK AO2 SLP082 T02740236 $","cat":"VFR","temp":27.4,"wdir":0,"wspd":0,"visib":"10+","obs":1784746500,"hist":[]}}}