{"updated":"2026-07-23T13:15Z","m":{"RJFG":{"raw":"METAR RJFG 231300Z AUTO 28007KT 9999 NCD 27/25 Q1013","cat":"VFR","temp":27,"wdir":280,"wspd":7,"visib":"6+","obs":1784811600,"hist":[{"obs":1784808000,"raw":"METAR RJFG 231200Z AUTO 27007KT 9999 NCD 27/25 Q1012","cat":"VFR"},{"obs":1784804400,"raw":"METAR RJFG 231100Z AUTO 27008KT 9999 NCD 27/25 Q1012","cat":"VFR"}]},"RJOR":{"raw":"METAR RJOR 231300Z AUTO 18003KT 140V210 9999 NCD 28/25 Q1011","cat":"VFR","temp":28,"wdir":180,"wspd":3,"visib":"6+","obs":1784811600,"hist":[{"obs":1784808000,"raw":"METAR RJOR 231200Z 21003KT 9999 FEW015 SCT/// 29/25 Q1011","cat":"VFR"},{"obs":1784804400,"raw":"METAR RJOR 231100Z VRB01KT 9999 FEW015 BKN050 29/25 Q1010","cat":"VFR"}]},"RJOO":{"raw":"METAR RJOO 231300Z AUTO 35010KT 9999 NCD 31/22 Q1010","cat":"VFR","temp":31,"wdir":350,"wspd":10,"visib":"6+","obs":1784811600,"hist":[{"obs":1784808000,"raw":"METAR RJOO 231200Z AUTO 35010KT 9999 NCD 32/21 Q1009","cat":"VFR"},{"obs":1784804400,"raw":"METAR RJOO 231100Z 01009KT 9999 FEW035 SCT060 33/23 Q1009","cat":"VFR"}]},"RJOM":{"raw":"METAR RJOM 231300Z AUTO 17005KT 9999 NCD 31/24 Q1010","cat":"VFR","temp":31,"wdir":170,"wspd":5,"visib":"6+","obs":1784811600,"hist":[{"obs":1784808000,"raw":"METAR RJOM 231200Z 18005KT 9999 FEW060 30/24 Q1010","cat":"VFR"},{"obs":1784804400,"raw":"METAR RJOM 231100Z 19008KT 140V210 9999 FEW060 30/24 Q1009","cat":"VFR"}]},"RJOK":{"raw":"METAR RJOK 231300Z AUTO 03002KT 9999 BKN060 29/26 Q1010","cat":"VFR","temp":29,"wdir":30,"wspd":2,"visib":"6+","obs":1784811600,"hist":[{"obs":1784808000,"raw":"METAR RJOK 231200Z AUTO 09002KT 9999 BKN050 BKN060 29/27 Q1010","cat":"VFR"},{"obs":1784804400,"raw":"METAR RJOK 231100Z 15002KT 9999 FEW060 SCT/// 29/27 Q1009","cat":"VFR"}]},"RJEC":{"raw":"METAR RJEC 231300Z AUTO 33005KT 9999 FEW070 19/17 Q1011","cat":"VFR","temp":19,"wdir":330,"wspd":5,"visib":"6+","obs":1784811600,"hist":[{"obs":1784808000,"raw":"METAR RJEC 231200Z AUTO 30003KT 240V330 9999 NCD 20/19 Q1011","cat":"VFR"},{"obs":1784804400,"raw":"METAR RJEC 231100Z 32005KT 9999 FEW020 SCT/// 21/18 Q1011","cat":"VFR"}]},"RJOH":{"raw":"METAR RJOH 231300Z 19003KT 9999 FEW050 28/24 Q1010","cat":"VFR","temp":28,"wdir":190,"wspd":3,"visib":"6+","obs":1784811600,"hist":[{"obs":1784808000,"raw":"METAR RJOH 231200Z 24006KT 9999 FEW050 29/23 Q1010","cat":"VFR"},{"obs":1784804400,"raw":"METAR RJOH 231100Z 26007KT 9999 FEW050 30/24 Q1010","cat":"VFR"}]},"RJOC":{"raw":"METAR RJOC 231300Z AUTO 14003KT 9999 NCD 28/25 Q1010","cat":"VFR","temp":28,"wdir":140,"wspd":3,"visib":"6+","obs":1784811600,"hist":[{"obs":1784808000,"raw":"METAR RJOC 231200Z AUTO 13003KT 9999 NCD 28/25 Q1010","cat":"VFR"},{"obs":1784804400,"raw":"METAR RJOC 231100Z 28005KT CAVOK 29/26 Q1009","cat":"VFR"}]},"RJFF":{"raw":"METAR RJFF 231300Z 31007KT 9999 FEW030 29/24 Q1011 BECMG 08004KT","cat":"VFR","temp":29,"wdir":310,"wspd":7,"visib":"6+","obs":1784811600,"hist":[{"obs":1784809800,"raw":"METAR RJFF 231230Z 32005KT 270V040 9999 FEW030 29/24 Q1011 NOSIG","cat":"VFR"},{"obs":1784808000,"raw":"METAR RJFF 231200Z 33006KT 9999 FEW030 29/24 Q1011 NOSIG","cat":"VFR"},{"obs":1784806200,"raw":"METAR RJFF 231130Z 32005KT 250V350 9999 FEW030 30/24 Q1010 NOSIG","cat":"VFR"},{"obs":1784804400,"raw":"METAR RJFF 231100Z 33008KT 9999 FEW030 30/24 Q1010 NOSIG","cat":"VFR"},{"obs":1784802600,"raw":"METAR RJFF 231030Z 33006KT 280V360 9999 FEW030 30/24 Q1010 NOSIG","cat":"VFR"}]},"RJOA":{"raw":"METAR RJOA 231300Z VRB02KT CAVOK 27/23 Q1012","cat":"VFR","temp":27,"wdir":"VRB","wspd":2,"visib":"6+","obs":1784811600,"hist":[{"obs":1784808000,"raw":"METAR RJOA 231200Z 30005KT 270V330 CAVOK 29/23 Q1012","cat":"VFR"},{"obs":1784804400,"raw":"METAR RJOA 231100Z VRB03KT 9999 FEW045 29/23 Q1011","cat":"VFR"}]},"RJNW":{"raw":"METAR RJNW 231300Z AUTO 00000KT 9999 NCD 24/23 Q1011","cat":"VFR","temp":24,"wdir":0,"wspd":0,"visib":"6+","obs":1784811600,"hist":[{"obs":1784808000,"raw":"METAR RJNW 231200Z AUTO 31002KT 9999 NCD 25/23 Q1012","cat":"VFR"},{"obs":1784804400,"raw":"METAR RJNW 231100Z AUTO 29002KT 9999 NCD 25/23 Q1011","cat":"VFR"}]},"RJNT":{"raw":"METAR RJNT 231300Z AUTO 26002KT 9999 NCD 28/25 Q1010","cat":"VFR","temp":28,"wdir":260,"wspd":2,"visib":"6+","obs":1784811600,"hist":[{"obs":1784808000,"raw":"METAR RJNT 231200Z 30003KT 9999 FEW020 29/25 Q1010","cat":"VFR"},{"obs":1784804400,"raw":"METAR RJNT 231100Z 30005KT 9999 FEW020 SCT040 30/25 Q1010","cat":"VFR"}]},"RJBB":{"raw":"METAR RJBB 231300Z 27002KT 9999 FEW030 SCT060 30/26 Q1010 BECMG 06006KT","cat":"VFR","temp":30,"wdir":270,"wspd":2,"visib":"6+","obs":1784811600,"hist":[{"obs":1784809800,"raw":"METAR RJBB 231230Z 32003KT 270V350 9999 FEW025 SCT040 BKN080 30/26 Q1010 BECMG 06006KT","cat":"VFR"},{"obs":1784808000,"raw":"METAR RJBB 231200Z 26004KT 9999 FEW025 SCT040 30/27 Q1009 BECMG 06006KT","cat":"VFR"},{"obs":1784806200,"raw":"METAR RJBB 231130Z 25005KT 9999 FEW035 30/27 Q1009 NOSIG","cat":"VFR"},{"obs":1784804400,"raw":"METAR RJBB 231100Z 24006KT 9999 FEW035 31/26 Q1009 NOSIG","cat":"VFR"},{"obs":1784802600,"raw":"METAR RJBB 231030Z 23008KT 9999 FEW035 31/26 Q1008 NOSIG","cat":"VFR"}]},"RJFM":{"raw":"METAR RJFM 231300Z AUTO 30007KT 9999 NCD 31/24 Q1010","cat":"VFR","temp":31,"wdir":300,"wspd":7,"visib":"6+","obs":1784811600,"hist":[{"obs":1784808000,"raw":"METAR RJFM 231200Z 33006KT 9999 FEW030 31/25 Q1009","cat":"VFR"},{"obs":1784804400,"raw":"METAR RJFM 231100Z 32005KT 290V350 9999 FEW030 32/25 Q1009","cat":"VFR"}]},"RJNK":{"raw":"METAR RJNK 231300Z VRB02KT 9999 FEW030 27/25 Q1010","cat":"VFR","temp":27,"wdir":"VRB","wspd":2,"visib":"6+","obs":1784811600,"hist":[{"obs":1784808000,"raw":"METAR RJNK 231200Z VRB01KT 9999 FEW030 28/25 Q1010","cat":"VFR"},{"obs":1784804400,"raw":"METAR RJNK 231100Z 30003KT 9999 FEW030 28/25 Q1010","cat":"VFR"}]},"ROAH":{"raw":"METAR ROAH 231300Z 12007KT 9999 FEW015 30/26 Q1011","cat":"VFR","temp":30,"wdir":120,"wspd":7,"visib":"6+","obs":1784811600,"hist":[{"obs":1784809800,"raw":"METAR ROAH 231230Z 12008KT 9999 FEW017 30/27 Q1010","cat":"VFR"},{"obs":1784808000,"raw":"METAR ROAH 231200Z 12009KT 9999 FEW017 30/27 Q1010","cat":"VFR"},{"obs":1784806200,"raw":"METAR ROAH 231130Z 12008KT 9999 FEW017 30/27 Q1010","cat":"VFR"},{"obs":1784804400,"raw":"METAR ROAH 231100Z 12009KT 9999 FEW019 30/26 Q1009","cat":"VFR"},{"obs":1784802600,"raw":"METAR ROAH 231030Z 12010KT 9999 FEW022 30/26 Q1009","cat":"VFR"}]},"RJFO":{"raw":"METAR RJFO 231300Z 31007KT 9999 FEW030 BKN070 29/24 Q1010","cat":"VFR","temp":29,"wdir":310,"wspd":7,"visib":"6+","obs":1784811600,"hist":[{"obs":1784808000,"raw":"METAR RJFO 231200Z 30008KT 9999 FEW030 SCT070 30/23 Q1010","cat":"VFR"},{"obs":1784804400,"raw":"METAR RJFO 231100Z 31006KT 280V340 9999 FEW030 SCT080 30/23 Q1009","cat":"VFR"}]},"RJKA":{"raw":"METAR RJKA 231300Z AUTO 17003KT 9999 NCD 29/26 Q1011","cat":"VFR","temp":29,"wdir":170,"wspd":3,"visib":"6+","obs":1784811600,"hist":[{"obs":1784808000,"raw":"METAR RJKA 231200Z AUTO 17002KT 9999 NCD 29/26 Q1011","cat":"VFR"},{"obs":1784804400,"raw":"METAR RJKA 231100Z AUTO 17002KT 9999 NCD 29/26 Q1010","cat":"VFR"}]},"RJFR":{"raw":"METAR RJFR 231300Z 29004KT 270V340 9999 FEW030 29/25 Q1011","cat":"VFR","temp":29,"wdir":290,"wspd":4,"visib":"6+","obs":1784811600,"hist":[{"obs":1784808000,"raw":"METAR RJFR 231200Z 34006KT 9999 FEW030 29/26 Q1010","cat":"VFR"},{"obs":1784804400,"raw":"METAR RJFR 231100Z 34006KT 9999 FEW030 29/25 Q1009","cat":"VFR"}]},"RJAA":{"raw":"METAR RJAA 231300Z 03008KT 9999 VCSH FEW010 FEW030CB BKN060 26/24 Q1010 TEMPO 4000 -TSRA BR","cat":"VFR","temp":26,"wdir":30,"wspd":8,"visib":"6+","obs":1784811600,"hist":[{"obs":1784809800,"raw":"METAR RJAA 231230Z 05006KT 9999 FEW025 FEW030CB BKN060 27/24 Q1010 TEMPO 4000 -TSRA BR","cat":"VFR"},{"obs":1784808000,"raw":"METAR RJAA 231200Z 05006KT 360V090 9999 FEW030 BKN060 27/23 Q1010 NOSIG","cat":"VFR"},{"obs":1784806200,"raw":"METAR RJAA 231130Z 06006KT 020V090 9999 FEW030 BKN060 28/23 Q1010 BECMG 05006KT","cat":"VFR"},{"obs":1784804400,"raw":"METAR RJAA 231100Z 08007KT 9999 FEW030 SCT050 BKN/// 28/22 Q1009 BECMG 05006KT","cat":"VFR"},{"obs":1784802600,"raw":"METAR RJAA 231030Z 09006KT 9999 FEW030 BKN/// 28/22 Q1009 BECMG 05006KT","cat":"VFR"}]},"RJFS":{"raw":"METAR RJFS 231300Z 29007KT 9999 FEW035 29/25 Q1011","cat":"VFR","temp":29,"wdir":290,"wspd":7,"visib":"6+","obs":1784811600,"hist":[{"obs":1784808000,"raw":"METAR RJFS 231200Z 28006KT 9999 FEW035 30/24 Q1010","cat":"VFR"},{"obs":1784804400,"raw":"METAR RJFS 231100Z 27008KT 9999 FEW035 31/24 Q1009","cat":"VFR"}]},"RJGG":{"raw":"METAR RJGG 231300Z 31013KT CAVOK 31/23 Q1008 NOSIG","cat":"VFR","temp":31,"wdir":310,"wspd":13,"visib":"6+","obs":1784811600,"hist":[{"obs":1784809800,"raw":"METAR RJGG 231230Z 31015KT CAVOK 31/24 Q1008 NOSIG","cat":"VFR"},{"obs":1784808000,"raw":"METAR RJGG 231200Z 32015KT 9999 FEW020 31/23 Q1008 NOSIG","cat":"VFR"},{"obs":1784806200,"raw":"METAR RJGG 231130Z 32013KT CAVOK 32/23 Q1008 NOSIG","cat":"VFR"},{"obs":1784804400,"raw":"METAR RJGG 231100Z 33015KT CAVOK 32/24 Q1007 NOSIG","cat":"VFR"},{"obs":1784802600,"raw":"METAR RJGG 231030Z 33016KT 9999 FEW020 32/24 Q1007 NOSIG","cat":"VFR"}]},"RJBD":{"raw":"METAR RJBD 231300Z AUTO VRB01KT 9000 FEW009 29/25 Q1010","cat":"VFR","temp":29,"wdir":"VRB","wspd":1,"visib":5.59,"obs":1784811600,"hist":[{"obs":1784808000,"raw":"METAR RJBD 231200Z AUTO VRB01KT 9000 BKN010 29/25 Q1010","cat":"MVFR"},{"obs":1784804400,"raw":"METAR RJBD 231100Z AUTO 28002KT 9000 FEW009 29/26 Q1010","cat":"VFR"}]},"RJFT":{"raw":"METAR RJFT 231300Z AUTO 18004KT 9999 NCD 28/23 Q1012","cat":"VFR","temp":28,"wdir":180,"wspd":4,"visib":"6+","obs":1784811600,"hist":[{"obs":1784808000,"raw":"METAR RJFT 231200Z 17004KT 9999 FEW025 SCT040 28/23 Q1012","cat":"VFR"},{"obs":1784804400,"raw":"METAR RJFT 231100Z 19006KT 9999 FEW025 SCT040 BKN060 29/23 Q1011","cat":"VFR"}]},"RJTT":{"raw":"METAR RJTT 231300Z 12003KT 9999 FEW025 BKN050 29/23 Q1010 NOSIG","cat":"VFR","temp":29,"wdir":120,"wspd":3,"visib":"6+","obs":1784811600,"hist":[{"obs":1784809800,"raw":"METAR RJTT 231230Z 10006KT 9999 FEW025 BKN045 29/24 Q1010 NOSIG","cat":"VFR"},{"obs":1784808000,"raw":"METAR RJTT 231200Z 10008KT 9999 FEW025 BKN050 BKN070 29/24 Q1010 NOSIG","cat":"VFR"},{"obs":1784806200,"raw":"METAR RJTT 231130Z 10007KT 9999 FEW025 BKN060 BKN110 29/23 Q1010 NOSIG","cat":"VFR"},{"obs":1784804400,"raw":"METAR RJTT 231100Z 12009KT 9999 FEW025 BKN080 29/24 Q1009 NOSIG","cat":"VFR"},{"obs":1784802600,"raw":"METAR RJTT 231030Z 12010KT 9999 FEW030 SCT070 30/25 Q1009 NOSIG","cat":"VFR"}]},"RJSS":{"raw":"METAR RJSS 231300Z AUTO 12008KT 9999 FEW014 BKN015 BKN021 24/22 Q1011","cat":"MVFR","temp":24,"wdir":120,"wspd":8,"visib":"6+","obs":1784811600,"hist":[{"obs":1784808000,"raw":"METAR RJSS 231200Z 11009KT 9999 FEW008 SCT012 BKN018 24/22 Q1011","cat":"MVFR"},{"obs":1784804400,"raw":"METAR RJSS 231100Z 11009KT 9999 FEW008 BKN015 BKN020 24/22 Q1010","cat":"MVFR"}]},"RJBE":{"raw":"METAR RJBE 231300Z 06009KT 9999 FEW045 BKN050 32/24 Q1009","cat":"VFR","temp":32,"wdir":60,"wspd":9,"visib":"6+","obs":1784811600,"hist":[{"obs":1784808000,"raw":"METAR RJBE 231200Z 05009KT CAVOK 32/24 Q1009","cat":"VFR"},{"obs":1784804400,"raw":"METAR RJBE 231100Z 25005KT 9999 FEW030 BKN050 32/26 Q1008","cat":"VFR"}]},"RJSN":{"raw":"METAR RJSN 231300Z AUTO /////KT //// // ////// ///// Q////","cat":"","temp":null,"wdir":null,"wspd":null,"visib":null,"obs":1784811600,"hist":[{"obs":1784808000,"raw":"METAR RJSN 231200Z 02003KT 9999 FEW015 SCT045 27/24 Q1010","cat":"VFR"},{"obs":1784804400,"raw":"METAR RJSN 231100Z 03004KT 9999 FEW015 SCT020 BKN025 27/24 Q1010","cat":"MVFR"}]},"ROIG":{"raw":"METAR ROIG 231300Z AUTO 06010KT 9999 FEW015 SCT070 BKN080 29/26 Q1009","cat":"VFR","temp":29,"wdir":60,"wspd":10,"visib":"6+","obs":1784811600,"hist":[{"obs":1784808000,"raw":"METAR ROIG 231200Z AUTO 05008KT 9999 FEW013 28/26 Q1009","cat":"VFR"},{"obs":1784804400,"raw":"METAR ROIG 231100Z 05009KT 9999 FEW016 28/25 Q1008","cat":"VFR"}]},"RJSF":{"raw":"METAR RJSF 231300Z AUTO 17004KT 130V200 9999 FEW020 24/23 Q1012","cat":"VFR","temp":24,"wdir":170,"wspd":4,"visib":"6+","obs":1784811600,"hist":[{"obs":1784808000,"raw":"METAR RJSF 231200Z AUTO 02004KT 9999 FEW025 BKN060 25/22 Q1012","cat":"VFR"},{"obs":1784804400,"raw":"METAR RJSF 231100Z 35004KT 9999 FEW020 SCT080 BKN/// 26/22 Q1011","cat":"VFR"}]},"RJCC":{"raw":"METAR RJCC 231300Z 15004KT 120V180 2000 BR SCT001 BKN002 20/19 Q1011","cat":"LIFR","temp":20,"wdir":150,"wspd":4,"visib":1.24,"obs":1784811600,"hist":[{"obs":1784809800,"raw":"METAR RJCC 231230Z 14005KT 2500 BR FEW001 BKN002 BKN003 20/19 Q1011","cat":"LIFR"},{"obs":1784808000,"raw":"METAR RJCC 231200Z 17005KT 120V190 2500 BR FEW002 BKN003 BKN004 20/19 Q1011","cat":"LIFR"},{"obs":1784806200,"raw":"METAR RJCC 231130Z 18004KT 140V210 3500 BR FEW002 SCT003 BKN004 20/19 Q1011","cat":"LIFR"},{"obs":1784804400,"raw":"METAR RJCC 231100Z 18006KT 150V220 4000 BR FEW003 BKN004 BKN005 20/19 Q1011","cat":"LIFR"},{"obs":1784802600,"raw":"METAR RJCC 231030Z 15006KT 130V190 4500 BR FEW003 BKN004 BKN005 20/20 Q1010","cat":"LIFR"}]},"RJSA":{"raw":"METAR RJSA 231300Z AUTO VRB01KT 1100 R24/1000VP2000U BR OVC001 21/21 Q1011","cat":"LIFR","temp":21,"wdir":"VRB","wspd":1,"visib":0.68,"obs":1784811600,"hist":[{"obs":1784808000,"raw":"METAR RJSA 231200Z 02002KT 9999 FEW002 SCT010 BKN060 21/21 Q1011","cat":"VFR"},{"obs":1784804400,"raw":"METAR RJSA 231100Z VRB02KT 9999 FEW008 SCT020 BKN060 22/21 Q1011","cat":"VFR"}]},"RJOT":{"raw":"METAR RJOT 231300Z AUTO 21007KT 9999 NCD 28/23 Q1011","cat":"VFR","temp":28,"wdir":210,"wspd":7,"visib":"6+","obs":1784811600,"hist":[{"obs":1784808000,"raw":"METAR RJOT 231200Z 20005KT 9999 FEW060 28/24 Q1011","cat":"VFR"},{"obs":1784804400,"raw":"METAR RJOT 231100Z 21004KT 9999 FEW060 30/24 Q1010","cat":"VFR"}]},"ROMY":{"raw":"METAR ROMY 231300Z AUTO 09006KT 9999 //////TCU 28/26 Q1010","cat":"","temp":28,"wdir":90,"wspd":6,"visib":"6+","obs":1784811600,"hist":[{"obs":1784808000,"raw":"METAR ROMY 231200Z AUTO 10005KT 9999 FEW015 28/26 Q1009","cat":"VFR"},{"obs":1784804400,"raw":"METAR ROMY 231100Z 09007KT 9999 VCSH SCT015 29/26 Q1009","cat":"VFR"}]},"RJCH":{"raw":"METAR RJCH 231300Z AUTO 01004KT 9999 NSC 22/20 Q1010","cat":"VFR","temp":22,"wdir":10,"wspd":4,"visib":"6+","obs":1784811600,"hist":[{"obs":1784808000,"raw":"METAR RJCH 231200Z AUTO 36002KT 9999 NSC 22/21 Q1011","cat":"VFR"},{"obs":1784804400,"raw":"METAR RJCH 231100Z VRB02KT 9999 FEW015 BKN/// 22/21 Q1010","cat":"VFR"}]},"RJOS":{"raw":"METAR RJOS 231300Z 36009KT 9999 FEW030 32/24 Q1010","cat":"VFR","temp":32,"wdir":360,"wspd":9,"visib":"6+","obs":1784811600,"hist":[{"obs":1784808000,"raw":"METAR RJOS 231200Z VRB02KT 9999 FEW030 33/24 Q1009","cat":"VFR"},{"obs":1784804400,"raw":"METAR RJOS 231100Z 19003KT 9999 FEW030 SCT/// 33/24 Q1008","cat":"VFR"}]},"RJAH":{"raw":"METAR RJAH 231300Z 03005KT 9999 -TSRA FEW006 SCT030CB BKN060 25/25 Q1011","cat":"VFR","temp":25,"wdir":30,"wspd":5,"visib":"6+","obs":1784811600,"hist":[{"obs":1784808000,"raw":"METAR RJAH 231200Z 08005KT 9999 -SHRA FEW025 FEW030CB BKN070 25/24 Q1010","cat":"VFR"},{"obs":1784804400,"raw":"METAR RJAH 231100Z 07004KT 030V110 9999 -SHRA FEW025 FEW030CB BKN080 26/24 Q1010","cat":"VFR"}]},"RJCK":{"raw":"METAR RJCK 231300Z AUTO 02002KT 9999 OVC024 19/18 Q1012","cat":"MVFR","temp":19,"wdir":20,"wspd":2,"visib":"6+","obs":1784811600,"hist":[{"obs":1784808000,"raw":"METAR RJCK 231200Z AUTO 03003KT 4900 BR OVC026 19/18 Q1012","cat":"MVFR"},{"obs":1784804400,"raw":"METAR RJCK 231100Z VRB02KT 1500 R17/P2000N BCFG BR SCT001 BKN002 BKN003 18/18 Q1012","cat":"LIFR"}]},"RJOI":{"raw":"METAR RJOI 231256Z 00000KT 9999 FEW030 29/26 A2984 RMK AO2A SLP104 T02890261","cat":"VFR","temp":28.9,"wdir":0,"wspd":0,"visib":"6+","obs":1784811360,"hist":[{"obs":1784807760,"raw":"METAR RJOI 231156Z 07003KT 9999 FEW030 29/26 A2983 RMK AO2A SLP101 T02940261 10344 20289 53024","cat":"VFR"},{"obs":1784804160,"raw":"METAR RJOI 231056Z 03006KT 9999 FEW030 30/26 A2980 RMK AO2A SLP092 T03000256","cat":"VFR"}]},"RODN":{"raw":"METAR RODN 231255Z 12006KT 10SM SCT050 30/26 A2986 RMK AO2A SLP112 T02960259 FZRANO $","cat":"VFR","temp":29.6,"wdir":120,"wspd":6,"visib":"10+","obs":1784811300,"hist":[{"obs":1784807700,"raw":"METAR RODN 231155Z 10004KT 10SM SCT017 BKN038 30/27 A2985 RMK AO2A SLP108 T02970265 10333 20296 52020 FZRANO $","cat":"VFR"},{"obs":1784804100,"raw":"METAR RODN 231055Z 12009KT 10SM FEW019 30/25 A2983 RMK AO2A SLP102 T02990254 FZRANO $","cat":"VFR"}]},"RJTY":{"raw":"METAR RJTY 231255Z 16006KT 10SM OVC037 30/22 A2990 RMK AO2A SLP123 T02950217 $","cat":"VFR","temp":29.5,"wdir":160,"wspd":6,"visib":"10+","obs":1784811300,"hist":[{"obs":1784807700,"raw":"METAR RJTY 231155Z 15006KT 10SM BKN036 30/22 A2988 RMK AO2A LTG DSNT W SLP116 T03020218 10347 20302 52023 $","cat":"VFR"},{"obs":1784804100,"raw":"METAR RJTY 231055Z 13009KT 10SM BKN036 31/22 A2986 RMK AO2A SLP109 T03070220 $","cat":"VFR"}]},"RJFK":{"raw":"METAR RJFK 231200Z 27005KT 9999 FEW030 SCT/// 27/24 Q1012","cat":"VFR","temp":27,"wdir":270,"wspd":5,"visib":"6+","obs":1784808000,"hist":[{"obs":1784804400,"raw":"METAR RJFK 231100Z 28007KT 9999 FEW040 SCT/// 28/24 Q1012","cat":"VFR"}]},"RJFU":{"raw":"METAR RJFU 231200Z 27003KT 9999 FEW040 29/26 Q1010","cat":"VFR","temp":29,"wdir":270,"wspd":3,"visib":"6+","obs":1784808000,"hist":[{"obs":1784804400,"raw":"METAR RJFU 231100Z VRB02KT CAVOK 30/27 Q1010","cat":"VFR"}]},"RJCM":{"raw":"METAR RJCM 231100Z VRB02KT 9999 FEW001 SCT009 BKN010 17/16 Q1013","cat":"MVFR","temp":17,"wdir":"VRB","wspd":2,"visib":"6+","obs":1784804400,"hist":[]},"RJDT":{"raw":"METAR RJDT 231100Z 24003KT 200V270 9999 FEW010 27/24 Q1010","cat":"VFR","temp":27,"wdir":240,"wspd":3,"visib":"6+","obs":1784804400,"hist":[]},"RJCO":{"raw":"METAR RJCO 231100Z 31006KT 9999 FEW030 SCT250 22/18 Q1010","cat":"VFR","temp":22,"wdir":310,"wspd":6,"visib":"6+","obs":1784804400,"hist":[]},"RJCB":{"raw":"METAR RJCB 231100Z 02005KT 340V050 9999 FEW030 SCT050 BKN080 21/18 Q1011","cat":"VFR","temp":21,"wdir":20,"wspd":5,"visib":"6+","obs":1784804400,"hist":[]}}}