{"updated":"2026-07-22T07:44Z","m":{"RJAA":{"raw":"METAR RJAA 220730Z 13010KT 9999 FEW030 33/27 Q1004 NOSIG","cat":"VFR","temp":33,"wdir":130,"wspd":10,"visib":"6+","obs":1784705400,"hist":[{"obs":1784703600,"raw":"METAR RJAA 220700Z 13009KT 9999 FEW030 34/28 Q1005 NOSIG","cat":"VFR"},{"obs":1784701800,"raw":"METAR RJAA 220630Z 12009KT 080V140 9999 FEW030 34/28 Q1005 NOSIG","cat":"VFR"},{"obs":1784700000,"raw":"METAR RJAA 220600Z 12011KT 9999 FEW030 34/28 Q1005 NOSIG","cat":"VFR"},{"obs":1784698200,"raw":"METAR RJAA 220530Z 11011KT 9999 FEW030 34/28 Q1005 NOSIG","cat":"VFR"},{"obs":1784696400,"raw":"METAR RJAA 220500Z 13007KT 080V170 9999 FEW030 BKN035 35/29 Q1005 NOSIG","cat":"VFR"}]},"RJGG":{"raw":"METAR RJGG 220730Z 21006KT 9999 FEW025 34/29 Q1005 NOSIG","cat":"VFR","temp":34,"wdir":210,"wspd":6,"visib":"6+","obs":1784705400,"hist":[{"obs":1784703600,"raw":"METAR RJGG 220700Z 21005KT 9999 FEW025 34/30 Q1005 NOSIG","cat":"VFR"},{"obs":1784701800,"raw":"METAR RJGG 220630Z 21004KT 9999 FEW025 35/27 Q1005 NOSIG","cat":"VFR"},{"obs":1784700000,"raw":"METAR RJGG 220600Z 21004KT 9999 FEW025 35/28 Q1006 NOSIG","cat":"VFR"},{"obs":1784698200,"raw":"METAR RJGG 220530Z 21005KT 9999 FEW025 35/29 Q1006 NOSIG","cat":"VFR"},{"obs":1784696400,"raw":"METAR RJGG 220500Z 21006KT 9000 FEW025 35/29 Q1006 NOSIG","cat":"VFR"}]},"RJTT":{"raw":"METAR RJTT 220730Z 18013KT 9999 FEW030 34/26 Q1004 NOSIG","cat":"VFR","temp":34,"wdir":180,"wspd":13,"visib":"6+","obs":1784705400,"hist":[{"obs":1784703600,"raw":"METAR RJTT 220700Z 19013KT CAVOK 34/27 Q1005 NOSIG","cat":"VFR"},{"obs":1784701800,"raw":"METAR RJTT 220630Z 19013KT 9999 FEW030 34/27 Q1005 NOSIG","cat":"VFR"},{"obs":1784700000,"raw":"METAR RJTT 220600Z 19014KT 9999 FEW030 34/27 Q1005 NOSIG","cat":"VFR"},{"obs":1784698200,"raw":"METAR RJTT 220530Z 19014KT 9999 FEW030 34/27 Q1005 NOSIG","cat":"VFR"},{"obs":1784696400,"raw":"METAR RJTT 220500Z 19015KT 9999 FEW030 34/27 Q1005 NOSIG","cat":"VFR"}]},"ROAH":{"raw":"METAR ROAH 220730Z 34007KT 9999 +SHRA FEW018 FEW025TCU BKN040 29/27 Q1009","cat":"VFR","temp":29,"wdir":340,"wspd":7,"visib":"6+","obs":1784705400,"hist":[{"obs":1784703600,"raw":"METAR ROAH 220700Z 30003KT 270V340 9999 SHRA BR FEW018 FEW025TCU BKN032 29/27 Q1009","cat":"VFR"},{"obs":1784701800,"raw":"METAR ROAH 220630Z 25004KT 200V300 9999 +SHRA FEW018 FEW025TCU SCT032 30/27 Q1008","cat":"VFR"},{"obs":1784700000,"raw":"METAR ROAH 220600Z 26005KT 230V320 9999 SHRA FEW018 SCT032 31/27 Q1009","cat":"VFR"},{"obs":1784698200,"raw":"METAR ROAH 220530Z 24004KT 200V320 9999 -SHRA FEW015 BKN033 31/27 Q1009","cat":"VFR"},{"obs":1784696400,"raw":"METAR ROAH 220500Z 27004KT 220V290 9999 -SHRA FEW017 BKN035 30/27 Q1009","cat":"VFR"}]},"RJBB":{"raw":"METAR RJBB 220730Z 26005KT 9999 FEW030 33/28 Q1007 NOSIG","cat":"VFR","temp":33,"wdir":260,"wspd":5,"visib":"6+","obs":1784705400,"hist":[{"obs":1784703600,"raw":"METAR RJBB 220700Z 26005KT 9999 FEW030 34/27 Q1007 NOSIG","cat":"VFR"},{"obs":1784701800,"raw":"METAR RJBB 220630Z 26005KT 9999 FEW030 34/27 Q1007 NOSIG","cat":"VFR"},{"obs":1784700000,"raw":"METAR RJBB 220600Z 26005KT 9999 FEW030 33/27 Q1007 NOSIG","cat":"VFR"},{"obs":1784698200,"raw":"METAR RJBB 220530Z 27005KT 9999 FEW030 32/26 Q1007 NOSIG","cat":"VFR"},{"obs":1784696400,"raw":"METAR RJBB 220500Z 27003KT 9999 FEW025 33/26 Q1008 NOSIG","cat":"VFR"}]},"RJCC":{"raw":"METAR RJCC 220730Z 35009KT 9999 FEW010 SCT015 BKN070 24/21 Q1004","cat":"VFR","temp":24,"wdir":350,"wspd":9,"visib":"6+","obs":1784705400,"hist":[{"obs":1784703600,"raw":"METAR RJCC 220700Z 36008KT 9999 FEW010 SCT015 BKN070 24/20 Q1004","cat":"VFR"},{"obs":1784701800,"raw":"METAR RJCC 220630Z 36010KT 9999 -RA FEW008 SCT015 BKN070 24/21 Q1004","cat":"VFR"},{"obs":1784700000,"raw":"METAR RJCC 220600Z 35008KT 9999 -RA FEW010 SCT015 OVC070 24/20 Q1004","cat":"VFR"},{"obs":1784698200,"raw":"METAR RJCC 220530Z 35008KT 9999 FEW010 SCT015 OVC070 24/20 Q1004","cat":"VFR"},{"obs":1784696400,"raw":"METAR RJCC 220500Z 36005KT 9999 FEW005 SCT015 OVC070 24/21 Q1004","cat":"VFR"}]},"RJFF":{"raw":"METAR RJFF 220730Z 31011KT 9999 FEW030 33/23 Q1008 NOSIG","cat":"VFR","temp":33,"wdir":310,"wspd":11,"visib":"6+","obs":1784705400,"hist":[{"obs":1784703600,"raw":"METAR RJFF 220700Z 32009KT 290V360 9999 FEW030 34/22 Q1008 NOSIG","cat":"VFR"},{"obs":1784701800,"raw":"METAR RJFF 220630Z 33011KT 9999 FEW030 34/23 Q1008 NOSIG","cat":"VFR"},{"obs":1784700000,"raw":"METAR RJFF 220600Z 32011KT 9999 FEW030 33/23 Q1008 NOSIG","cat":"VFR"},{"obs":1784698200,"raw":"METAR RJFF 220530Z 31011KT 260V340 9999 FEW030 34/24 Q1008 NOSIG","cat":"VFR"},{"obs":1784696400,"raw":"METAR RJFF 220500Z 32010KT 9999 FEW030 34/24 Q1008 NOSIG","cat":"VFR"}]},"RJBE":{"raw":"METAR RJBE 220700Z 25007KT 9999 FEW030 33/26 Q1007","cat":"VFR","temp":33,"wdir":250,"wspd":7,"visib":"6+","obs":1784703600,"hist":[{"obs":1784700000,"raw":"METAR RJBE 220600Z 24009KT 9999 FEW030 32/26 Q1007","cat":"VFR"},{"obs":1784696400,"raw":"METAR RJBE 220500Z 23008KT 9999 FEW025 32/27 Q1008","cat":"VFR"}]},"RJAF":{"raw":"METAR RJAF 220700Z 34006KT 280V030 9999 FEW050 35/20 Q1009","cat":"VFR","temp":35,"wdir":340,"wspd":6,"visib":"6+","obs":1784703600,"hist":[{"obs":1784700000,"raw":"METAR RJAF 220600Z 33008KT 290V360 9999 FEW050 34/21 Q1009","cat":"VFR"},{"obs":1784696400,"raw":"METAR RJAF 220500Z 35008KT 300V040 9999 FEW050 34/22 Q1010","cat":"VFR"}]},"RJFT":{"raw":"METAR RJFT 220700Z 20006KT 170V230 9999 FEW045 33/23 Q1009","cat":"VFR","temp":33,"wdir":200,"wspd":6,"visib":"6+","obs":1784703600,"hist":[{"obs":1784700000,"raw":"METAR RJFT 220600Z 21008KT 170V240 9999 FEW045 34/24 Q1009","cat":"VFR"},{"obs":1784696400,"raw":"METAR RJFT 220500Z 19006KT 150V270 9999 FEW040 34/25 Q1009","cat":"VFR"}]},"RJOC":{"raw":"METAR RJOC 220700Z 25016KT 9999 FEW020 32/25 Q1007","cat":"VFR","temp":32,"wdir":250,"wspd":16,"visib":"6+","obs":1784703600,"hist":[{"obs":1784700000,"raw":"METAR RJOC 220600Z 25017KT 9999 FEW025 32/25 Q1007","cat":"VFR"},{"obs":1784696400,"raw":"METAR RJOC 220500Z 25018KT 9999 FEW025 33/25 Q1008","cat":"VFR"}]},"RJFU":{"raw":"METAR RJFU 220700Z 24009KT 9999 FEW035 34/25 Q1008","cat":"VFR","temp":34,"wdir":240,"wspd":9,"visib":"6+","obs":1784703600,"hist":[{"obs":1784700000,"raw":"METAR RJFU 220600Z 23009KT 9999 FEW035 34/25 Q1008","cat":"VFR"},{"obs":1784696400,"raw":"METAR RJFU 220500Z 24007KT 9999 FEW035 34/25 Q1009","cat":"VFR"}]},"RJCB":{"raw":"METAR RJCB 220700Z 11003KT 070V150 9999 -SHRA FEW005 SCT010 BKN020 23/21 Q1005","cat":"MVFR","temp":23,"wdir":110,"wspd":3,"visib":"6+","obs":1784703600,"hist":[{"obs":1784700000,"raw":"METAR RJCB 220600Z 11006KT 9999 FEW005 SCT010 BKN100 23/21 Q1004","cat":"VFR"},{"obs":1784696400,"raw":"METAR RJCB 220500Z 08004KT 010V140 9999 FEW004 SCT009 BKN010 23/21 Q1005","cat":"MVFR"}]},"RJOA":{"raw":"METAR RJOA 220700Z 21005KT 170V260 9999 FEW030 SCT/// 32/24 Q1009","cat":"VFR","temp":32,"wdir":210,"wspd":5,"visib":"6+","obs":1784703600,"hist":[{"obs":1784700000,"raw":"METAR RJOA 220600Z 20005KT 130V250 9999 FEW030 SCT/// 33/25 Q1010","cat":"VFR"},{"obs":1784696400,"raw":"METAR RJOA 220500Z 23006KT 180V270 9999 FEW025 SCT/// 32/25 Q1010","cat":"VFR"}]},"RJNW":{"raw":"METAR RJNW 220700Z 26012KT 230V290 9999 FEW020 30/25 Q1009","cat":"VFR","temp":30,"wdir":260,"wspd":12,"visib":"6+","obs":1784703600,"hist":[{"obs":1784700000,"raw":"METAR RJNW 220600Z 26012KT 240V310 9999 FEW020 SCT025 30/25 Q1009","cat":"VFR"},{"obs":1784696400,"raw":"METAR RJNW 220500Z 26015KT 9999 FEW020 SCT025 BKN030 30/24 Q1009","cat":"MVFR"}]},"RJNT":{"raw":"METAR RJNT 220700Z 29010KT 260V320 9999 FEW030 34/25 Q1007","cat":"VFR","temp":34,"wdir":290,"wspd":10,"visib":"6+","obs":1784703600,"hist":[{"obs":1784700000,"raw":"METAR RJNT 220600Z 29009KT 250V320 9999 FEW030 35/26 Q1007","cat":"VFR"},{"obs":1784696400,"raw":"METAR RJNT 220500Z 28009KT 9999 FEW030 SCT/// 35/26 Q1007","cat":"VFR"}]},"RJKA":{"raw":"METAR RJKA 220700Z 10005KT 9999 VCSH FEW020 31/26 Q1009","cat":"VFR","temp":31,"wdir":100,"wspd":5,"visib":"6+","obs":1784703600,"hist":[{"obs":1784700000,"raw":"METAR RJKA 220600Z 10005KT 9999 FEW020 32/27 Q1009","cat":"VFR"},{"obs":1784696400,"raw":"METAR RJKA 220500Z 10005KT 9999 FEW020 32/27 Q1009","cat":"VFR"}]},"RJNK":{"raw":"METAR RJNK 220700Z 28012KT 9999 FEW030 SCT250 32/26 Q1008","cat":"VFR","temp":32,"wdir":280,"wspd":12,"visib":"6+","obs":1784703600,"hist":[{"obs":1784700000,"raw":"METAR RJNK 220600Z 27011KT 9999 FEW030 SCT250 32/26 Q1008","cat":"VFR"},{"obs":1784696400,"raw":"METAR RJNK 220500Z 27014KT 9999 FEW030 BKN250 32/25 Q1008","cat":"VFR"}]},"RJTO":{"raw":"METAR RJTO 220700Z 20016KT 9999 FEW012 32/26 Q1006","cat":"VFR","temp":32,"wdir":200,"wspd":16,"visib":"6+","obs":1784703600,"hist":[{"obs":1784700000,"raw":"METAR RJTO 220600Z 20018KT 9999 FEW010 32/26 Q1006","cat":"VFR"},{"obs":1784696400,"raw":"METAR RJTO 220500Z 19018KT 9999 FEW008 32/27 Q1006","cat":"VFR"}]},"RJTF":{"raw":"METAR RJTF 220700Z 17009KT 8000 FEW025 36/26 Q1005","cat":"MVFR","temp":36,"wdir":170,"wspd":9,"visib":4.97,"obs":1784703600,"hist":[{"obs":1784700000,"raw":"METAR RJTF 220600Z 19007KT 150V240 8000 FEW025 36/27 Q1005","cat":"MVFR"},{"obs":1784696400,"raw":"METAR RJTF 220500Z 18009KT 150V220 8000 FEW025 SCT060 36/26 Q1005","cat":"MVFR"}]},"ROMY":{"raw":"METAR ROMY 220700Z 24010KT 9999 -SHRA FEW015 FEW020TCU 31/26 Q1008","cat":"VFR","temp":31,"wdir":240,"wspd":10,"visib":"6+","obs":1784703600,"hist":[{"obs":1784700000,"raw":"METAR ROMY 220600Z 25008KT 220V280 9999 -SHRA FEW014 FEW020TCU 31/25 Q1009","cat":"VFR"},{"obs":1784696400,"raw":"METAR ROMY 220500Z 26009KT 230V290 9999 -SHRA FEW014 FEW020TCU 31/26 Q1009","cat":"VFR"}]},"RJFM":{"raw":"METAR RJFM 220700Z 10006KT 9000 FEW030 31/27 Q1008","cat":"VFR","temp":31,"wdir":100,"wspd":6,"visib":5.59,"obs":1784703600,"hist":[{"obs":1784700000,"raw":"METAR RJFM 220600Z 11005KT 080V140 9999 FEW030 31/27 Q1009","cat":"VFR"},{"obs":1784696400,"raw":"METAR RJFM 220500Z 11005KT 070V140 9999 FEW030 32/27 Q1009","cat":"VFR"}]},"RJOM":{"raw":"METAR RJOM 220700Z 23005KT 200V280 9999 FEW030 32/25 Q1008","cat":"VFR","temp":32,"wdir":230,"wspd":5,"visib":"6+","obs":1784703600,"hist":[{"obs":1784700000,"raw":"METAR RJOM 220600Z 23005KT 9999 FEW030 32/25 Q1008","cat":"VFR"},{"obs":1784696400,"raw":"METAR RJOM 220500Z 23006KT 9999 FEW025 31/27 Q1008","cat":"VFR"}]},"RJFO":{"raw":"METAR RJFO 220700Z 13005KT 9999 FEW020 30/26 Q1008","cat":"VFR","temp":30,"wdir":130,"wspd":5,"visib":"6+","obs":1784703600,"hist":[{"obs":1784700000,"raw":"METAR RJFO 220600Z 12005KT 9999 FEW020 30/26 Q1008","cat":"VFR"},{"obs":1784696400,"raw":"METAR RJFO 220500Z 11005KT 9999 FEW020 29/26 Q1008","cat":"VFR"}]},"RJOK":{"raw":"METAR RJOK 220700Z 20006KT 9999 FEW020 32/27 Q1008","cat":"VFR","temp":32,"wdir":200,"wspd":6,"visib":"6+","obs":1784703600,"hist":[{"obs":1784700000,"raw":"METAR RJOK 220600Z 18007KT 140V220 9999 FEW015 32/28 Q1008","cat":"VFR"},{"obs":1784696400,"raw":"METAR RJOK 220500Z 18007KT 150V230 9999 FEW035 32/28 Q1008","cat":"VFR"}]},"RJFR":{"raw":"METAR RJFR 220700Z 33011KT 9999 FEW030 33/23 Q1008","cat":"VFR","temp":33,"wdir":330,"wspd":11,"visib":"6+","obs":1784703600,"hist":[{"obs":1784700000,"raw":"METAR RJFR 220600Z 33010KT 9999 FEW030 34/23 Q1008","cat":"VFR"},{"obs":1784696400,"raw":"METAR RJFR 220500Z 02007KT 330V060 9999 FEW025 34/24 Q1008","cat":"VFR"}]},"RJOH":{"raw":"METAR RJOH 220700Z 29007KT 240V340 9999 FEW030 34/24 Q1007","cat":"VFR","temp":34,"wdir":290,"wspd":7,"visib":"6+","obs":1784703600,"hist":[{"obs":1784700000,"raw":"METAR RJOH 220600Z 28013KT 9999 FEW030 35/23 Q1007","cat":"VFR"},{"obs":1784696400,"raw":"METAR RJOH 220500Z 29010KT 9999 FEW030 35/24 Q1008","cat":"VFR"}]},"RJFS":{"raw":"METAR RJFS 220700Z 21008KT 9999 FEW040 34/24 Q1008","cat":"VFR","temp":34,"wdir":210,"wspd":8,"visib":"6+","obs":1784703600,"hist":[{"obs":1784700000,"raw":"METAR RJFS 220600Z 21007KT 9999 FEW040 34/25 Q1008","cat":"VFR"},{"obs":1784696400,"raw":"METAR RJFS 220500Z 20007KT 9999 FEW040 34/25 Q1008","cat":"VFR"}]},"RJOT":{"raw":"METAR RJOT 220700Z 32007KT 270V360 9999 FEW035 34/24 Q1008","cat":"VFR","temp":34,"wdir":320,"wspd":7,"visib":"6+","obs":1784703600,"hist":[{"obs":1784700000,"raw":"METAR RJOT 220600Z 31006KT 250V360 9999 FEW035 34/25 Q1008","cat":"VFR"},{"obs":1784696400,"raw":"METAR RJOT 220500Z 30006KT 250V360 9999 FEW035 35/25 Q1009","cat":"VFR"}]},"RJOS":{"raw":"METAR RJOS 220700Z 06007KT 030V150 9999 FEW030 36/23 Q1007","cat":"VFR","temp":36,"wdir":60,"wspd":7,"visib":"6+","obs":1784703600,"hist":[{"obs":1784700000,"raw":"METAR RJOS 220600Z 04009KT 9999 FEW025 37/23 Q1007","cat":"VFR"},{"obs":1784696400,"raw":"METAR RJOS 220500Z 03011KT 9999 FEW025 36/24 Q1008","cat":"VFR"}]},"RJFG":{"raw":"METAR RJFG 220700Z 24005KT 190V300 9999 FEW020 30/23 Q1010","cat":"VFR","temp":30,"wdir":240,"wspd":5,"visib":"6+","obs":1784703600,"hist":[{"obs":1784700000,"raw":"METAR RJFG 220600Z 27008KT 230V310 9999 FEW015 31/24 Q1011","cat":"VFR"},{"obs":1784696400,"raw":"METAR RJFG 220500Z 27007KT 240V310 9999 FEW015 31/23 Q1011","cat":"VFR"}]},"RJOR":{"raw":"METAR RJOR 220700Z 31007KT 9999 FEW020 31/26 Q1008","cat":"VFR","temp":31,"wdir":310,"wspd":7,"visib":"6+","obs":1784703600,"hist":[{"obs":1784700000,"raw":"METAR RJOR 220600Z 32009KT 9999 FEW020 32/26 Q1008","cat":"VFR"},{"obs":1784696400,"raw":"METAR RJOR 220500Z 32010KT 9999 FEW020 32/27 Q1008","cat":"VFR"}]},"RJBD":{"raw":"METAR RJBD 220700Z 27008KT 230V310 9999 FEW020 32/25 Q1008","cat":"VFR","temp":32,"wdir":270,"wspd":8,"visib":"6+","obs":1784703600,"hist":[{"obs":1784700000,"raw":"METAR RJBD 220600Z 29008KT 250V310 9999 FEW020 33/23 Q1008","cat":"VFR"},{"obs":1784696400,"raw":"METAR RJBD 220500Z 30006KT 260V330 9999 FEW020 34/24 Q1008","cat":"VFR"}]},"RJFK":{"raw":"METAR RJFK 220700Z 20010KT 9999 FEW040 32/25 Q1010","cat":"VFR","temp":32,"wdir":200,"wspd":10,"visib":"6+","obs":1784703600,"hist":[{"obs":1784700000,"raw":"METAR RJFK 220600Z 20008KT 170V240 9999 FEW040 34/25 Q1010","cat":"VFR"},{"obs":1784696400,"raw":"METAR RJFK 220500Z 18006KT 130V220 9999 FEW040 34/23 Q1010","cat":"VFR"}]},"RJOO":{"raw":"METAR RJOO 220700Z 21008KT 160V250 9999 FEW030 36/24 Q1006","cat":"VFR","temp":36,"wdir":210,"wspd":8,"visib":"6+","obs":1784703600,"hist":[{"obs":1784700000,"raw":"METAR RJOO 220600Z 23006KT 170V290 9999 FEW030 36/24 Q1006","cat":"VFR"},{"obs":1784696400,"raw":"METAR RJOO 220500Z 21009KT 170V270 9999 FEW025 36/26 Q1007","cat":"VFR"}]},"ROIG":{"raw":"METAR ROIG 220700Z 09002KT 9999 R04/0800VP2000D +SHRA FEW007 BKN018 FEW020TCU 27/26 Q1008","cat":"MVFR","temp":27,"wdir":90,"wspd":2,"visib":"6+","obs":1784703600,"hist":[{"obs":1784700000,"raw":"METAR ROIG 220600Z 02009KT 9999 -SHRA BKN015 FEW020TCU 27/26 Q1008","cat":"MVFR"},{"obs":1784696400,"raw":"METAR ROIG 220500Z 21012KT 9999 -SHRA FEW023 FEW030TCU 32/27 Q1008","cat":"VFR"}]},"RJCH":{"raw":"METAR RJCH 220700Z 06005KT 8000 -SHRA FEW004 SCT008 BKN018 21/21 Q1004","cat":"MVFR","temp":21,"wdir":60,"wspd":5,"visib":4.97,"obs":1784703600,"hist":[{"obs":1784700000,"raw":"METAR RJCH 220600Z 06006KT 8000 -SHRA FEW003 SCT008 BKN018 22/21 Q1004","cat":"MVFR"},{"obs":1784696400,"raw":"METAR RJCH 220500Z 07006KT 7000 -SHRA FEW003 SCT010 BKN020 22/21 Q1003","cat":"MVFR"}]},"RJSS":{"raw":"METAR RJSS 220700Z 31009KT 9999 FEW040 BKN120 33/24 Q1004","cat":"VFR","temp":33,"wdir":310,"wspd":9,"visib":"6+","obs":1784703600,"hist":[{"obs":1784700000,"raw":"METAR RJSS 220600Z 28009KT 240V320 9999 FEW030 SCT050 BKN100 34/25 Q1004","cat":"VFR"},{"obs":1784696400,"raw":"METAR RJSS 220500Z 17008KT 9999 FEW030 SCT100 BKN/// 31/25 Q1004","cat":"VFR"}]},"RJSN":{"raw":"METAR RJSN 220700Z 25014KT 9999 FEW030 BKN110 32/25 Q1006","cat":"VFR","temp":32,"wdir":250,"wspd":14,"visib":"6+","obs":1784703600,"hist":[{"obs":1784700000,"raw":"METAR RJSN 220600Z 26015KT 9999 FEW030 BKN120 31/25 Q1007","cat":"VFR"},{"obs":1784696400,"raw":"METAR RJSN 220500Z 26015KT 9999 FEW030 SCT120 BKN/// 32/24 Q1007","cat":"VFR"}]},"RJCK":{"raw":"METAR RJCK 220700Z 05003KT 010V080 4000 BCFG -SHRA BR FEW001 SCT003 BKN004 20/20 Q1005","cat":"LIFR","temp":20,"wdir":50,"wspd":3,"visib":2.49,"obs":1784703600,"hist":[{"obs":1784700000,"raw":"METAR RJCK 220600Z 17007KT 3000 BCFG -SHRA BR FEW001 SCT002 BKN003 20/19 Q1005","cat":"LIFR"},{"obs":1784696400,"raw":"METAR RJCK 220500Z 17004KT 140V200 3000 BCFG -SHRA BR FEW001 SCT002 BKN003 20/19 Q1005","cat":"LIFR"}]},"RJAH":{"raw":"METAR RJAH 220700Z 13008KT 100V160 9999 FEW030 34/28 Q1004","cat":"VFR","temp":34,"wdir":130,"wspd":8,"visib":"6+","obs":1784703600,"hist":[{"obs":1784700000,"raw":"METAR RJAH 220600Z 10010KT 9999 FEW030 35/28 Q1005","cat":"VFR"},{"obs":1784696400,"raw":"METAR RJAH 220500Z 11009KT 9999 FEW035 34/27 Q1005","cat":"VFR"}]},"RJCM":{"raw":"METAR RJCM 220700Z 36010KT 9999 FEW004 BKN/// 24/20 Q1005","cat":"VFR","temp":24,"wdir":360,"wspd":10,"visib":"6+","obs":1784703600,"hist":[{"obs":1784700000,"raw":"METAR RJCM 220600Z 02004KT 340V060 9999 FEW005 SCT020 BKN/// 24/20 Q1005","cat":"VFR"},{"obs":1784696400,"raw":"METAR RJCM 220500Z 03008KT 350V080 9999 FEW020 BKN/// 24/20 Q1004","cat":"VFR"}]},"RJSF":{"raw":"METAR RJSF 220700Z 33013KT 9999 FEW030 FEW035CB SCT080 32/24 Q1008","cat":"VFR","temp":32,"wdir":330,"wspd":13,"visib":"6+","obs":1784703600,"hist":[{"obs":1784700000,"raw":"METAR RJSF 220600Z 34014KT 9999 FEW030 FEW035CB SCT080 33/24 Q1007","cat":"VFR"},{"obs":1784696400,"raw":"METAR RJSF 220500Z 35013KT 9999 FEW040 34/24 Q1008","cat":"VFR"}]},"RJSC":{"raw":"METAR RJSC 220700Z 31009KT 9999 FEW030 SCT050 BKN120 32/23 Q1005","cat":"VFR","temp":32,"wdir":310,"wspd":9,"visib":"6+","obs":1784703600,"hist":[{"obs":1784700000,"raw":"METAR RJSC 220600Z 27008KT 220V300 9999 FEW030 SCT050 BKN070 32/24 Q1005","cat":"VFR"},{"obs":1784696400,"raw":"METAR RJSC 220500Z 26006KT 230V300 9999 FEW010 SCT050 BKN070 33/25 Q1006","cat":"VFR"}]},"RJCO":{"raw":"METAR RJCO 220700Z VRB01KT 9999 FEW010 BKN070 BKN120 24/20 Q1005","cat":"VFR","temp":24,"wdir":"VRB","wspd":1,"visib":"6+","obs":1784703600,"hist":[{"obs":1784700000,"raw":"METAR RJCO 220600Z 35004KT 9999 -SHRA FEW010 SCT050 BKN080 23/21 Q1005","cat":"VFR"},{"obs":1784696400,"raw":"METAR RJCO 220500Z 36005KT 9999 -DZ FEW015 BKN080 23/20 Q1005","cat":"VFR"}]},"RJDT":{"raw":"METAR RJDT 220700Z VRB05KT 9999 FEW025 32/24 Q1008","cat":"VFR","temp":32,"wdir":"VRB","wspd":5,"visib":"6+","obs":1784703600,"hist":[{"obs":1784700000,"raw":"METAR RJDT 220600Z VRB05KT 9999 FEW025 BKN030 32/25 Q1009","cat":"MVFR"},{"obs":1784696400,"raw":"METAR RJDT 220500Z VRB05KT 9999 SCT030 32/24 Q1009","cat":"VFR"}]},"RJSA":{"raw":"METAR RJSA 220700Z 27009KT 1800 R24/1800U BCFG -SHRA BR SCT001 BKN002 24/24 Q1005","cat":"LIFR","temp":24,"wdir":270,"wspd":9,"visib":1.12,"obs":1784703600,"hist":[{"obs":1784700000,"raw":"METAR RJSA 220600Z 27013KT 5000 BCFG -SHRA BR FEW001 BKN002 BKN010 24/24 Q1005","cat":"LIFR"},{"obs":1784696400,"raw":"METAR RJSA 220500Z 25012KT 5000 R24/1100VP2000U SHRA BR FEW003 BKN010 BKN015 24/24 Q1005","cat":"MVFR"}]},"RJEC":{"raw":"METAR RJEC 220700Z 28005KT 260V320 9999 FEW015 SCT030 BKN120 24/21 Q1005","cat":"VFR","temp":24,"wdir":280,"wspd":5,"visib":"6+","obs":1784703600,"hist":[{"obs":1784700000,"raw":"METAR RJEC 220600Z 26003KT 230V300 9999 FEW015 SCT040 BKN120 24/20 Q1005","cat":"VFR"},{"obs":1784696400,"raw":"METAR RJEC 220500Z VRB02KT 9999 -SHRA FEW015 SCT030 BKN120 24/20 Q1005","cat":"VFR"}]},"RJOY":{"raw":"METAR RJOY 220700Z 26007KT 210V290 9999 FEW030 36/24 Q1006","cat":"VFR","temp":36,"wdir":260,"wspd":7,"visib":"6+","obs":1784703600,"hist":[{"obs":1784700000,"raw":"METAR RJOY 220600Z 27007KT 230V300 9999 FEW030 36/25 Q1007","cat":"VFR"},{"obs":1784696400,"raw":"METAR RJOY 220500Z 24006KT 170V310 9999 FEW030 36/25 Q1007","cat":"VFR"}]},"RJFE":{"raw":"METAR RJFE 220700Z 18008KT 140V220 9999 FEW015 30/26 Q1009","cat":"VFR","temp":30,"wdir":180,"wspd":8,"visib":"6+","obs":1784703600,"hist":[{"obs":1784700000,"raw":"METAR RJFE 220600Z 19007KT 150V220 9999 FEW015 30/26 Q1009","cat":"VFR"},{"obs":1784696400,"raw":"METAR RJFE 220500Z 19006KT 150V230 9999 FEW015 SCT020 31/26 Q1010","cat":"VFR"}]},"RJOW":{"raw":"METAR RJOW 220700Z 29013KT 9999 FEW015 31/26 Q1008","cat":"VFR","temp":31,"wdir":290,"wspd":13,"visib":"6+","obs":1784703600,"hist":[{"obs":1784700000,"raw":"METAR RJOW 220600Z 29011KT 9999 FEW020 31/26 Q1008","cat":"VFR"},{"obs":1784696400,"raw":"METAR RJOW 220500Z 29012KT 9999 FEW020 32/25 Q1008","cat":"VFR"}]},"RJOI":{"raw":"METAR RJOI 220656Z 15010KT 9999 FEW025 32/25 A2977 RMK AO2A SLP079 T03220250","cat":"VFR","temp":32.2,"wdir":150,"wspd":10,"visib":"6+","obs":1784703360,"hist":[{"obs":1784699760,"raw":"METAR RJOI 220556Z 16008KT 10SM FEW025 32/26 A2978 RMK AO2 SLP082 T03170256 10322 20289 56016 $","cat":"VFR"},{"obs":1784696160,"raw":"METAR RJOI 220456Z 17008KT 9999 FEW025 32/26 A2979 RMK AO2A SLP087 T03170256","cat":"VFR"}]},"RODN":{"raw":"METAR RODN 220655Z 28004KT 10SM RA BR BKN020 28/26 A2980 RMK AO2A DZE0557RAB0557E19DZB19E33RAB33 SLP092 P0019 T02760258 FZRANO $","cat":"MVFR","temp":27.6,"wdir":280,"wspd":4,"visib":"10+","obs":1784703300,"hist":[{"obs":1784699700,"raw":"METAR RODN 220555Z 34009KT 9SM -DZ BKN025 29/26 A2980 RMK AO2A LTG DSNT S RAB53E54DZB54 SLP092 P0000 60004 T02930261 10311 20287 57009 FZRANO $","cat":"MVFR"},{"obs":1784696100,"raw":"METAR RODN 220455Z 28006KT 10SM BKN020 30/27 A2981 RMK AO2A RAB0355E12DZB12E22 SLP095 P0001 T02980265 FZRANO $","cat":"MVFR"}]},"RJTY":{"raw":"METAR RJTY 220455Z 03003KT 10SM FEW040 SCT065 BKN170 36/26 A2974 RMK AO2A SLP069 T03640255 $","cat":"VFR","temp":36.4,"wdir":30,"wspd":3,"visib":"10+","obs":1784696100,"hist":[]}}}