{"updated":"2026-07-23T07:44Z","m":{"RJFF":{"raw":"METAR RJFF 230730Z 33011KT 9999 FEW025 BKN040 BKN050 31/25 Q1009 NOSIG","cat":"VFR","temp":31,"wdir":330,"wspd":11,"visib":"6+","obs":1784791800,"hist":[{"obs":1784790000,"raw":"METAR RJFF 230700Z 32010KT 280V360 9999 FEW025 BKN040 BKN050 31/25 Q1009 NOSIG","cat":"VFR"},{"obs":1784788200,"raw":"METAR RJFF 230630Z 33014KT 9999 FEW025 BKN040 BKN050 31/26 Q1009 NOSIG","cat":"VFR"},{"obs":1784786400,"raw":"METAR RJFF 230600Z 33015KT 9999 FEW025 BKN040 32/26 Q1009 NOSIG","cat":"VFR"},{"obs":1784784600,"raw":"METAR RJFF 230530Z 33015KT 9999 FEW025 BKN050 33/25 Q1009 NOSIG","cat":"VFR"},{"obs":1784782800,"raw":"METAR RJFF 230500Z 32014KT 9999 FEW025 SCT050 32/25 Q1009 NOSIG","cat":"VFR"}]},"RJGG":{"raw":"METAR RJGG 230730Z 25003KT 210V290 9999 FEW020 36/23 Q1006 BECMG TL0830 28005KT","cat":"VFR","temp":36,"wdir":250,"wspd":3,"visib":"6+","obs":1784791800,"hist":[{"obs":1784790000,"raw":"METAR RJGG 230700Z VRB02KT 9999 FEW020 36/25 Q1006 BECMG 25005KT","cat":"VFR"},{"obs":1784788200,"raw":"METAR RJGG 230630Z VRB02KT 9999 FEW020 36/25 Q1005 BECMG 22005KT","cat":"VFR"},{"obs":1784786400,"raw":"METAR RJGG 230600Z 21003KT 9999 FEW020 36/24 Q1006 NOSIG","cat":"VFR"},{"obs":1784784600,"raw":"METAR RJGG 230530Z 20005KT 9999 FEW020 35/27 Q1006 NOSIG","cat":"VFR"},{"obs":1784782800,"raw":"METAR RJGG 230500Z 21006KT 9999 FEW020 35/28 Q1006 NOSIG","cat":"VFR"}]},"RJBB":{"raw":"METAR RJBB 230730Z 25007KT 9999 FEW035 33/27 Q1007 NOSIG","cat":"VFR","temp":33,"wdir":250,"wspd":7,"visib":"6+","obs":1784791800,"hist":[{"obs":1784790000,"raw":"METAR RJBB 230700Z 25006KT 9999 FEW035 33/26 Q1007 NOSIG","cat":"VFR"},{"obs":1784788200,"raw":"METAR RJBB 230630Z 25007KT 9999 FEW035 33/27 Q1007 NOSIG","cat":"VFR"},{"obs":1784786400,"raw":"METAR RJBB 230600Z 26007KT 9999 FEW035 32/28 Q1007 NOSIG","cat":"VFR"},{"obs":1784784600,"raw":"METAR RJBB 230530Z 27006KT 9999 FEW035 33/28 Q1007 NOSIG","cat":"VFR"},{"obs":1784782800,"raw":"METAR RJBB 230500Z 27006KT 9999 FEW035 32/27 Q1008 NOSIG","cat":"VFR"}]},"RJAA":{"raw":"METAR RJAA 230730Z 10010KT 050V120 CAVOK 31/23 Q1007 NOSIG","cat":"VFR","temp":31,"wdir":100,"wspd":10,"visib":"6+","obs":1784791800,"hist":[{"obs":1784790000,"raw":"METAR RJAA 230700Z 08014KT CAVOK 32/23 Q1007 NOSIG","cat":"VFR"},{"obs":1784788200,"raw":"METAR RJAA 230630Z 07012KT 040V110 CAVOK 32/24 Q1007 NOSIG","cat":"VFR"},{"obs":1784786400,"raw":"METAR RJAA 230600Z 11013KT 070V130 9999 FEW030 33/25 Q1007 NOSIG","cat":"VFR"},{"obs":1784784600,"raw":"METAR RJAA 230530Z 10015KT 9999 FEW030 33/24 Q1007 NOSIG","cat":"VFR"},{"obs":1784782800,"raw":"METAR RJAA 230500Z 09011KT 050V130 9999 FEW030 SCT/// 33/24 Q1007 NOSIG","cat":"VFR"}]},"ROAH":{"raw":"METAR ROAH 230730Z 11008KT 9999 VCSH FEW019 SCT030 32/27 Q1008","cat":"VFR","temp":32,"wdir":110,"wspd":8,"visib":"6+","obs":1784791800,"hist":[{"obs":1784790000,"raw":"METAR ROAH 230700Z 09009KT 9999 R18L/P2000N R18R/2000N -SHRA FEW014 BKN030 31/28 Q1008","cat":"MVFR"},{"obs":1784788200,"raw":"METAR ROAH 230630Z 08007KT 040V150 9999 -SHRA FEW025 BKN030 32/27 Q1008","cat":"MVFR"},{"obs":1784786400,"raw":"METAR ROAH 230600Z 14006KT 090V180 9999 -SHRA FEW025 BKN035 34/27 Q1008","cat":"VFR"},{"obs":1784784600,"raw":"METAR ROAH 230530Z 15010KT 9999 -SHRA FEW020 SCT038 33/26 Q1008","cat":"VFR"},{"obs":1784782800,"raw":"METAR ROAH 230500Z 13008KT 9999 FEW030 SCT038 34/25 Q1008","cat":"VFR"}]},"RJCC":{"raw":"METAR RJCC 230730Z 18010KT 9999 FEW020 SCT/// 24/21 Q1009","cat":"VFR","temp":24,"wdir":180,"wspd":10,"visib":"6+","obs":1784791800,"hist":[{"obs":1784790000,"raw":"METAR RJCC 230700Z 17009KT 9999 FEW020CB BKN/// 25/21 Q1009","cat":"VFR"},{"obs":1784788200,"raw":"METAR RJCC 230630Z 17010KT 9999 FEW020CB 25/21 Q1009","cat":"VFR"},{"obs":1784786400,"raw":"METAR RJCC 230600Z 17010KT 150V210 9999 FEW020CB 25/21 Q1009","cat":"VFR"},{"obs":1784784600,"raw":"METAR RJCC 230530Z 17011KT 9999 FEW020 26/21 Q1009","cat":"VFR"},{"obs":1784782800,"raw":"METAR RJCC 230500Z 18011KT 9999 FEW020 26/21 Q1009","cat":"VFR"}]},"RJTT":{"raw":"METAR RJTT 230730Z 11012KT 9999 FEW030 32/26 Q1007 NOSIG","cat":"VFR","temp":32,"wdir":110,"wspd":12,"visib":"6+","obs":1784791800,"hist":[{"obs":1784790000,"raw":"METAR RJTT 230700Z 11012KT 9999 FEW030 33/26 Q1006 NOSIG","cat":"VFR"},{"obs":1784788200,"raw":"METAR RJTT 230630Z 11012KT 9999 FEW030 33/26 Q1006 NOSIG","cat":"VFR"},{"obs":1784786400,"raw":"METAR RJTT 230600Z 12014KT 9999 FEW030 34/26 Q1006 NOSIG","cat":"VFR"},{"obs":1784784600,"raw":"METAR RJTT 230530Z 11013KT 9999 FEW030 34/26 Q1006 NOSIG","cat":"VFR"},{"obs":1784782800,"raw":"METAR RJTT 230500Z 11014KT 9999 FEW030 34/26 Q1006 NOSIG","cat":"VFR"}]},"RJOK":{"raw":"METAR RJOK 230700Z 19005KT 150V210 9999 FEW030 32/27 Q1008","cat":"VFR","temp":32,"wdir":190,"wspd":5,"visib":"6+","obs":1784790000,"hist":[{"obs":1784786400,"raw":"METAR RJOK 230600Z 16006KT 120V200 9999 FEW030 32/25 Q1008","cat":"VFR"},{"obs":1784782800,"raw":"METAR RJOK 230500Z 20006KT 160V230 9999 FEW030 32/26 Q1008","cat":"VFR"}]},"RJFS":{"raw":"METAR RJFS 230700Z 19013KT 9999 FEW035 33/27 Q1009","cat":"VFR","temp":33,"wdir":190,"wspd":13,"visib":"6+","obs":1784790000,"hist":[{"obs":1784786400,"raw":"METAR RJFS 230600Z 18013KT 9999 FEW035 33/26 Q1009","cat":"VFR"},{"obs":1784782800,"raw":"METAR RJFS 230500Z 19012KT 9999 FEW035 33/26 Q1009","cat":"VFR"}]},"RJBE":{"raw":"METAR RJBE 230700Z 25009KT 9999 FEW035 34/26 Q1007","cat":"VFR","temp":34,"wdir":250,"wspd":9,"visib":"6+","obs":1784790000,"hist":[{"obs":1784786400,"raw":"METAR RJBE 230600Z 25009KT 9999 FEW035 33/27 Q1007","cat":"VFR"},{"obs":1784782800,"raw":"METAR RJBE 230500Z 23007KT 190V310 9999 FEW035 33/26 Q1007","cat":"VFR"}]},"RJFT":{"raw":"METAR RJFT 230700Z 23008KT 190V270 9999 FEW040 BKN050 33/23 Q1010","cat":"VFR","temp":33,"wdir":230,"wspd":8,"visib":"6+","obs":1784790000,"hist":[{"obs":1784786400,"raw":"METAR RJFT 230600Z 23005KT 170V280 9999 FEW040 SCT045 BKN050 33/23 Q1010","cat":"VFR"},{"obs":1784782800,"raw":"METAR RJFT 230500Z 24007KT 190V280 9999 FEW040 BKN/// 34/23 Q1010","cat":"VFR"}]},"ROMY":{"raw":"METAR ROMY 230700Z 06011KT 9999 VCSH SCT020 31/26 Q1008","cat":"VFR","temp":31,"wdir":60,"wspd":11,"visib":"6+","obs":1784790000,"hist":[{"obs":1784786400,"raw":"METAR ROMY 230600Z 07011KT 050V120 9999 VCSH SCT017 FEW020CB 32/26 Q1008","cat":"VFR"},{"obs":1784782800,"raw":"METAR ROMY 230500Z 07011KT 9999 VCSH SCT015 FEW020TCU 32/27 Q1008","cat":"VFR"}]},"RJOH":{"raw":"METAR RJOH 230700Z 27010KT 230V300 9999 FEW030 34/23 Q1008","cat":"VFR","temp":34,"wdir":270,"wspd":10,"visib":"6+","obs":1784790000,"hist":[{"obs":1784786400,"raw":"METAR RJOH 230600Z 27009KT 220V310 9999 FEW030 34/23 Q1008","cat":"VFR"},{"obs":1784782800,"raw":"METAR RJOH 230500Z 31008KT 280V350 9999 FEW030 34/23 Q1008","cat":"VFR"}]},"RJFU":{"raw":"METAR RJFU 230700Z 23010KT 9999 FEW020 SCT040 32/25 Q1009","cat":"VFR","temp":32,"wdir":230,"wspd":10,"visib":"6+","obs":1784790000,"hist":[{"obs":1784786400,"raw":"METAR RJFU 230600Z 23013KT 9999 FEW035 SCT040 32/25 Q1009","cat":"VFR"},{"obs":1784782800,"raw":"METAR RJFU 230500Z 23012KT 9999 FEW035 33/25 Q1009","cat":"VFR"}]},"RJOC":{"raw":"METAR RJOC 230700Z 25014KT 9999 FEW020 32/25 Q1008","cat":"VFR","temp":32,"wdir":250,"wspd":14,"visib":"6+","obs":1784790000,"hist":[{"obs":1784786400,"raw":"METAR RJOC 230600Z 26015KT 9999 FEW020 32/24 Q1008","cat":"VFR"},{"obs":1784782800,"raw":"METAR RJOC 230500Z 25016KT 9999 FEW030 33/24 Q1008","cat":"VFR"}]},"RJOA":{"raw":"METAR RJOA 230700Z 20006KT 130V250 9999 FEW030 32/24 Q1010","cat":"VFR","temp":32,"wdir":200,"wspd":6,"visib":"6+","obs":1784790000,"hist":[{"obs":1784786400,"raw":"METAR RJOA 230600Z VRB05KT 9999 FEW035 33/25 Q1010","cat":"VFR"},{"obs":1784782800,"raw":"METAR RJOA 230500Z 20006KT 140V240 9999 FEW030 33/26 Q1010","cat":"VFR"}]},"RJNW":{"raw":"METAR RJNW 230700Z 27007KT 230V320 9999 FEW020 30/24 Q1010","cat":"VFR","temp":30,"wdir":270,"wspd":7,"visib":"6+","obs":1784790000,"hist":[{"obs":1784786400,"raw":"METAR RJNW 230600Z 26007KT 200V310 9999 FEW020 SCT025 30/24 Q1010","cat":"VFR"},{"obs":1784782800,"raw":"METAR RJNW 230500Z 26009KT 9999 FEW020 SCT025 31/25 Q1010","cat":"VFR"}]},"RJCB":{"raw":"METAR RJCB 230700Z 16010KT 9999 FEW040 27/18 Q1008","cat":"VFR","temp":27,"wdir":160,"wspd":10,"visib":"6+","obs":1784790000,"hist":[{"obs":1784786400,"raw":"METAR RJCB 230600Z 16011KT 9999 FEW030 SCT/// 28/19 Q1008","cat":"VFR"},{"obs":1784782800,"raw":"METAR RJCB 230500Z 17009KT 060V200 9999 FEW030 29/20 Q1008","cat":"VFR"}]},"RJKA":{"raw":"METAR RJKA 230700Z 17006KT 9999 FEW020 32/27 Q1009","cat":"VFR","temp":32,"wdir":170,"wspd":6,"visib":"6+","obs":1784790000,"hist":[{"obs":1784786400,"raw":"METAR RJKA 230600Z 15006KT 9999 FEW020 32/27 Q1009","cat":"VFR"},{"obs":1784782800,"raw":"METAR RJKA 230500Z 17006KT 9999 FEW020 32/27 Q1010","cat":"VFR"}]},"RJNT":{"raw":"METAR RJNT 230700Z 28008KT 250V330 9999 FEW020 34/25 Q1008","cat":"VFR","temp":34,"wdir":280,"wspd":8,"visib":"6+","obs":1784790000,"hist":[{"obs":1784786400,"raw":"METAR RJNT 230600Z 29007KT 250V330 9999 FEW020 SCT035 34/25 Q1008","cat":"VFR"},{"obs":1784782800,"raw":"METAR RJNT 230500Z 28006KT 240V320 9999 FEW020 SCT035 34/25 Q1008","cat":"VFR"}]},"RJNK":{"raw":"METAR RJNK 230700Z 30009KT 270V330 9999 FEW030 31/25 Q1009","cat":"VFR","temp":31,"wdir":300,"wspd":9,"visib":"6+","obs":1784790000,"hist":[{"obs":1784786400,"raw":"METAR RJNK 230600Z 29008KT 250V320 9999 FEW030 31/26 Q1009","cat":"VFR"},{"obs":1784782800,"raw":"METAR RJNK 230500Z 30009KT 250V320 9999 FEW030 31/25 Q1009","cat":"VFR"}]},"RJAF":{"raw":"METAR RJAF 230700Z 36010KT 9999 FEW050 33/21 Q1010","cat":"VFR","temp":33,"wdir":360,"wspd":10,"visib":"6+","obs":1784790000,"hist":[{"obs":1784786400,"raw":"METAR RJAF 230600Z 36009KT 9999 FEW050 33/20 Q1010","cat":"VFR"},{"obs":1784782800,"raw":"METAR RJAF 230500Z 35008KT 310V010 9999 FEW050 34/21 Q1010","cat":"VFR"}]},"RJBD":{"raw":"METAR RJBD 230700Z 27007KT 230V320 8000 FEW035 32/26 Q1008","cat":"MVFR","temp":32,"wdir":270,"wspd":7,"visib":4.97,"obs":1784790000,"hist":[{"obs":1784786400,"raw":"METAR RJBD 230600Z 29008KT 250V320 9999 FEW035 34/25 Q1008","cat":"VFR"},{"obs":1784782800,"raw":"METAR RJBD 230500Z 29009KT 9999 FEW035 34/23 Q1008","cat":"VFR"}]},"RJOO":{"raw":"METAR RJOO 230700Z 22006KT 150V280 9999 FEW035 37/25 Q1006","cat":"VFR","temp":37,"wdir":220,"wspd":6,"visib":"6+","obs":1784790000,"hist":[{"obs":1784786400,"raw":"METAR RJOO 230600Z 22006KT 140V310 9999 FEW035 38/24 Q1006","cat":"VFR"},{"obs":1784782800,"raw":"METAR RJOO 230500Z VRB05KT 9999 FEW035 37/24 Q1007","cat":"VFR"}]},"RJFO":{"raw":"METAR RJFO 230700Z 05007KT 9999 FEW030 32/26 Q1008","cat":"VFR","temp":32,"wdir":50,"wspd":7,"visib":"6+","obs":1784790000,"hist":[{"obs":1784786400,"raw":"METAR RJFO 230600Z 04008KT 9999 FEW030 31/26 Q1008","cat":"VFR"},{"obs":1784782800,"raw":"METAR RJFO 230500Z 04008KT 9999 FEW030 31/25 Q1008","cat":"VFR"}]},"ROIG":{"raw":"METAR ROIG 230700Z 09006KT 050V160 9999 FEW015 31/26 Q1007","cat":"VFR","temp":31,"wdir":90,"wspd":6,"visib":"6+","obs":1784790000,"hist":[{"obs":1784786400,"raw":"METAR ROIG 230600Z 08008KT 050V110 9999 FEW015 31/27 Q1008","cat":"VFR"},{"obs":1784782800,"raw":"METAR ROIG 230500Z 08008KT 050V120 9999 VCSH FEW015 32/27 Q1008","cat":"VFR"}]},"RJOM":{"raw":"METAR RJOM 230700Z 21007KT 9999 FEW030 33/25 Q1008","cat":"VFR","temp":33,"wdir":210,"wspd":7,"visib":"6+","obs":1784790000,"hist":[{"obs":1784786400,"raw":"METAR RJOM 230600Z 21006KT 9999 FEW030 31/27 Q1008","cat":"VFR"},{"obs":1784782800,"raw":"METAR RJOM 230500Z 22006KT 9999 FEW030 31/27 Q1008","cat":"VFR"}]},"RJFR":{"raw":"METAR RJFR 230700Z 32015KT 9999 FEW030 33/25 Q1008","cat":"VFR","temp":33,"wdir":320,"wspd":15,"visib":"6+","obs":1784790000,"hist":[{"obs":1784786400,"raw":"METAR RJFR 230600Z 32015KT 9999 FEW025 33/25 Q1008","cat":"VFR"},{"obs":1784782800,"raw":"METAR RJFR 230500Z 33014KT 9999 FEW020 34/24 Q1009","cat":"VFR"}]},"RJFE":{"raw":"METAR RJFE 230700Z 13006KT 080V180 9999 FEW015 30/26 Q1010","cat":"VFR","temp":30,"wdir":130,"wspd":6,"visib":"6+","obs":1784790000,"hist":[{"obs":1784786400,"raw":"METAR RJFE 230600Z VRB02KT 9999 FEW015 SCT020 BKN030 29/25 Q1010","cat":"MVFR"},{"obs":1784782800,"raw":"METAR RJFE 230500Z 20008KT 170V230 9999 FEW015 SCT030 30/24 Q1010","cat":"VFR"}]},"RJOY":{"raw":"METAR RJOY 230700Z 26006KT 200V310 9999 FEW030 38/24 Q1006","cat":"VFR","temp":38,"wdir":260,"wspd":6,"visib":"6+","obs":1784790000,"hist":[{"obs":1784786400,"raw":"METAR RJOY 230600Z 25005KT 190V340 9999 FEW030 37/24 Q1007","cat":"VFR"},{"obs":1784782800,"raw":"METAR RJOY 230500Z 26008KT 180V310 9999 FEW030 37/25 Q1007","cat":"VFR"}]},"RJOW":{"raw":"METAR RJOW 230700Z 29011KT 9999 FEW020 31/25 Q1009","cat":"VFR","temp":31,"wdir":290,"wspd":11,"visib":"6+","obs":1784790000,"hist":[{"obs":1784786400,"raw":"METAR RJOW 230600Z 30011KT 9999 FEW025 30/25 Q1009","cat":"VFR"},{"obs":1784782800,"raw":"METAR RJOW 230500Z 30011KT 9999 FEW015 31/25 Q1010","cat":"VFR"}]},"RJOT":{"raw":"METAR RJOT 230700Z 28009KT 260V320 9999 FEW035 35/23 Q1009","cat":"VFR","temp":35,"wdir":280,"wspd":9,"visib":"6+","obs":1784790000,"hist":[{"obs":1784786400,"raw":"METAR RJOT 230600Z 32005KT 250V030 9999 FEW035 35/24 Q1009","cat":"VFR"},{"obs":1784782800,"raw":"METAR RJOT 230500Z 11003KT 060V140 9999 FEW035 SCT045 34/24 Q1009","cat":"VFR"}]},"RJFG":{"raw":"METAR RJFG 230700Z 27009KT 9999 FEW010 SCT015 30/26 Q1011","cat":"VFR","temp":30,"wdir":270,"wspd":9,"visib":"6+","obs":1784790000,"hist":[{"obs":1784786400,"raw":"METAR RJFG 230600Z 26008KT 9999 FEW010 SCT015 30/25 Q1011","cat":"VFR"},{"obs":1784782800,"raw":"METAR RJFG 230500Z 26008KT 220V310 9999 FEW010 SCT020 BKN/// 30/25 Q1011","cat":"VFR"}]},"RJOS":{"raw":"METAR RJOS 230700Z 06006KT 350V080 9999 FEW030 36/23 Q1007","cat":"VFR","temp":36,"wdir":60,"wspd":6,"visib":"6+","obs":1784790000,"hist":[{"obs":1784786400,"raw":"METAR RJOS 230600Z 01008KT 320V040 9999 FEW030 36/22 Q1008","cat":"VFR"},{"obs":1784782800,"raw":"METAR RJOS 230500Z 03009KT 9999 FEW030 36/23 Q1008","cat":"VFR"}]},"RJFK":{"raw":"METAR RJFK 230700Z 26009KT 9999 VCSH FEW030 32/24 Q1010","cat":"VFR","temp":32,"wdir":260,"wspd":9,"visib":"6+","obs":1784790000,"hist":[{"obs":1784786400,"raw":"METAR RJFK 230600Z 24009KT 190V270 9999 FEW030 SCT040 33/25 Q1010","cat":"VFR"},{"obs":1784782800,"raw":"METAR RJFK 230500Z 20009KT 150V250 9999 FEW030 33/24 Q1011","cat":"VFR"}]},"RJOR":{"raw":"METAR RJOR 230700Z 31006KT 9999 FEW030 32/26 Q1009","cat":"VFR","temp":32,"wdir":310,"wspd":6,"visib":"6+","obs":1784790000,"hist":[{"obs":1784786400,"raw":"METAR RJOR 230600Z 31009KT 9999 FEW030 32/26 Q1009","cat":"VFR"},{"obs":1784782800,"raw":"METAR RJOR 230500Z 33012KT 9999 FEW040 33/25 Q1009","cat":"VFR"}]},"RJFM":{"raw":"METAR RJFM 230700Z 15013KT 8000 FEW030 32/26 Q1008","cat":"MVFR","temp":32,"wdir":150,"wspd":13,"visib":4.97,"obs":1784790000,"hist":[{"obs":1784786400,"raw":"METAR RJFM 230600Z 14012KT 6000 FEW030 32/27 Q1008","cat":"MVFR"},{"obs":1784782800,"raw":"METAR RJFM 230500Z 14010KT 7000 FEW030 32/27 Q1009","cat":"MVFR"}]},"RJCH":{"raw":"METAR RJCH 230700Z 15008KT 9999 FEW030 SCT/// 25/21 Q1009","cat":"VFR","temp":25,"wdir":150,"wspd":8,"visib":"6+","obs":1784790000,"hist":[{"obs":1784786400,"raw":"METAR RJCH 230600Z 16007KT 9999 FEW030 SCT/// 25/21 Q1009","cat":"VFR"},{"obs":1784782800,"raw":"METAR RJCH 230500Z 14007KT 9999 FEW030 SCT/// 26/21 Q1009","cat":"VFR"}]},"RJTO":{"raw":"METAR RJTO 230700Z 21004KT 130V260 9999 FEW025 SCT/// 33/24 Q1007","cat":"VFR","temp":33,"wdir":210,"wspd":4,"visib":"6+","obs":1784790000,"hist":[{"obs":1784786400,"raw":"METAR RJTO 230600Z 23007KT 9999 FEW025 31/26 Q1007","cat":"VFR"},{"obs":1784782800,"raw":"METAR RJTO 230500Z 22007KT 190V260 9999 FEW030 32/26 Q1006","cat":"VFR"}]},"RJCK":{"raw":"METAR RJCK 230700Z 20010KT 9999 PRFG FEW001 SCT/// 21/19 Q1009","cat":"VFR","temp":21,"wdir":200,"wspd":10,"visib":"6+","obs":1784790000,"hist":[{"obs":1784786400,"raw":"METAR RJCK 230600Z 20011KT 9999 PRFG FEW001 SCT/// 22/19 Q1009","cat":"VFR"},{"obs":1784782800,"raw":"METAR RJCK 230500Z 19013KT 9999 PRFG FEW001 SCT/// 20/18 Q1009","cat":"VFR"}]},"RJTF":{"raw":"METAR RJTF 230700Z 13010KT 100V160 9999 FEW040 SCT060 35/24 Q1007","cat":"VFR","temp":35,"wdir":130,"wspd":10,"visib":"6+","obs":1784790000,"hist":[{"obs":1784786400,"raw":"METAR RJTF 230600Z 13012KT 9999 FEW040 SCT060 36/24 Q1006","cat":"VFR"},{"obs":1784782800,"raw":"METAR RJTF 230500Z 12010KT 9999 FEW040 BKN060 37/25 Q1006","cat":"VFR"}]},"RJAH":{"raw":"METAR RJAH 230700Z 09011KT 9999 FEW030 30/24 Q1008","cat":"VFR","temp":30,"wdir":90,"wspd":11,"visib":"6+","obs":1784790000,"hist":[{"obs":1784786400,"raw":"METAR RJAH 230600Z 09013KT 9999 FEW030 31/24 Q1007","cat":"VFR"},{"obs":1784782800,"raw":"METAR RJAH 230500Z 09011KT 050V120 9999 FEW030 FEW035TCU SCT250 32/25 Q1007","cat":"VFR"}]},"RJSS":{"raw":"METAR RJSS 230700Z 11010KT 9999 FEW006 SCT008 BKN012 25/22 Q1009","cat":"MVFR","temp":25,"wdir":110,"wspd":10,"visib":"6+","obs":1784790000,"hist":[{"obs":1784786400,"raw":"METAR RJSS 230600Z 12010KT 9999 FEW006 SCT008 BKN012 25/23 Q1009","cat":"MVFR"},{"obs":1784782800,"raw":"METAR RJSS 230500Z 13009KT 9999 FEW006 SCT008 BKN015 25/23 Q1008","cat":"MVFR"}]},"RJCM":{"raw":"METAR RJCM 230700Z 36008KT 9999 FEW002 SCT009 BKN010 19/17 Q1011","cat":"MVFR","temp":19,"wdir":360,"wspd":8,"visib":"6+","obs":1784790000,"hist":[{"obs":1784786400,"raw":"METAR RJCM 230600Z 04006KT 9999 FEW006 SCT010 BKN015 20/17 Q1010","cat":"MVFR"},{"obs":1784782800,"raw":"METAR RJCM 230500Z 36012KT 9999 FEW005 SCT010 BKN020 21/18 Q1010","cat":"MVFR"}]},"RJSN":{"raw":"METAR RJSN 230700Z 02007KT 9999 FEW015 BKN035 29/23 Q1009","cat":"VFR","temp":29,"wdir":20,"wspd":7,"visib":"6+","obs":1784790000,"hist":[{"obs":1784786400,"raw":"METAR RJSN 230600Z 03008KT 9999 FEW015 BKN030 29/24 Q1009","cat":"MVFR"},{"obs":1784782800,"raw":"METAR RJSN 230500Z 03007KT 350V050 9999 FEW015 BKN030 29/24 Q1008","cat":"MVFR"}]},"RJCO":{"raw":"METAR RJCO 230700Z 32013KT 9999 FEW020 SCT250 26/19 Q1009","cat":"VFR","temp":26,"wdir":320,"wspd":13,"visib":"6+","obs":1784790000,"hist":[{"obs":1784786400,"raw":"METAR RJCO 230600Z 32012KT 9999 FEW015 26/21 Q1009","cat":"VFR"},{"obs":1784782800,"raw":"METAR RJCO 230500Z 32011KT 9999 FEW015 SCT250 26/21 Q1009","cat":"VFR"}]},"RJSF":{"raw":"METAR RJSF 230700Z 32003KT 270V020 9999 FEW015 SCT090 28/23 Q1010","cat":"VFR","temp":28,"wdir":320,"wspd":3,"visib":"6+","obs":1784790000,"hist":[{"obs":1784786400,"raw":"METAR RJSF 230600Z 34009KT 9999 FEW015 SCT050 BKN070 27/23 Q1010","cat":"VFR"},{"obs":1784782800,"raw":"METAR RJSF 230500Z 01005KT 330V050 9999 FEW015 BKN070 27/24 Q1010","cat":"VFR"}]},"RJDT":{"raw":"METAR RJDT 230700Z VRB06KT 9999 FEW025 31/24 Q1009","cat":"VFR","temp":31,"wdir":"VRB","wspd":6,"visib":"6+","obs":1784790000,"hist":[{"obs":1784786400,"raw":"METAR RJDT 230600Z VRB06KT 9999 SCT025 32/25 Q1009","cat":"VFR"},{"obs":1784782800,"raw":"METAR RJDT 230500Z 24006KT 160V300 9999 SCT025 32/25 Q1009","cat":"VFR"}]},"RJSC":{"raw":"METAR RJSC 230700Z 36016KT 9999 FEW040 BKN/// 32/24 Q1008","cat":"VFR","temp":32,"wdir":360,"wspd":16,"visib":"6+","obs":1784790000,"hist":[{"obs":1784786400,"raw":"METAR RJSC 230600Z 35012KT 9999 FEW050 SCT/// 31/23 Q1008","cat":"VFR"},{"obs":1784782800,"raw":"METAR RJSC 230500Z 35011KT 310V030 9999 FEW050 SCT/// 32/23 Q1008","cat":"VFR"}]},"RJEC":{"raw":"METAR RJEC 230700Z 30011KT 9999 -SHRA FEW015 SCT040 BKN090 25/20 Q1009","cat":"VFR","temp":25,"wdir":300,"wspd":11,"visib":"6+","obs":1784790000,"hist":[{"obs":1784786400,"raw":"METAR RJEC 230600Z 29012KT 9999 FEW025 SCT040 BKN100 25/20 Q1009","cat":"VFR"},{"obs":1784782800,"raw":"METAR RJEC 230500Z 01011KT 9999 VCSH FEW020 SCT030 BKN/// 29/18 Q1009","cat":"VFR"}]},"RJSA":{"raw":"METAR RJSA 230700Z 36004KT 320V040 9999 FEW010 SCT015 BKN040 25/21 Q1010","cat":"VFR","temp":25,"wdir":360,"wspd":4,"visib":"6+","obs":1784790000,"hist":[{"obs":1784786400,"raw":"METAR RJSA 230600Z 34005KT 310V040 9999 FEW010 SCT015 BKN035 25/22 Q1009","cat":"VFR"},{"obs":1784782800,"raw":"METAR RJSA 230500Z 36005KT 320V050 9999 FEW010 BKN015 BKN030 25/21 Q1009","cat":"MVFR"}]},"RJOI":{"raw":"METAR RJOI 230656Z 18012KT 9999 FEW025 33/24 A2975 RMK AO2A SLP075 T03330244","cat":"VFR","temp":33.3,"wdir":180,"wspd":12,"visib":"6+","obs":1784789760,"hist":[{"obs":1784786160,"raw":"METAR RJOI 230556Z 18012KT 9999 FEW025 34/26 A2976 RMK AO2A SLP078 T03390256 10339 20289 58015","cat":"VFR"},{"obs":1784782560,"raw":"METAR RJOI 230456Z 15010KT 9999 FEW025 32/26 A2979 RMK AO2A TCU DSNT NW SLP086 T03220261","cat":"VFR"}]},"RJTY":{"raw":"METAR RJTY 230655Z 12009KT 10SM SCT040 BKN080 BKN200 34/23 A2979 RMK AO2A SLP086 T03410231 $","cat":"VFR","temp":34.1,"wdir":120,"wspd":9,"visib":"10+","obs":1784789700,"hist":[{"obs":1784786100,"raw":"METAR RJTY 230555Z 12013KT 10SM SCT040 BKN060 BKN200 35/23 A2977 RMK AO2A SLP079 T03480234 10379 20348 53001 $","cat":"VFR"},{"obs":1784782500,"raw":"METAR RJTY 230455Z COR 08007KT 10SM SCT040 BKN080 BKN180 37/21 A2976 RMK AO2A SLP075 T03690206 $ COR 0501","cat":"VFR"}]},"RODN":{"raw":"METAR RODN 230655Z 10007KT 10SM SCT025 32/26 A2979 RMK AO2A SLP088 T03170255 FZRANO $","cat":"VFR","temp":31.7,"wdir":100,"wspd":7,"visib":"10+","obs":1784789700,"hist":[{"obs":1784786100,"raw":"METAR RODN 230555Z 11007KT 10SM SCT025 32/25 A2979 RMK AO2A SLP088 T03230253 10331 20310 57007 FZRANO $","cat":"VFR"},{"obs":1784782500,"raw":"METAR RODN 230455Z AUTO 11006KT 10SM FEW028 33/26 A2980 RMK AO2 SLP091 T03290259 FZRANO $","cat":"VFR"}]}}}